{
"type": "FeatureCollection",
"name": "661_TALHOES",
"crs": { "type": "name", "properties": { "name": "urn:ogc:def:crs:OGC:1.3:CRS84" } },
"features": [
{"type":"Feature","properties":{},"geometry":{"type":"Polygon","coordinates":[[[-51.05140808657049,-22.191897289640323],[-51.051399822011653,-22.19203469480582],[-51.051163264717736,-22.192035072933272],[-51.051172018543042,-22.191897515799699],[-51.05140808657049,-22.191897289640323]]]}},
{"type":"Feature","properties":{},"geometry":{"type":"Polygon","coordinates":[[[-51.050571962898644,-22.189786561944725],[-51.050318128232895,-22.189786488723655],[-51.050320133831946,-22.189924801655138],[-51.050581305285597,-22.189925631725096],[-51.050571962898644,-22.189786561944725]]]}},
{"type":"Feature","properties":{},"geometry":{"type":"Polygon","coordinates":[[[-51.052775823857381,-22.188606022386647],[-51.052777557568895,-22.188882952609216],[-51.052253263083244,-22.188883728929934],[-51.052252834050989,-22.188605280020749],[-51.052775823857381,-22.188606022386647]]]}},
{"type":"Feature","properties":{},"geometry":{"type":"Polygon","coordinates":[[[-51.054797798034983,-22.187017481506821],[-51.054798341161202,-22.187156857697815],[-51.054536849059076,-22.187156793617948],[-51.054536306542381,-22.187018328382145],[-51.054797798034983,-22.187017481506821]]]}},
{"type":"Feature","properties":{},"geometry":{"type":"Polygon","coordinates":[[[-51.053164784821995,-22.183134765019251],[-51.053165867350195,-22.183412302939651],[-51.05264126655991,-22.183411562314451],[-51.05264181549142,-22.183134631166528],[-51.053164784821995,-22.183134765019251]]]}},
{"type":"Feature","properties":{},"geometry":{"type":"Polygon","coordinates":[[[-51.049147995290781,-22.184164193091593],[-51.049149069626189,-22.184440820061557],[-51.048722930310682,-22.184440340747468],[-51.048665777404089,-22.184163730533033],[-51.049147995290781,-22.184164193091593]]]}},
{"type":"Feature","properties":{},"geometry":{"type":"Polygon","coordinates":[[[-51.04799549383835,-22.186263381523045],[-51.047996566045327,-22.186540312085651],[-51.047473584591323,-22.186541679928482],[-51.047473817702908,-22.186265052632887],[-51.04799549383835,-22.186263381523045]]]}}
]
}
