{
"type": "FeatureCollection",
"name": "72696",
"crs": { "type": "name", "properties": { "name": "urn:ogc:def:crs:OGC:1.3:CRS84" } },
"features": [
{ "type": "Feature", "properties": { "id": null }, "geometry": { "type": "Polygon", "coordinates": [ [ [ -51.021541312917158, -22.08406382192835 ], [ -51.021255119066339, -22.084063859380631 ], [ -51.021255958584902, -22.084209672434007 ], [ -51.021542152845129, -22.084210397069693 ], [ -51.021541312917158, -22.08406382192835 ] ] ] } },
{ "type": "Feature", "properties": { "id": null }, "geometry": { "type": "Polygon", "coordinates": [ [ [ -51.020529362586828, -22.082770685771752 ], [ -51.020244534589644, -22.082773769641442 ], [ -51.020242374756187, -22.082918821005176 ], [ -51.020529929192016, -22.08291929321598 ], [ -51.020529362586828, -22.082770685771752 ] ] ] } },
{ "type": "Feature", "properties": { "id": null }, "geometry": { "type": "Polygon", "coordinates": [ [ [ -51.021974870394374, -22.081692140735825 ], [ -51.02162817308578, -22.081694219196798 ], [ -51.021629285454999, -22.081839524194194 ], [ -51.021975438310015, -22.081839478043605 ], [ -51.021974870394374, -22.081692140735825 ] ] ] } },
{ "type": "Feature", "properties": { "id": null }, "geometry": { "type": "Polygon", "coordinates": [ [ [ -51.026625660797798, -22.083581940442855 ], [ -51.026277868555454, -22.083583266853395 ], [ -51.026276805366606, -22.083729588251302 ], [ -51.026625961125177, -22.083730039830051 ], [ -51.026625660797798, -22.083581940442855 ] ] ] } },
{ "type": "Feature", "properties": { "id": null }, "geometry": { "type": "Polygon", "coordinates": [ [ [ -51.028476127619449, -22.087787092691574 ], [ -51.028128597573087, -22.087787914941668 ], [ -51.028126445821755, -22.087933474372782 ], [ -51.028474794452691, -22.087935192282099 ], [ -51.028476127619449, -22.087787092691574 ] ] ] } },
{ "type": "Feature", "properties": { "id": null }, "geometry": { "type": "Polygon", "coordinates": [ [ [ -51.021965482592314, -22.087961091315098 ], [ -51.021617407037759, -22.087962661887655 ], [ -51.021616611515029, -22.088108475085605 ], [ -51.021965232770135, -22.088108174590097 ], [ -51.021965482592314, -22.087961091315098 ] ] ] } },
{ "type": "Feature", "properties": { "id": null }, "geometry": { "type": "Polygon", "coordinates": [ [ [ -51.020687037225535, -22.085556357780288 ], [ -51.020338694979884, -22.085557925660918 ], [ -51.020340623915452, -22.085704246617148 ], [ -51.020687058612936, -22.085703187033275 ], [ -51.020687037225535, -22.085556357780288 ] ] ] } }
]
}
