{
"type": "FeatureCollection",
"name": "74097",
"crs": { "type": "name", "properties": { "name": "urn:ogc:def:crs:OGC:1.3:CRS84" } },
"features": [
{ "type": "Feature", "properties": { "id": null }, "geometry": { "type": "Polygon", "coordinates": [ [ [ -51.150612496609277, -22.258197207465585 ], [ -51.150320830187198, -22.258199187722362 ], [ -51.150321414349463, -22.258316121764128 ], [ -51.150612853182906, -22.258315851911117 ], [ -51.150612496609277, -22.258197207465585 ] ] ] } },
{ "type": "Feature", "properties": { "id": null }, "geometry": { "type": "Polygon", "coordinates": [ [ [ -51.149751930570574, -22.259249558881645 ], [ -51.149458882160538, -22.259249828679941 ], [ -51.149459924940793, -22.259366762291172 ], [ -51.149753203256161, -22.259366492277994 ], [ -51.149751930570574, -22.259249558881645 ] ] ] } },
{ "type": "Feature", "properties": { "id": null }, "geometry": { "type": "Polygon", "coordinates": [ [ [ -51.147675801213936, -22.261015524775786 ], [ -51.147382750443143, -22.261017073494703 ], [ -51.147382871966812, -22.261133152840035 ], [ -51.147676382981679, -22.261132245024491 ], [ -51.147675801213936, -22.261015524775786 ] ] ] } },
{ "type": "Feature", "properties": { "id": null }, "geometry": { "type": "Polygon", "coordinates": [ [ [ -51.146041628828833, -22.262019603312449 ], [ -51.145747657930222, -22.262021791241615 ], [ -51.145748006892894, -22.262137015278693 ], [ -51.146041980693418, -22.262137392636838 ], [ -51.146041628828833, -22.262019603312449 ] ] ] } },
{ "type": "Feature", "properties": { "id": null }, "geometry": { "type": "Polygon", "coordinates": [ [ [ -51.153070096556249, -22.255878451874356 ], [ -51.152778434536209, -22.25588000896694 ], [ -51.15277718207426, -22.255995662103803 ], [ -51.153070911706372, -22.255994530613755 ], [ -51.153070096556249, -22.255878451874356 ] ] ] } },
{ "type": "Feature", "properties": { "id": null }, "geometry": { "type": "Polygon", "coordinates": [ [ [ -51.152861033894801, -22.257289987233133 ], [ -51.152570515154352, -22.257289618921217 ], [ -51.15256995195606, -22.257405698938943 ], [ -51.152862308669953, -22.257406493070636 ], [ -51.152861033894801, -22.257289987233133 ] ] ] } },
{ "type": "Feature", "properties": { "id": null }, "geometry": { "type": "Polygon", "coordinates": [ [ [ -51.153708893179186, -22.257988870996577 ], [ -51.153421820927541, -22.257991280020107 ], [ -51.153428145898395, -22.258105215780638 ], [ -51.153714304176972, -22.258106869322109 ], [ -51.153708893179186, -22.257988870996577 ] ] ] } },
{ "type": "Feature", "properties": { "id": null }, "geometry": { "type": "Polygon", "coordinates": [ [ [ -51.144467936238506, -22.257638207975212 ], [ -51.144227483067283, -22.257638421558916 ], [ -51.144198593954478, -22.257685263796258 ], [ -51.144175699824935, -22.257755402122413 ], [ -51.14446782589873, -22.257754501362296 ], [ -51.144467936238506, -22.257638207975212 ] ] ] } }
]
}
