{
"type": "FeatureCollection",
"name": "74098",
"crs": { "type": "name", "properties": { "name": "urn:ogc:def:crs:OGC:1.3:CRS84" } },
"features": [
{ "type": "Feature", "properties": { "id": null }, "geometry": { "type": "Polygon", "coordinates": [ [ [ -51.072526929635316, -22.182442730369154 ], [ -51.072132656396789, -22.182443770069458 ], [ -51.072133355375648, -22.182600565549858 ], [ -51.072527011280179, -22.182601831942122 ], [ -51.072526929635316, -22.182442730369154 ] ] ] } },
{ "type": "Feature", "properties": { "id": null }, "geometry": { "type": "Polygon", "coordinates": [ [ [ -51.07115050741082, -22.184548551055638 ], [ -51.070756229431638, -22.184551893260014 ], [ -51.070755998166497, -22.184708112658168 ], [ -51.071150587659758, -22.184707940819735 ], [ -51.07115050741082, -22.184548551055638 ] ] ] } },
{ "type": "Feature", "properties": { "id": null }, "geometry": { "type": "Polygon", "coordinates": [ [ [ -51.065447042145671, -22.187162570971079 ], [ -51.065052755503956, -22.187163305344086 ], [ -51.065051899094847, -22.187319813174415 ], [ -51.065447115437429, -22.187320807793618 ], [ -51.065447042145671, -22.187162570971079 ] ] ] } },
{ "type": "Feature", "properties": { "id": null }, "geometry": { "type": "Polygon", "coordinates": [ [ [ -51.063814656946235, -22.190259933447404 ], [ -51.063421909241761, -22.19026095151462 ], [ -51.063421051016753, -22.19041745928126 ], [ -51.063815347540192, -22.190418458199691 ], [ -51.063814656946235, -22.190259933447404 ] ] ] } },
{ "type": "Feature", "properties": { "id": null }, "geometry": { "type": "Polygon", "coordinates": [ [ [ -51.064776056498864, -22.193875797164786 ], [ -51.064380203996713, -22.193877395251253 ], [ -51.064382750823604, -22.194032748696745 ], [ -51.064775200291876, -22.194033457774118 ], [ -51.064776056498864, -22.193875797164786 ] ] ] } },
{ "type": "Feature", "properties": { "id": null }, "geometry": { "type": "Polygon", "coordinates": [ [ [ -51.061809686875861, -22.195766567170271 ], [ -51.061416304946405, -22.19576786889829 ], [ -51.061418539673255, -22.195924663613727 ], [ -51.061811303783045, -22.195925091476731 ], [ -51.061809686875861, -22.195766567170271 ] ] ] } },
{ "type": "Feature", "properties": { "id": null }, "geometry": { "type": "Polygon", "coordinates": [ [ [ -51.059284748294274, -22.197274068972416 ], [ -51.058892600165265, -22.197275364163023 ], [ -51.058893593478004, -22.197430718202771 ], [ -51.059285742280345, -22.197429999462919 ], [ -51.059284748294274, -22.197274068972416 ] ] ] } },
{ "type": "Feature", "properties": { "id": null }, "geometry": { "type": "Polygon", "coordinates": [ [ [ -51.067404088761791, -22.19397993370557 ], [ -51.067008236425785, -22.193982402861177 ], [ -51.067009238358509, -22.194137180438975 ], [ -51.06740416427084, -22.194138170389472 ], [ -51.067404088761791, -22.19397993370557 ] ] ] } },
{ "type": "Feature", "properties": { "id": null }, "geometry": { "type": "Polygon", "coordinates": [ [ [ -51.06862028071415, -22.191117906056348 ], [ -51.068225982933591, -22.191118359909645 ], [ -51.068231628198824, -22.191272270904864 ], [ -51.06861819082016, -22.191275567250038 ], [ -51.06862028071415, -22.191117906056348 ] ] ] } },
{ "type": "Feature", "properties": { "id": null }, "geometry": { "type": "Polygon", "coordinates": [ [ [ -51.070149927877893, -22.189796452964135 ], [ -51.069757490333018, -22.189796045033681 ], [ -51.069757877386351, -22.189953128749487 ], [ -51.070151243561675, -22.189952959823536 ], [ -51.070149927877893, -22.189796452964135 ] ] ] } }
]
}
