{
"type": "FeatureCollection",
"name": "75531",
"crs": { "type": "name", "properties": { "name": "urn:ogc:def:crs:OGC:1.3:CRS84" } },
"features": [
{ "type": "Feature", "properties": { "id": null }, "geometry": { "type": "Polygon", "coordinates": [ [ [ -50.997673113149943, -22.037508136370462 ], [ -50.997382878039403, -22.037509621074509 ], [ -50.997382875935493, -22.037624067849514 ], [ -50.997672654920606, -22.037623434044427 ], [ -50.997673113149943, -22.037508136370462 ] ] ] } },
{ "type": "Feature", "properties": { "id": null }, "geometry": { "type": "Polygon", "coordinates": [ [ [ -50.999509896247119, -22.038494989640949 ], [ -50.999220571835394, -22.038497115782878 ], [ -50.999219658509269, -22.038612200718816 ], [ -50.999509895846515, -22.038611350939213 ], [ -50.999509896247119, -22.038494989640949 ] ] ] } },
{ "type": "Feature", "properties": { "id": null }, "geometry": { "type": "Polygon", "coordinates": [ [ [ -51.000437424671361, -22.039099557979881 ], [ -51.000146958168173, -22.039099133045461 ], [ -51.000148555511984, -22.039214430702184 ], [ -51.000437881373635, -22.039214217457896 ], [ -51.000437424671361, -22.039099557979881 ] ] ] } },
{ "type": "Feature", "properties": { "id": null }, "geometry": { "type": "Polygon", "coordinates": [ [ [ -51.0001499268893, -22.041424231259878 ], [ -50.999859683820702, -22.041424869447123 ], [ -50.999859455527293, -22.041541230703576 ], [ -51.000149927012984, -22.04154165614775 ], [ -51.0001499268893, -22.041424231259878 ] ] ] } },
{ "type": "Feature", "properties": { "id": null }, "geometry": { "type": "Polygon", "coordinates": [ [ [ -51.003253396246883, -22.042010897981811 ], [ -51.002979809087542, -22.042011115914747 ], [ -51.002962469853308, -22.042126626572625 ], [ -51.003253170731867, -22.042127471960722 ], [ -51.003253396246883, -22.042010897981811 ] ] ] } },
{ "type": "Feature", "properties": { "id": null }, "geometry": { "type": "Polygon", "coordinates": [ [ [ -51.004849712080812, -22.041200371504708 ], [ -51.004559013127619, -22.041200805307792 ], [ -51.004558788676277, -22.041317166573609 ], [ -51.00484994423104, -22.041316945483633 ], [ -51.004849712080812, -22.041200371504708 ] ] ] } },
{ "type": "Feature", "properties": { "id": null }, "geometry": { "type": "Polygon", "coordinates": [ [ [ -51.003590098194231, -22.038405818697125 ], [ -51.003311726322124, -22.038406250015029 ], [ -51.003308762744162, -22.038521547742704 ], [ -51.003591242003395, -22.03852239269774 ], [ -51.003590098194231, -22.038405818697125 ] ] ] } },
{ "type": "Feature", "properties": { "id": null }, "geometry": { "type": "Polygon", "coordinates": [ [ [ -51.002969393871403, -22.034957111206388 ], [ -51.002388021461741, -22.034958822524942 ], [ -51.00238574367259, -22.035191119800444 ], [ -51.002961640986335, -22.035189408589023 ], [ -51.002969393871403, -22.034957111206388 ] ] ] } }
]
}
