{
"type": "FeatureCollection",
"name": "77967",
"crs": { "type": "name", "properties": { "name": "urn:ogc:def:crs:OGC:1.3:CRS84" } },
"features": [
{ "type": "Feature", "properties": { "id": null }, "geometry": { "type": "Polygon", "coordinates": [ [ [ -51.096733246670034, -22.086609775843705 ], [ -51.096208851648854, -22.086614677843823 ], [ -51.096209403344169, -22.086822874880713 ], [ -51.096734212129419, -22.086821417073402 ], [ -51.096733246670034, -22.086609775843705 ] ] ] } },
{ "type": "Feature", "properties": { "id": null }, "geometry": { "type": "Polygon", "coordinates": [ [ [ -51.095445343836523, -22.084615052583487 ], [ -51.094921364715354, -22.084616888464115 ], [ -51.094921094239908, -22.084826616902475 ], [ -51.095445895678715, -22.084825163256291 ], [ -51.095445343836523, -22.084615052583487 ] ] ] } },
{ "type": "Feature", "properties": { "id": null }, "geometry": { "type": "Polygon", "coordinates": [ [ [ -51.093965147487133, -22.082391182338924 ], [ -51.093440765139782, -22.082391865535268 ], [ -51.09344254464667, -22.082600061999408 ], [ -51.093964053304056, -22.082599380446432 ], [ -51.093965147487133, -22.082391182338924 ] ] ] } },
{ "type": "Feature", "properties": { "id": null }, "geometry": { "type": "Polygon", "coordinates": [ [ [ -51.098185014741709, -22.085602750768572 ], [ -51.097662265038004, -22.085606125568173 ], [ -51.097662818590749, -22.085813939902504 ], [ -51.098183517945195, -22.085813628056222 ], [ -51.098185014741709, -22.085602750768572 ] ] ] } },
{ "type": "Feature", "properties": { "id": null }, "geometry": { "type": "Polygon", "coordinates": [ [ [ -51.099827442505919, -22.091223466123171 ], [ -51.099303849510115, -22.091224933170501 ], [ -51.099303174337834, -22.091433896241981 ], [ -51.099826769180616, -22.091433960055273 ], [ -51.099827442505919, -22.091223466123171 ] ] ] } },
{ "type": "Feature", "properties": { "id": null }, "geometry": { "type": "Polygon", "coordinates": [ [ [ -51.097063238145978, -22.09026604560249 ], [ -51.096538826255937, -22.090265973407131 ], [ -51.096544719389257, -22.090477611634174 ], [ -51.097064203359864, -22.090476538587577 ], [ -51.097063238145978, -22.09026604560249 ] ] ] } },
{ "type": "Feature", "properties": { "id": null }, "geometry": { "type": "Polygon", "coordinates": [ [ [ -51.099631158729508, -22.088022552807345 ], [ -51.099110451031429, -22.088022486578264 ], [ -51.099110186757045, -22.088232214913781 ], [ -51.099631715993432, -22.088231515209394 ], [ -51.099631158729508, -22.088022552807345 ] ] ] } }
]
}
