{
"type": "FeatureCollection",
"name": "80379",
"crs": { "type": "name", "properties": { "name": "urn:ogc:def:crs:OGC:1.3:CRS84" } },
"features": [
{"type":"Feature","properties":{},"geometry":{"type":"Polygon","coordinates":[[[-51.037706541591533,-22.165853107553144],[-51.037705781191029,-22.165983440199415],[-51.037463365510568,-22.16598739428203],[-51.037463669670771,-22.165855844994955],[-51.037706541591533,-22.165853107553144]]]}},
{"type":"Feature","properties":{},"geometry":{"type":"Polygon","coordinates":[[[-51.037149015942489,-22.165066701352604],[-51.037149928423098,-22.165325845844137],[-51.036674830188616,-22.165312462795278],[-51.036661142979554,-22.165053014143545],[-51.037149015942489,-22.165066701352604]]]}},
{"type":"Feature","properties":{},"geometry":{"type":"Polygon","coordinates":[[[-51.036725320782047,-22.162786412323239],[-51.036733837267683,-22.163054681620814],[-51.03646800125172,-22.1630516400188],[-51.036389832079983,-22.162903514000753],[-51.036303450582807,-22.162788541444648],[-51.036301625621597,-22.162784891522232],[-51.036725320782047,-22.162786412323239]]]}},
{"type":"Feature","properties":{},"geometry":{"type":"Polygon","coordinates":[[[-51.036517883524745,-22.161008291786263],[-51.036519100165549,-22.161267436277797],[-51.036031227202614,-22.161268652918601],[-51.036030923042411,-22.161002512742439],[-51.036517883524745,-22.161008291786263]]]}},
{"type":"Feature","properties":{},"geometry":{"type":"Polygon","coordinates":[[[-51.035196003289755,-22.157208722551246],[-51.035301546879616,-22.157429542857411],[-51.03512209236083,-22.157471821125398],[-51.035026281897409,-22.157482466732439],[-51.034928038152373,-22.157246742576412],[-51.035196003289755,-22.157208722551246]]]}},
{"type":"Feature","properties":{},"geometry":{"type":"Polygon","coordinates":[[[-51.03496879561937,-22.156094431653674],[-51.035047116871212,-22.15616423641988],[-51.034954500089903,-22.156233737025886],[-51.03488089332118,-22.156266282167429],[-51.034874810117152,-22.156202560605252],[-51.034858841706587,-22.156161651058174],[-51.03496879561937,-22.156094431653674]]]}},
{"type":"Feature","properties":{},"geometry":{"type":"Polygon","coordinates":[[[-51.036445493396812,-22.160020379452341],[-51.03644640587742,-22.160237853996289],[-51.035965224438911,-22.160277394822465],[-51.035977999167372,-22.160041366506231],[-51.036445493396812,-22.160020379452341]]]}},
{"type":"Feature","properties":{},"geometry":{"type":"Polygon","coordinates":[[[-51.038327940882866,-22.167719890788803],[-51.038284445974078,-22.167967477192683],[-51.037918237091674,-22.167967477192683],[-51.037940440786372,-22.167906645152417],[-51.037985760656369,-22.167783764431082],[-51.038000664506235,-22.167701337016521],[-51.038327940882866,-22.167719890788803]]]}},
{"type":"Feature","properties":{},"geometry":{"type":"Polygon","coordinates":[[[-51.037771175634347,-22.169259549727929],[-51.03780250413508,-22.169428966960069],[-51.037832311834812,-22.169502877888991],[-51.037401316829524,-22.169519302539864],[-51.037382763057245,-22.169338327220075],[-51.037377288173623,-22.169255899805513],[-51.037771175634347,-22.169259549727929]]]}},
{"type":"Feature","properties":{},"geometry":{"type":"Polygon","coordinates":[[[-51.036601983820425,-22.171081469333895],[-51.03667924051156,-22.171154163622013],[-51.036530810333311,-22.171326014135765],[-51.036391504961102,-22.171184883802347],[-51.036307556745534,-22.171091506620542],[-51.036533243614926,-22.171004516802959],[-51.036601983820425,-22.171081469333895]]]}}
]
}
