{
"type": "FeatureCollection",
"name": "ROI",
"crs": { "type": "name", "properties": { "name": "urn:ogc:def:crs:OGC:1.3:CRS84" } },
"features": [
{ "type": "Feature", "properties": { "Id": 0 }, "geometry": { "type": "Polygon", "coordinates": [ [ [ -53.021969393630648, -22.664460394912787 ], [ -53.02216372718452, -22.664721942430742 ], [ -53.022213378691163, -22.664684582273196 ], [ -53.022231900188473, -22.664683272681472 ], [ -53.022312526296751, -22.66466511299998 ], [ -53.022295415474929, -22.66463934705336 ], [ -53.022284415083931, -22.66461226682037 ], [ -53.022591567495788, -22.664426101458666 ], [ -53.022600493243395, -22.664416946729069 ], [ -53.022296751277949, -22.664006145364766 ], [ -53.022158846535568, -22.664081711480087 ], [ -53.02193659597495, -22.664224999732728 ], [ -53.021816915253524, -22.664253030284385 ], [ -53.021969393630648, -22.664460394912787 ] ] ] } },
{ "type": "Feature", "properties": { "Id": 0 }, "geometry": { "type": "Polygon", "coordinates": [ [ [ -53.024410375101112, -22.664238411844948 ], [ -53.024467794015536, -22.664319140542453 ], [ -53.02463680164707, -22.664318635596501 ], [ -53.024637991450085, -22.663563156514453 ], [ -53.023912685606433, -22.663563877893321 ], [ -53.024079782746647, -22.663791937135034 ], [ -53.024212133719757, -22.663973930215729 ], [ -53.024410375101112, -22.664238411844948 ] ] ] } },
{ "type": "Feature", "properties": { "Id": 0 }, "geometry": { "type": "Polygon", "coordinates": [ [ [ -53.024992109575841, -22.663829386764387 ], [ -53.025185769037371, -22.664088549710513 ], [ -53.025269893776105, -22.664044682723404 ], [ -53.025462695266967, -22.663928274981025 ], [ -53.025644119927861, -22.663812181934116 ], [ -53.025562703975567, -22.663702355221591 ], [ -53.025385811463551, -22.663463049533348 ], [ -53.025329493142259, -22.663388145211758 ], [ -53.025082097552463, -22.663536772782987 ], [ -53.024906659838777, -22.663642023086215 ], [ -53.024864345240815, -22.663653010617988 ], [ -53.024992109575841, -22.663829386764387 ] ] ] } }
]
}
