{
"type": "FeatureCollection",
"name": "talhao",
"crs": { "type": "name", "properties": { "name": "urn:ogc:def:crs:OGC:1.3:CRS84" } },
"features": [
{ "type": "Feature", "properties": { "Id": 0 }, "geometry": { "type": "Polygon", "coordinates": [ [ [ -53.101794917813251, -22.694864049195626 ], [ -53.102301026333677, -22.694989731101753 ], [ -53.102344100678394, -22.694856037936148 ], [ -53.10244039910549, -22.694510292269296 ], [ -53.101933281421466, -22.694384359640971 ], [ -53.101794917813251, -22.694864049195626 ] ] ] } },
{ "type": "Feature", "properties": { "Id": 0 }, "geometry": { "type": "Polygon", "coordinates": [ [ [ -53.100043288297243, -22.694641585500072 ], [ -53.100047111086973, -22.694644627588964 ], [ -53.100112334881068, -22.694464233443476 ], [ -53.10020123541085, -22.694164911580003 ], [ -53.10017675628395, -22.694160679695205 ], [ -53.099673848884933, -22.69403578455875 ], [ -53.09962646460346, -22.694185022600408 ], [ -53.099518518322476, -22.694505785419203 ], [ -53.099527131232684, -22.694510343783111 ], [ -53.099538011231722, -22.69451610199755 ], [ -53.099567356141243, -22.694523389737384 ], [ -53.100043288297243, -22.694641585500072 ] ] ] } }
]
}
