{
"type": "FeatureCollection",
"name": "ROI",
"crs": { "type": "name", "properties": { "name": "urn:ogc:def:crs:OGC:1.3:CRS84" } },
"features": [
{"type":"Feature","properties":{"id":null},"geometry":{"type":"MultiPolygon","coordinates":[[[[-53.07835084793885,-22.804468872616113],[-53.077589327244908,-22.804470642222682],[-53.077588147507193,-22.804794480224984],[-53.078353797283135,-22.804793300487272],[-53.07835084793885,-22.804468872616113]]]]}},
{"type":"Feature","properties":{"id":null},"geometry":{"type":"MultiPolygon","coordinates":[[[[-53.0790008834189,-22.809234718043463],[-53.078621597744068,-22.809233538305747],[-53.078623957219492,-22.809395457306902],[-53.079002358091039,-22.809396342110187],[-53.0790008834189,-22.809234718043463]]]]}},
{"type":"Feature","properties":{"id":null},"geometry":{"type":"MultiPolygon","coordinates":[[[[-53.078919563429167,-22.803832395705488],[-53.078916447938312,-22.803818834157052],[-53.078866989471081,-22.803812753197967],[-53.078819152592942,-22.803797753498888],[-53.078781856043882,-22.803780726813446],[-53.078755099823908,-22.803763700128009],[-53.07872023565848,-22.803743024867117],[-53.078690236260329,-22.803740592483482],[-53.07866510162944,-22.80373370072985],[-53.078625999817682,-22.803708510139586],[-53.078585846462708,-22.8037196638493],[-53.078488145720065,-22.803754933411994],[-53.078415174211038,-22.803788581385604],[-53.078344635085642,-22.80383925604465],[-53.078304095358405,-22.803875336401891],[-53.078253826096628,-22.803935335198201],[-53.078203962232124,-22.804017630844495],[-53.078191180044875,-22.80404350697966],[-53.078239029096174,-22.804055332790821],[-53.078259298959793,-22.804054724694911],[-53.078309770920207,-22.804065873119903],[-53.078354770017441,-22.804072967572168],[-53.078366338858814,-22.804076171251317],[-53.07837585067562,-22.804067900106268],[-53.078460578705545,-22.803962902212724],[-53.078535171803658,-22.80391425454004],[-53.078631656354489,-22.803875336401891],[-53.078703411671697,-22.803856688127361],[-53.078779626358902,-22.803843310017374],[-53.078919563429167,-22.803832395705488]]]]}}
]
}
