{
"type": "FeatureCollection",
"name": "ROI",
"crs": { "type": "name", "properties": { "name": "urn:ogc:def:crs:OGC:1.3:CRS84" } },
"features": [
{ "type": "Feature", "properties": { "id": 0 }, "geometry": { "type": "Polygon", "coordinates": [ [ [ -52.924478788467049, -22.943970125300535 ], [ -52.923999085483644, -22.943970643338314 ], [ -52.923999603521423, -22.944270069174607 ], [ -52.92448137865594, -22.944268515061271 ], [ -52.924478788467049, -22.943970125300535 ] ] ] } },
{ "type": "Feature", "properties": { "id": 0 }, "geometry": { "type": "Polygon", "coordinates": [ [ [ -52.925542320027432, -22.942894160833418 ], [ -52.925540816929811, -22.942604062989005 ], [ -52.9254092168444, -22.942635882814272 ], [ -52.925255444176912, -22.942668302970503 ], [ -52.925104941994732, -22.942692438766926 ], [ -52.925090073046306, -22.942894160833418 ], [ -52.925542320027432, -22.942894160833418 ] ] ] } },
{ "type": "Feature", "properties": { "id": 0 }, "geometry": { "type": "Polygon", "coordinates": [ [ [ -52.923006007061169, -22.944787588915883 ], [ -52.922523713888864, -22.944787588915883 ], [ -52.922526822115536, -22.945081316336605 ], [ -52.922830910291843, -22.945074581845478 ], [ -52.92300238079671, -22.944994804027505 ], [ -52.923006007061169, -22.944787588915883 ] ] ] } },
{ "type": "Feature", "properties": { "id": 0 }, "geometry": { "type": "Polygon", "coordinates": [ [ [ -52.937444649584904, -22.946545765549899 ], [ -52.937073810587151, -22.946542196358337 ], [ -52.937074881344586, -22.946769196938362 ], [ -52.937453215644496, -22.946770267695797 ], [ -52.937444649584904, -22.946545765549899 ] ] ] } }
]
}
