{
"type": "FeatureCollection",
"name": "roi",
"crs": { "type": "name", "properties": { "name": "urn:ogc:def:crs:OGC:1.3:CRS84" } },
"features": [
{ "type": "Feature", "properties": { "Id": 0 }, "geometry": { "type": "Polygon", "coordinates": [ [ [ -53.098334815795795, -22.816928689705492 ], [ -53.097920304270758, -22.816927116606792 ], [ -53.097919114540218, -22.817310209828747 ], [ -53.098202030669256, -22.817310209828747 ], [ -53.098289832780438, -22.817067984663652 ], [ -53.098334815795795, -22.816928689705492 ] ] ] } },
{ "type": "Feature", "properties": { "Id": 0 }, "geometry": { "type": "Polygon", "coordinates": [ [ [ -53.098400083295303, -22.820926778117951 ], [ -53.098399091482861, -22.820716844493063 ], [ -53.0980243263744, -22.820715059897282 ], [ -53.0980243263744, -22.820944558911322 ], [ -53.098301748061999, -22.820943768536154 ], [ -53.098400083295303, -22.820926778117951 ] ] ] } },
{ "type": "Feature", "properties": { "Id": 0 }, "geometry": { "type": "Polygon", "coordinates": [ [ [ -53.099838484949032, -22.817231162151074 ], [ -53.099461935244847, -22.817231875989421 ], [ -53.099464433678804, -22.817459590407623 ], [ -53.099837057272396, -22.817460304245969 ], [ -53.099838484949032, -22.817231162151074 ] ] ] } }
]
}
