{
"type": "FeatureCollection",
"name": "TALHAO",
"crs": { "type": "name", "properties": { "name": "urn:ogc:def:crs:OGC:1.3:CRS84" } },
"features": [
{ "type": "Feature", "properties": { "id": "kml_1", "Name": "kml_1", "descriptio": null, "timestamp": null, "begin": null, "end": null, "altitudeMo": null, "tessellate": -1, "extrude": 0, "visibility": -1, "drawOrder": 0, "icon": null }, "geometry": { "type": "Polygon", "coordinates": [ [ [ -53.067952518630193, -22.743434760792844, 0.0 ], [ -53.067576471162283, -22.743777361048398, 0.0 ], [ -53.06795163390899, -22.744131627377406, 0.0 ], [ -53.068324100756939, -22.743792288308004, 0.0 ], [ -53.068333371989141, -22.743783456494107, 0.0 ], [ -53.068342929918948, -22.743774351569247, 0.0 ], [ -53.068241947277016, -22.743678678560237, 0.0 ], [ -53.068090255718765, -22.743529307627785, 0.0 ], [ -53.067970610426244, -22.743415810686901, 0.0 ], [ -53.067952518630193, -22.743434760792844, 0.0 ] ] ] } },
{ "type": "Feature", "properties": { "id": "kml_2", "Name": "kml_2", "descriptio": null, "timestamp": null, "begin": null, "end": null, "altitudeMo": null, "tessellate": -1, "extrude": 0, "visibility": -1, "drawOrder": 0, "icon": null }, "geometry": { "type": "Polygon", "coordinates": [ [ [ -53.06982761940413, -22.743388328638972, 0.0 ], [ -53.06944984526519, -22.74373251080279, 0.0 ], [ -53.069470254504992, -22.743751782849316, 0.0 ], [ -53.069684090778658, -22.743957655016057, 0.0 ], [ -53.069820514279179, -22.744091852989573, 0.0 ], [ -53.069829189617586, -22.744082966547808, 0.0 ], [ -53.070195944632317, -22.74374882273176, 0.0 ], [ -53.070211149503209, -22.743735373045009, 0.0 ], [ -53.070169484359653, -22.743697886346599, 0.0 ], [ -53.070029751235687, -22.743565244438326, 0.0 ], [ -53.069918074793719, -22.743457308901075, 0.0 ], [ -53.069836978478548, -22.743379244307398, 0.0 ], [ -53.06982761940413, -22.743388328638972, 0.0 ] ] ] } }
]
}
