{
"type": "FeatureCollection",
"name": "sto_ant_TALHOES",
"crs": { "type": "name", "properties": { "name": "urn:ogc:def:crs:OGC:1.3:CRS84" } },
"features": [
{ "type": "Feature", "properties": { "Id": 0 }, "geometry": { "type": "Polygon", "coordinates": [ [ [ -52.982809780391932, -22.838337834662521 ], [ -52.983065984452828, -22.838425908858103 ], [ -52.983146850045898, -22.838225407855369 ], [ -52.982872721097024, -22.838181039488433 ], [ -52.982809780391932, -22.838337834662521 ] ] ] } },
{ "type": "Feature", "properties": { "Id": 0 }, "geometry": { "type": "Polygon", "coordinates": [ [ [ -52.977883993377652, -22.838116733247833 ], [ -52.978018529549459, -22.838356246552667 ], [ -52.978169712451745, -22.8383031207903 ], [ -52.978105268374023, -22.838178132733507 ], [ -52.978001231150742, -22.838015649066541 ], [ -52.977828888489803, -22.838049327034245 ], [ -52.977883993377652, -22.838116733247833 ] ] ] } },
{ "type": "Feature", "properties": { "Id": 0 }, "geometry": { "type": "Polygon", "coordinates": [ [ [ -52.978668373635557, -22.834001161607816 ], [ -52.979125841506693, -22.834113739001268 ], [ -52.979199370794689, -22.833893181422134 ], [ -52.979087494623784, -22.833867822483718 ], [ -52.978815067221809, -22.833797861443557 ], [ -52.978724613247458, -22.833772896025025 ], [ -52.978668373635557, -22.834001161607816 ] ] ] } },
{ "type": "Feature", "properties": { "Id": 0 }, "geometry": { "type": "Polygon", "coordinates": [ [ [ -52.970875743376347, -22.833835766033513 ], [ -52.970900453692096, -22.833843699982921 ], [ -52.971614430625138, -22.833842809737444 ], [ -52.971613509557827, -22.833425105707235 ], [ -52.970876195167129, -22.833424184639924 ], [ -52.970875743376347, -22.833835766033513 ] ] ] } },
{ "type": "Feature", "properties": { "Id": 0 }, "geometry": { "type": "Polygon", "coordinates": [ [ [ -52.980524965888826, -22.833260784563077 ], [ -52.980868251717212, -22.833400341101491 ], [ -52.980961161253276, -22.833230511280618 ], [ -52.980627526716212, -22.833116637688374 ], [ -52.980524965888826, -22.833260784563077 ] ] ] } },
{ "type": "Feature", "properties": { "Id": 0 }, "geometry": { "type": "Polygon", "coordinates": [ [ [ -52.972229581788213, -22.83243348011262 ], [ -52.97278589977136, -22.83257815134175 ], [ -52.972826350608528, -22.832309748140307 ], [ -52.97274116590453, -22.832285477638077 ], [ -52.9723081040013, -22.832194106335464 ], [ -52.97228097814596, -22.832287857099061 ], [ -52.972229581788213, -22.83243348011262 ] ] ] } }
]
}
