{
"type": "FeatureCollection",
"name": "talhao3",
"crs": { "type": "name", "properties": { "name": "urn:ogc:def:crs:OGC:1.3:CRS84" } },
"features": [
{ "type": "Feature", "properties": { "id": 0 }, "geometry": { "type": "Polygon", "coordinates": [ [ [ -53.08099211041457, -22.824847627329632 ], [ -53.081003531827378, -22.824822880935187 ], [ -53.081077771010712, -22.824819073797642 ], [ -53.081136781643693, -22.824837157701268 ], [ -53.081194840492287, -22.824846675545302 ], [ -53.081262619458641, -22.824874484640418 ], [ -53.08129695125416, -22.824871010589675 ], [ -53.081459145955307, -22.824815081382383 ], [ -53.081455202503605, -22.824759030478617 ], [ -53.081517160026635, -22.824728588921005 ], [ -53.081444732875241, -22.824630301638251 ], [ -53.081492322095357, -22.824603651674863 ], [ -53.081591343748642, -22.824692140271395 ], [ -53.081661025880692, -22.824657903385798 ], [ -53.081746686476833, -22.824629349853808 ], [ -53.081799034618996, -22.824641247158809 ], [ -53.081835916264481, -22.8246995439535 ], [ -53.08175476918484, -22.824761293271365 ], [ -53.082084225541166, -22.824778709466386 ], [ -53.08245523986028, -22.824755181729131 ], [ -53.083079629812005, -22.824690027995018 ], [ -53.083651534811224, -22.824608585827434 ], [ -53.0839441177975, -22.824542627813173 ], [ -53.083941124560624, -22.824476028292509 ], [ -53.083887586687979, -22.824333260632159 ], [ -53.083828100162862, -22.824251169227466 ], [ -53.083825720701782, -22.824165508631211 ], [ -53.08394588348267, -22.824078658304472 ], [ -53.084019646773868, -22.824064381538506 ], [ -53.084089840873503, -22.823984669594779 ], [ -53.084138619824046, -22.823918044686593 ], [ -53.08418935538549, -22.823927053804937 ], [ -53.084215991846804, -22.823671000079685 ], [ -53.08412753451023, -22.823703945742523 ], [ -53.084070427446079, -22.823728930083064 ], [ -53.084020458765053, -22.823715843047523 ], [ -53.083946695473855, -22.823728930083064 ], [ -53.083886019218198, -22.82377770903372 ], [ -53.083857465686037, -22.823767001459089 ], [ -53.083813445657427, -22.823827677714746 ], [ -53.083742061827309, -22.823870508012817 ], [ -53.083730164522365, -22.823831246906252 ], [ -53.083812255927057, -22.823781278225169 ], [ -53.083881260296209, -22.823711084125478 ], [ -53.084044253374998, -22.823571885656634 ], [ -53.084244091155085, -22.823400313755485 ], [ -53.084269787108894, -22.823152648498933 ], [ -53.084166776779398, -22.823203611519659 ], [ -53.084087064835671, -22.823226216399064 ], [ -53.084041855076464, -22.823175057987498 ], [ -53.084127515672662, -22.823097725504851 ], [ -53.084198899502894, -22.823007305986664 ], [ -53.084295627625465, -22.822903589903149 ], [ -53.084306691804045, -22.822796950054453 ], [ -53.084355557104629, -22.822333634611994 ], [ -53.084359176756493, -22.822154461843297 ], [ -53.084343340779355, -22.822137268496817 ], [ -53.084322075324451, -22.822102429347296 ], [ -53.084256921590395, -22.822074829501616 ], [ -53.08415964344573, -22.822087950739729 ], [ -53.084093584798723, -22.822101524434345 ], [ -53.084018477021857, -22.82212324234564 ], [ -53.0838166814288, -22.822126861997617 ], [ -53.083602217054136, -22.822102429347296 ], [ -53.083371464245886, -22.822085236000817 ], [ -53.083285497513373, -22.822074829501616 ], [ -53.082924437236954, -22.822050396851296 ], [ -53.082619481564961, -22.822016010158336 ], [ -53.08238420419184, -22.821993387333919 ], [ -53.082297774635663, -22.821983031718901 ], [ -53.082180629771983, -22.822124524961964 ], [ -53.08209877631333, -22.822204474851674 ], [ -53.081995031813392, -22.822316785411203 ], [ -53.081989321107073, -22.822265389053541 ], [ -53.082003597873154, -22.822199715929628 ], [ -53.082137799473742, -22.822050285778516 ], [ -53.082165401221573, -22.821976998379625 ], [ -53.08212816894661, -22.821962710299943 ], [ -53.081991471961373, -22.821946331859294 ], [ -53.081616837990282, -22.821915564818198 ], [ -53.081124565332743, -22.82187303390856 ], [ -53.080629577936236, -22.821817834217143 ], [ -53.08033186156797, -22.821789781914902 ], [ -53.079892073862879, -22.821741821527326 ], [ -53.079471289330058, -22.821691146400838 ], [ -53.07912199292241, -22.821649520404037 ], [ -53.078724736127072, -22.821596130538637 ], [ -53.078234273295379, -22.821536406282405 ], [ -53.077860544237353, -22.821499304850477 ], [ -53.077427090923038, -22.821447724810923 ], [ -53.076977349175195, -22.821398859510396 ], [ -53.076831658186507, -22.821381666163916 ], [ -53.076735737411354, -22.821410623379052 ], [ -53.076690039306186, -22.821449534636884 ], [ -53.076683704915354, -22.821487540981821 ], [ -53.076718091608313, -22.821716483963996 ], [ -53.07674885864941, -22.822020534723208 ], [ -53.076778720777554, -22.822282054572554 ], [ -53.076800125375939, -22.822455737599284 ], [ -53.076963487022795, -22.822408347070734 ], [ -53.076996194732942, -22.822518520410142 ], [ -53.077003461967706, -22.822540645102606 ], [ -53.077150988549988, -22.822508284432899 ], [ -53.077174783160103, -22.822601559304303 ], [ -53.076990136986012, -22.822679605625353 ], [ -53.076833246881222, -22.822733982309387 ], [ -53.076841159772698, -22.822801474619268 ], [ -53.076849704614517, -22.822893655337793 ], [ -53.077084649177152, -22.822799530460031 ], [ -53.077162695498203, -22.82289946782231 ], [ -53.077208381149376, -22.822998453400203 ], [ -53.077018976053409, -22.823083162211901 ], [ -53.076873631800254, -22.82314679315374 ], [ -53.076915362636555, -22.82351726078133 ], [ -53.076959703372268, -22.82402039239463 ], [ -53.076974673510904, -22.82427044915471 ], [ -53.077254617051153, -22.824133726963623 ], [ -53.077317434821794, -22.824179412614967 ], [ -53.077293164319542, -22.824219387559822 ], [ -53.077288881289633, -22.824287916036951 ], [ -53.077254617051153, -22.824362155220285 ], [ -53.077307441085452, -22.8244835077316 ], [ -53.077355982090012, -22.824580589740606 ], [ -53.077507315809953, -22.824557746914934 ], [ -53.07753872469533, -22.824659111953792 ], [ -53.077685775385362, -22.824797596584233 ], [ -53.077575844286912, -22.824867552737885 ], [ -53.077553001461411, -22.824917521419081 ], [ -53.077723463902089, -22.825034665103544 ], [ -53.077780459439225, -22.825023035969252 ], [ -53.07830530896382, -22.825010367187588 ], [ -53.078547664567452, -22.825020544850759 ], [ -53.078537725535512, -22.824991368982808 ], [ -53.078522496985101, -22.824885720914097 ], [ -53.078439691742062, -22.824880010207721 ], [ -53.078376873971536, -22.824896190542574 ], [ -53.078301683003758, -22.824827662065616 ], [ -53.078350224008318, -22.82478863890509 ], [ -53.078319766907384, -22.824727724703337 ], [ -53.07826075627446, -22.824735338978599 ], [ -53.078233154526856, -22.824628739125558 ], [ -53.078236009880015, -22.824555451726553 ], [ -53.078236009880015, -22.824516428566028 ], [ -53.078365016324256, -22.824483552346521 ], [ -53.078369502954672, -22.824496015208808 ], [ -53.078395962979982, -22.824537689748638 ], [ -53.078405427503526, -22.824552596373337 ], [ -53.078437788173289, -22.824626835556671 ], [ -53.078439691742062, -22.824697267602403 ], [ -53.078437788173289, -22.82477341035468 ], [ -53.078455872076916, -22.8248038674555 ], [ -53.078583411186855, -22.82485145667556 ], [ -53.078759491301184, -22.824939020840702 ], [ -53.078791407804374, -22.825030780787188 ], [ -53.078994852649657, -22.82503932440278 ], [ -53.079272912249507, -22.825066894051474 ], [ -53.079337597215613, -22.824973034244351 ], [ -53.079401366770583, -22.824972082459851 ], [ -53.079448955990699, -22.824953998556225 ], [ -53.079471798816371, -22.82489974684529 ], [ -53.079524146958533, -22.824897843276517 ], [ -53.07962027718321, -22.824876904019675 ], [ -53.079650734283973, -22.82489974684529 ], [ -53.079694516366544, -22.824913071826927 ], [ -53.079729732389524, -22.824935914652599 ], [ -53.079730684173796, -22.824982552088386 ], [ -53.079662155696838, -22.824997780638796 ], [ -53.079581254022685, -22.825053935918504 ], [ -53.079520583744909, -22.82509145071532 ], [ -53.07963372120895, -22.825102668310876 ], [ -53.079896149353033, -22.825094363622725 ], [ -53.079923420515343, -22.825040420579967 ], [ -53.080070471205545, -22.824981885839293 ], [ -53.080157559478323, -22.824966181396633 ], [ -53.080283195019376, -22.824966181396633 ], [ -53.08033060523195, -22.825002485173798 ], [ -53.080368510543394, -22.82499407875406 ], [ -53.080873861492364, -22.824919374700698 ], [ -53.080983990794948, -22.824860482680094 ], [ -53.08099211041457, -22.824847627329632 ] ], [ [ -53.077744851022885, -22.8215857274065 ], [ -53.077750688073138, -22.821612689019446 ], [ -53.07775040775806, -22.821612753346301 ], [ -53.077750688073138, -22.821614116696082 ], [ -53.077505193561478, -22.821669025280983 ], [ -53.077466580429018, -22.821677886251052 ], [ -53.077466543012122, -22.821677670064616 ], [ -53.077462297399222, -22.821653139856437 ], [ -53.077564138330274, -22.821629821138742 ], [ -53.077566993683376, -22.821607454205264 ], [ -53.07774021844466, -22.821563196230557 ], [ -53.077744851022885, -22.8215857274065 ] ], [ [ -53.083540521480131, -22.822707258928119 ], [ -53.083486269769196, -22.822755086094332 ], [ -53.083461999266945, -22.822655862570343 ], [ -53.083393470790043, -22.822612318433983 ], [ -53.083359920389853, -22.822590903284947 ], [ -53.083408461394356, -22.822531654705813 ], [ -53.083321373121578, -22.822428861990431 ], [ -53.083390615436826, -22.822367471896428 ], [ -53.083501974211913, -22.822405305326413 ], [ -53.083518858673301, -22.822411525917403 ], [ -53.083549087539836, -22.822421723607306 ], [ -53.083548867491061, -22.822422581797696 ], [ -53.083534810773813, -22.822477402994878 ], [ -53.083567647335656, -22.822618742978705 ], [ -53.083540521480131, -22.822707258928119 ] ], [ [ -53.082431068042752, -22.823105543025633 ], [ -53.082354925290474, -22.823120414656955 ], [ -53.082385858283601, -22.823058548670758 ], [ -53.082390022340348, -22.823022856755699 ], [ -53.082366227730347, -22.822990139166791 ], [ -53.082351950964267, -22.822924703989202 ], [ -53.082413222085222, -22.822868191790235 ], [ -53.082423334795351, -22.822884253153347 ], [ -53.082432257773178, -22.822897340187637 ], [ -53.082448914000281, -22.822906263166374 ], [ -53.082589302199551, -22.822944929407754 ], [ -53.08258896173902, -22.822945305805717 ], [ -53.082482226454374, -22.823063307592804 ], [ -53.082431068042752, -22.823105543025633 ] ], [ [ -53.077511829845889, -22.823100209067206 ], [ -53.077521460373475, -22.82314128621573 ], [ -53.077541573108419, -22.823223346174188 ], [ -53.077540761980345, -22.823223613477694 ], [ -53.077540978243178, -22.823224535904728 ], [ -53.077518892496585, -22.82323082046679 ], [ -53.077489224966314, -22.82324059726659 ], [ -53.077488132689723, -22.823239573257354 ], [ -53.077467809817165, -22.823245356188465 ], [ -53.077469404231124, -22.823223034392868 ], [ -53.077310170525607, -22.82328045323834 ], [ -53.0772947040291, -22.823231079422555 ], [ -53.077345267575424, -22.823195982372681 ], [ -53.077420815462403, -22.823148988017863 ], [ -53.077511829845889, -22.823100209067206 ] ], [ [ -53.078148256106658, -22.823262356421424 ], [ -53.078150901517006, -22.823261748692062 ], [ -53.078166962211128, -22.823314213626247 ], [ -53.078219713808096, -22.82332161735917 ], [ -53.078220381778294, -22.823321711109429 ], [ -53.078333644122154, -22.823360734269841 ], [ -53.07830699415905, -22.823400709214809 ], [ -53.0782089603656, -22.823408323489957 ], [ -53.078218478209521, -22.823430214531299 ], [ -53.078263212076536, -22.823580596466854 ], [ -53.078216574640749, -22.823581548251184 ], [ -53.078167081851859, -22.823523489402703 ], [ -53.078166130067416, -22.823482562673405 ], [ -53.078159467576597, -22.823440684159664 ], [ -53.078081421255661, -22.823454009141244 ], [ -53.078008133856656, -22.823454009141244 ], [ -53.078007182072213, -22.823432118100072 ], [ -53.078055723076773, -22.823398805645979 ], [ -53.078069999842853, -22.823355023563465 ], [ -53.07806904805841, -22.823314096834167 ], [ -53.078080469471217, -22.823277929026915 ], [ -53.078148256106658, -22.823262356421424 ] ], [ [ -53.080236680522603, -22.823432822024017 ], [ -53.080421326696523, -22.82335334802633 ], [ -53.080450379621766, -22.823372266210129 ], [ -53.08050341810133, -22.823405934114533 ], [ -53.080531938521176, -22.823417786756579 ], [ -53.080563053104754, -22.823429838179834 ], [ -53.080605496978478, -22.823439484514836 ], [ -53.08068972989804, -22.823468751885173 ], [ -53.080531971633377, -22.823532997332336 ], [ -53.08064118889348, -22.823649352975508 ], [ -53.08059764475712, -22.82368861408213 ], [ -53.080627625965747, -22.823730016703564 ], [ -53.080449880228684, -22.823838520125435 ], [ -53.080375641045237, -22.823819960329615 ], [ -53.080330669232296, -22.82368790024384 ], [ -53.080305684891755, -22.823626510149836 ], [ -53.080135077537648, -22.823699321656591 ], [ -53.080103668652271, -22.82367362347776 ], [ -53.080120800771567, -22.82362365479662 ], [ -53.080231445708364, -22.823568451301242 ], [ -53.080240011767955, -22.823511820129397 ], [ -53.080236680522603, -22.823432822024017 ] ], [ [ -53.078611098366991, -22.823679436404746 ], [ -53.078617408727382, -22.823699769788448 ], [ -53.078478210258538, -22.823726181805625 ], [ -53.07848463480326, -22.823684065345731 ], [ -53.078453225917997, -22.82367335777127 ], [ -53.078445373696695, -22.823619106060335 ], [ -53.078461078139242, -22.823604829294311 ], [ -53.078509619143802, -22.823589124851594 ], [ -53.078554014395309, -22.823621412307318 ], [ -53.078556732471725, -22.82362338909013 ], [ -53.078597731211403, -22.823665655832087 ], [ -53.07861098418266, -22.823679068477645 ], [ -53.078611098366991, -22.823679436404746 ] ], [ [ -53.079344862503262, -22.823785261839589 ], [ -53.079406417329665, -22.823856206385187 ], [ -53.079416960171727, -22.823868067082515 ], [ -53.079481775236331, -22.823848760467513 ], [ -53.079484060972106, -22.823848079610116 ], [ -53.079508331474415, -22.82390447283592 ], [ -53.07915284000012, -22.823997985653421 ], [ -53.079105012833907, -22.823995130300148 ], [ -53.079032201327095, -22.82397085979801 ], [ -53.079010786178003, -22.823888768393317 ], [ -53.07913499404259, -22.82387734698051 ], [ -53.079171399795939, -22.823818812239722 ], [ -53.079343576591725, -22.823785510554956 ], [ -53.079344862503262, -22.823785261839589 ] ], [ [ -53.079925427194155, -22.823912616541122 ], [ -53.080012991359069, -22.823896436206383 ], [ -53.080052014519595, -22.823956398623693 ], [ -53.080060667104817, -22.823988845818235 ], [ -53.080063435932459, -22.823997325352991 ], [ -53.080162421510352, -22.823975434311762 ], [ -53.080244274968948, -22.824037300297846 ], [ -53.080173842923159, -22.82408013059603 ], [ -53.080134819762691, -22.824132478738079 ], [ -53.080151000097544, -22.824214332196675 ], [ -53.080112928721348, -22.824274294614099 ], [ -53.080042496675674, -22.824263824985678 ], [ -53.079953028941816, -22.824263824985678 ], [ -53.079920668272109, -22.824201958999538 ], [ -53.079854043363923, -22.824171501898604 ], [ -53.079725552469654, -22.824192441155446 ], [ -53.079716986410062, -22.824127719816147 ], [ -53.079691288231174, -22.824070612751996 ], [ -53.079745539942053, -22.824070612751996 ], [ -53.079774093474214, -22.82411058769685 ], [ -53.079921620056552, -22.824050625279426 ], [ -53.079894970093221, -22.82396972360533 ], [ -53.079925427194155, -22.823912616541122 ] ], [ [ -53.082382944435437, -22.82406537198915 ], [ -53.082381516758858, -22.824008978763231 ], [ -53.082310846766973, -22.824038959971972 ], [ -53.082283720911448, -22.82404966754649 ], [ -53.082261591924123, -22.823999698865407 ], [ -53.082287290102954, -22.823978283716201 ], [ -53.082282293234925, -22.823904044532867 ], [ -53.082382944435437, -22.82381267323035 ], [ -53.082421491702746, -22.823838371408499 ], [ -53.082432199278287, -22.823844795953846 ], [ -53.082510721491474, -22.823868352617751 ], [ -53.082511576086631, -22.823868764834344 ], [ -53.082571397747074, -22.823897619988145 ], [ -53.082537847346885, -22.823965434626871 ], [ -53.082417922512207, -22.824061088959297 ], [ -53.082382944435437, -22.82406537198915 ] ], [ [ -53.08132085119513, -22.823920066237008 ], [ -53.081222817401795, -22.823985739360751 ], [ -53.081190456732088, -22.823983835791978 ], [ -53.081157144277938, -22.823957185828647 ], [ -53.081031508736885, -22.824000016126718 ], [ -53.08107053189741, -22.823904837686484 ], [ -53.081067676544194, -22.82383059850315 ], [ -53.081119072901856, -22.82378205749859 ], [ -53.081133046984576, -22.823832872344724 ], [ -53.081271358406241, -22.82386486274163 ], [ -53.081272005493986, -22.823865584493376 ], [ -53.08132085119513, -22.823920066237008 ] ], [ [ -53.081609748495964, -22.823611356949073 ], [ -53.08161450741801, -22.823563172863658 ], [ -53.081541933857352, -22.823585777743233 ], [ -53.081493749771937, -22.823608382622808 ], [ -53.081430099189959, -22.823520937430828 ], [ -53.081369422934415, -22.823523316891794 ], [ -53.081335515615024, -22.823500712012219 ], [ -53.081336705345564, -22.823382333827226 ], [ -53.081299228834723, -22.823273473486211 ], [ -53.081451469058152, -22.823146804862802 ], [ -53.081451514339108, -22.823146767187666 ], [ -53.081483736365044, -22.823182247620764 ], [ -53.081558590084342, -22.823169966932483 ], [ -53.081696598822646, -22.823166992606161 ], [ -53.081732290737818, -22.823195546138265 ], [ -53.081690055304932, -22.823250273741394 ], [ -53.081658527446621, -22.823300837287718 ], [ -53.081656742850782, -22.82334783164265 ], [ -53.081697788553186, -22.823395420862767 ], [ -53.081681727191437, -22.823494763359747 ], [ -53.081725152354693, -22.823518557969749 ], [ -53.081792966993419, -22.823525101487576 ], [ -53.081821520525466, -22.823491194168128 ], [ -53.081818546199258, -22.823455502253182 ], [ -53.081858997036363, -22.823388877344996 ], [ -53.081910750313227, -22.823419215472768 ], [ -53.081951201150332, -22.823457881714148 ], [ -53.081842935674501, -22.823550680693415 ], [ -53.081716824241141, -22.823618495332028 ], [ -53.081613317687413, -22.823674412665639 ], [ -53.08158892821217, -22.823648833459856 ], [ -53.081609748495964, -22.823611356949073 ] ], [ [ -53.083029383512724, -22.823428945485375 ], [ -53.083023434860308, -22.823361130846763 ], [ -53.08311147491753, -22.823288557285991 ], [ -53.083238776081316, -22.823326628662187 ], [ -53.083232011495738, -22.82332968573445 ], [ -53.083199514974694, -22.823359941116223 ], [ -53.083130510605542, -22.82337659734327 ], [ -53.083207843088189, -22.823462257939525 ], [ -53.083195945783189, -22.823507467698562 ], [ -53.083072213810851, -22.823490811471572 ], [ -53.083005588902779, -22.823513416351147 ], [ -53.083029383512724, -22.823428945485375 ] ], [ [ -53.0780471649486, -22.82436925295417 ], [ -53.077799463057943, -22.82447918405262 ], [ -53.077775192555634, -22.824467762639813 ], [ -53.077724510036205, -22.824480611729257 ], [ -53.077737359125649, -22.824460624256687 ], [ -53.077803746087739, -22.824432070724697 ], [ -53.077809456794114, -22.824375677498892 ], [ -53.077832299619786, -22.824362828409448 ], [ -53.077962756447789, -22.824314352648173 ], [ -53.077962932029038, -22.824314287404889 ], [ -53.077967826921281, -22.824314967251041 ], [ -53.07798577485471, -22.824317142758161 ], [ -53.078122831808571, -22.824290016902637 ], [ -53.078122273972156, -22.824291005794464 ], [ -53.078091422923308, -22.824345696290152 ], [ -53.0780471649486, -22.82436925295417 ] ], [ [ -53.080537517760376, -22.824489840072204 ], [ -53.08058627558006, -22.824618812369579 ], [ -53.080593673040141, -22.824637366654542 ], [ -53.080593332013962, -22.824637477775354 ], [ -53.080596528393301, -22.824645932714247 ], [ -53.080372662229479, -22.824709381413072 ], [ -53.080339546604648, -22.824720171897582 ], [ -53.080338169733693, -22.824719157361017 ], [ -53.080303378797453, -22.824693521934364 ], [ -53.080337643035875, -22.824659257695885 ], [ -53.080328125191897, -22.824613572044541 ], [ -53.080318607347863, -22.824588825650096 ], [ -53.080462326792542, -22.824526007879456 ], [ -53.080537517760376, -22.824489840072204 ] ] ] } },
{ "type": "Feature", "properties": { "id": 0 }, "geometry": { "type": "Polygon", "coordinates": [ [ [ -53.072670415877951, -22.822164415885936 ], [ -53.072613406360574, -22.8225969642873 ], [ -53.072558206669157, -22.823052135513024 ], [ -53.072539203496774, -22.823271124452617 ], [ -53.07250934136863, -22.823519070607347 ], [ -53.072450522025292, -22.824035775915206 ], [ -53.072396227246941, -22.824591392480841 ], [ -53.072384196096266, -22.824713293007221 ], [ -53.072480788311111, -22.82467750578229 ], [ -53.07249565994249, -22.824741156364269 ], [ -53.072572992425137, -22.824845852648536 ], [ -53.072542654297308, -22.824877380506791 ], [ -53.072545628623516, -22.824901769982034 ], [ -53.072355563238148, -22.825003403287383 ], [ -53.072348266859365, -22.825077330747717 ], [ -53.072317499818269, -22.825426627155423 ], [ -53.072303926123652, -22.82554245601608 ], [ -53.072310260514428, -22.825589511490705 ], [ -53.072340122642572, -22.825609419576097 ], [ -53.072599832666015, -22.825527977408399 ], [ -53.072748238393672, -22.825479112107871 ], [ -53.072905693250959, -22.825432961546198 ], [ -53.073390726604828, -22.825259218255326 ], [ -53.073543656897357, -22.825223021736406 ], [ -53.073844088004535, -22.825256503516414 ], [ -53.073999733035976, -22.825238405256982 ], [ -53.074246774277754, -22.825128910787157 ], [ -53.074648555637907, -22.824947023279435 ], [ -53.074834062797493, -22.824907207108538 ], [ -53.074916409878142, -22.824920780803154 ], [ -53.074954948129914, -22.824925062831142 ], [ -53.075118908625655, -22.824869956588429 ], [ -53.075113197919279, -22.824801428111414 ], [ -53.075151745187668, -22.824732899634398 ], [ -53.075224556694366, -22.824717195191852 ], [ -53.075254537902993, -22.824721478221591 ], [ -53.075227412047639, -22.824809994171005 ], [ -53.07525025487331, -22.824844258409485 ], [ -53.075320211026906, -22.824845686086121 ], [ -53.075367324354715, -22.824857107498985 ], [ -53.075433762108673, -22.824906679656237 ], [ -53.075552563698523, -22.824882774458388 ], [ -53.075778791941843, -22.824863771285948 ], [ -53.07590457484514, -22.824873725328587 ], [ -53.076061124789589, -22.82488910884922 ], [ -53.07621495999507, -22.824879154806467 ], [ -53.076408611371448, -22.824809476507482 ], [ -53.076742524258634, -22.824646592172314 ], [ -53.076813058779692, -22.824607755350939 ], [ -53.076818916920615, -22.824538640834419 ], [ -53.076704702792313, -22.824557676522545 ], [ -53.076670438553833, -22.824538640834419 ], [ -53.076649499297105, -22.824527219421611 ], [ -53.076628560040206, -22.824508183733656 ], [ -53.076727545617985, -22.824449173100732 ], [ -53.076744677737281, -22.824401583880615 ], [ -53.076727545617985, -22.824310212577927 ], [ -53.076771327700499, -22.824260719789038 ], [ -53.076818916920615, -22.824201709156114 ], [ -53.076820820489388, -22.824150312798281 ], [ -53.076759906287691, -22.824100820009392 ], [ -53.076647595728161, -22.824116048559802 ], [ -53.076649499297105, -22.823994220156351 ], [ -53.076636174315468, -22.823939016660972 ], [ -53.076617138627341, -22.823912366697755 ], [ -53.07665330643465, -22.823853356064774 ], [ -53.076773231269328, -22.823803863275884 ], [ -53.076828434764707, -22.823840031083193 ], [ -53.076864602571959, -22.82390094528489 ], [ -53.076920849553062, -22.823893114519876 ], [ -53.076900884028987, -22.823621325773331 ], [ -53.07684206468565, -22.82301955864591 ], [ -53.076788674820307, -22.822561672681388 ], [ -53.076723521086194, -22.822056731242185 ], [ -53.076689134393121, -22.821723723267894 ], [ -53.076671036133689, -22.821579842105166 ], [ -53.076630315049954, -22.82142872163854 ], [ -53.076563351489824, -22.821371712121163 ], [ -53.076414945762224, -22.821334610689291 ], [ -53.075928102582509, -22.821290269953579 ], [ -53.075333574758929, -22.821236880088179 ], [ -53.074270302015009, -22.821097523490266 ], [ -53.073578948503325, -22.821015176409674 ], [ -53.073053194065722, -22.820956357066393 ], [ -53.072830585474264, -22.820928304764209 ], [ -53.072784434912592, -22.82094640302364 ], [ -53.072765431740152, -22.820992553585313 ], [ -53.07273375978599, -22.82144591498502 ], [ -53.072694848528215, -22.821816024391183 ], [ -53.072670415877951, -22.822164415885936 ] ], [ [ -53.075377080144847, -22.822523855625946 ], [ -53.075309503452331, -22.82256621003188 ], [ -53.075287136518909, -22.822556216295652 ], [ -53.075294274901921, -22.822503392261297 ], [ -53.075277142782681, -22.822480073543375 ], [ -53.075219083934087, -22.822500061015774 ], [ -53.075234312484497, -22.822428201293519 ], [ -53.07525287228043, -22.822379184396823 ], [ -53.075260486555578, -22.822323505009251 ], [ -53.075366610516483, -22.822267349729543 ], [ -53.075469720489878, -22.822321791795503 ], [ -53.075484155890194, -22.822329215715627 ], [ -53.075484384138804, -22.82232953420214 ], [ -53.075485583566774, -22.82233016750007 ], [ -53.075496433907631, -22.822346347833047 ], [ -53.075504619254787, -22.822357769247731 ], [ -53.075504236118718, -22.822357982709207 ], [ -53.075437994346657, -22.822394888839369 ], [ -53.075389929234291, -22.822421538802701 ], [ -53.075376128360517, -22.822477218190272 ], [ -53.075377080144847, -22.822523855625946 ] ], [ [ -53.076405213519365, -22.82309326461035 ], [ -53.076433767051469, -22.823131335986488 ], [ -53.076488494654598, -22.823121818142511 ], [ -53.076540842796703, -22.823133715447455 ], [ -53.076577724442359, -22.823182494398111 ], [ -53.076577724442359, -22.823218186313227 ], [ -53.076525376300197, -22.823237222001183 ], [ -53.076463510314056, -22.82326696526377 ], [ -53.07646113085309, -22.823293139334794 ], [ -53.076489684385137, -22.823318123675449 ], [ -53.076501581690081, -22.823370471817611 ], [ -53.076530135222242, -22.823408543193693 ], [ -53.076545601718749, -22.823435906995257 ], [ -53.076533704413748, -22.823447804300258 ], [ -53.076492857000858, -22.823468822871916 ], [ -53.07641592109394, -22.823507290825376 ], [ -53.076426628668401, -22.82347159891026 ], [ -53.076482546002126, -22.823441855647729 ], [ -53.07644447462593, -22.823418061037728 ], [ -53.076352865377316, -22.823365712895566 ], [ -53.076314794001121, -22.82334429774653 ], [ -53.076338588611236, -22.823265775533343 ], [ -53.076343347533282, -22.823206289008112 ], [ -53.076338588611236, -22.823161079249076 ], [ -53.076405213519365, -22.82309326461035 ] ], [ [ -53.075318390573955, -22.8234585475779 ], [ -53.075262370295604, -22.823507921382657 ], [ -53.075151011520518, -22.823555510602773 ], [ -53.07512531334163, -22.823607858744879 ], [ -53.074882608319058, -22.823705892538328 ], [ -53.074899740438241, -22.823569787368797 ], [ -53.074888735431045, -22.823495726644921 ], [ -53.075088843449748, -22.823406228110628 ], [ -53.075088907588281, -22.823406199424596 ], [ -53.075140367475115, -22.823417938116393 ], [ -53.075318525575312, -22.82345842859371 ], [ -53.075318390573955, -22.8234585475779 ] ], [ [ -53.076025134281338, -22.823777597595665 ], [ -53.076307814248878, -22.823640540641691 ], [ -53.076321139230515, -22.823665287036135 ], [ -53.076457244400046, -22.823591047852801 ], [ -53.076438208712034, -22.823626263875724 ], [ -53.076467714028411, -22.823636733504088 ], [ -53.076425835514783, -22.823679563802216 ], [ -53.076290682129581, -22.823736670866367 ], [ -53.076229767927828, -22.823794729714848 ], [ -53.076241189340692, -22.823833752875373 ], [ -53.076271646441569, -22.823899425999116 ], [ -53.076286874992036, -22.823932738453266 ], [ -53.076174564432563, -22.823994763070175 ], [ -53.076148814127919, -22.823948666845808 ], [ -53.07612507164356, -22.823908943843151 ], [ -53.076090613065446, -22.823900454048498 ], [ -53.076058503635295, -22.823893224110634 ], [ -53.075994677180518, -22.823926075962447 ], [ -53.075955654020049, -22.823904184921162 ], [ -53.075872848776953, -22.823938449159641 ], [ -53.075956605804436, -22.823860402838704 ], [ -53.076036555694145, -22.823810910049701 ], [ -53.076025134281338, -22.823777597595665 ] ] ] } },
{ "type": "Feature", "properties": { "id": 0 }, "geometry": { "type": "Polygon", "coordinates": [ [ [ -53.083994837182729, -22.824517127370086 ], [ -53.084087702864451, -22.824452940795993 ], [ -53.084165525380172, -22.824156129340622 ], [ -53.08416796253232, -22.824132701232486 ], [ -53.084071994915973, -22.824125057794163 ], [ -53.084014887851822, -22.824161939439705 ], [ -53.084005370007787, -22.824223805425902 ], [ -53.084017267312731, -22.824334450362585 ], [ -53.084042251653386, -22.824407023923357 ], [ -53.083997041894236, -22.82447126937052 ], [ -53.083994837182729, -22.824517127370086 ] ] ] } },
{ "type": "Feature", "properties": { "id": 0 }, "geometry": { "type": "Polygon", "coordinates": [ [ [ -53.080563053104754, -22.823429838179834 ], [ -53.080531938521176, -22.823417786756579 ], [ -53.080558383650555, -22.823428776940204 ], [ -53.080563053104754, -22.823429838179834 ] ] ] } },
{ "type": "Feature", "properties": { "id": 0 }, "geometry": { "type": "Polygon", "coordinates": [ [ [ -53.080531938521176, -22.823417786756579 ], [ -53.08050341810133, -22.823405934114533 ], [ -53.080450379621766, -22.823372266210129 ], [ -53.080503180155176, -22.823406647952936 ], [ -53.080531938521176, -22.823417786756579 ] ] ] } },
{ "type": "Feature", "properties": { "id": 0 }, "geometry": { "type": "Polygon", "coordinates": [ [ [ -53.081451469058152, -22.823146804862802 ], [ -53.081482447332121, -22.823182459102611 ], [ -53.081483736365044, -22.823182247620764 ], [ -53.081451514339108, -22.823146767187666 ], [ -53.081451469058152, -22.823146804862802 ] ] ] } },
{ "type": "Feature", "properties": { "id": 0 }, "geometry": { "type": "Polygon", "coordinates": [ [ [ -53.078395962979982, -22.824537689748638 ], [ -53.078369502954672, -22.824496015208808 ], [ -53.078370370111486, -22.82449842397773 ], [ -53.078395962979982, -22.824537689748638 ] ] ] } },
{ "type": "Feature", "properties": { "id": 0 }, "geometry": { "type": "Polygon", "coordinates": [ [ [ -53.082511576086631, -22.823868764834344 ], [ -53.082510721491474, -22.823868352617751 ], [ -53.082432199278287, -22.823844795953846 ], [ -53.082421491702746, -22.823838371408499 ], [ -53.082434340793156, -22.823846937468829 ], [ -53.082511576086631, -22.823868764834344 ] ] ] } },
{ "type": "Feature", "properties": { "id": 0 }, "geometry": { "type": "Polygon", "coordinates": [ [ [ -53.080593332013962, -22.824637477775354 ], [ -53.080593673040141, -22.824637366654542 ], [ -53.08058627558006, -22.824618812369579 ], [ -53.080593332013962, -22.824637477775354 ] ] ] } },
{ "type": "Feature", "properties": { "id": 0 }, "geometry": { "type": "Polygon", "coordinates": [ [ [ -53.080338169733693, -22.824719157361017 ], [ -53.080339546604648, -22.824720171897582 ], [ -53.080372662229479, -22.824709381413072 ], [ -53.080338169733693, -22.824719157361017 ] ] ] } },
{ "type": "Feature", "properties": { "id": 0 }, "geometry": { "type": "Polygon", "coordinates": [ [ [ -53.079343576591725, -22.823785510554956 ], [ -53.079406417329665, -22.823856206385187 ], [ -53.079344862503262, -22.823785261839589 ], [ -53.079343576591725, -22.823785510554956 ] ] ] } },
{ "type": "Feature", "properties": { "id": 0 }, "geometry": { "type": "Polygon", "coordinates": [ [ [ -53.083548867491061, -22.822422581797696 ], [ -53.083549087539836, -22.822421723607306 ], [ -53.083518858673301, -22.822411525917403 ], [ -53.083548867491061, -22.822422581797696 ] ] ] } },
{ "type": "Feature", "properties": { "id": 0 }, "geometry": { "type": "Polygon", "coordinates": [ [ [ -53.083518858673301, -22.822411525917403 ], [ -53.083501974211913, -22.822405305326413 ], [ -53.083390615436826, -22.822367471896428 ], [ -53.083489838960702, -22.822401736134907 ], [ -53.083518858673301, -22.822411525917403 ] ] ] } },
{ "type": "Feature", "properties": { "id": 0 }, "geometry": { "type": "Polygon", "coordinates": [ [ [ -53.078148256106658, -22.823262356421424 ], [ -53.078166130067416, -22.823314096834167 ], [ -53.078166962211128, -22.823314213626247 ], [ -53.078150901517006, -22.823261748692062 ], [ -53.078148256106658, -22.823262356421424 ] ] ] } },
{ "type": "Feature", "properties": { "id": 0 }, "geometry": { "type": "Polygon", "coordinates": [ [ [ -53.078611098366991, -22.823679436404746 ], [ -53.07861098418266, -22.823679068477645 ], [ -53.078597731211403, -22.823665655832087 ], [ -53.078611098366991, -22.823679436404746 ] ] ] } },
{ "type": "Feature", "properties": { "id": 0 }, "geometry": { "type": "Polygon", "coordinates": [ [ [ -53.078597731211403, -22.823665655832087 ], [ -53.078556732471725, -22.82362338909013 ], [ -53.078554014395309, -22.823621412307318 ], [ -53.078597731211403, -22.823665655832087 ] ] ] } },
{ "type": "Feature", "properties": { "id": 0 }, "geometry": { "type": "Polygon", "coordinates": [ [ [ -53.077962756447789, -22.824314352648173 ], [ -53.077967826921281, -22.824314967251041 ], [ -53.077962932029038, -22.824314287404889 ], [ -53.077962756447789, -22.824314352648173 ] ] ] } },
{ "type": "Feature", "properties": { "id": 0 }, "geometry": { "type": "Polygon", "coordinates": [ [ [ -53.077518892496585, -22.82323082046679 ], [ -53.077540978243178, -22.823224535904728 ], [ -53.077540761980345, -22.823223613477694 ], [ -53.077518892496585, -22.82323082046679 ] ] ] } },
{ "type": "Feature", "properties": { "id": 0 }, "geometry": { "type": "Polygon", "coordinates": [ [ [ -53.077488132689723, -22.823239573257354 ], [ -53.077489224966314, -22.82324059726659 ], [ -53.077518892496585, -22.82323082046679 ], [ -53.077488132689723, -22.823239573257354 ] ] ] } },
{ "type": "Feature", "properties": { "id": 0 }, "geometry": { "type": "Polygon", "coordinates": [ [ [ -53.077540761980345, -22.823223613477694 ], [ -53.077541573108419, -22.823223346174188 ], [ -53.077521460373475, -22.82314128621573 ], [ -53.077540761980345, -22.823223613477694 ] ] ] } },
{ "type": "Feature", "properties": { "id": 0 }, "geometry": { "type": "Polygon", "coordinates": [ [ [ -53.07775040775806, -22.821612753346301 ], [ -53.077750688073138, -22.821612689019446 ], [ -53.077744851022885, -22.8215857274065 ], [ -53.07775040775806, -22.821612753346301 ] ] ] } },
{ "type": "Feature", "properties": { "id": 0 }, "geometry": { "type": "Polygon", "coordinates": [ [ [ -53.077466543012122, -22.821677670064616 ], [ -53.077466580429018, -22.821677886251052 ], [ -53.077505193561478, -22.821669025280983 ], [ -53.077466543012122, -22.821677670064616 ] ] ] } },
{ "type": "Feature", "properties": { "id": 0 }, "geometry": { "type": "Polygon", "coordinates": [ [ [ -53.075088843449748, -22.823406228110628 ], [ -53.075140367475115, -22.823417938116393 ], [ -53.075088907588281, -22.823406199424596 ], [ -53.075088843449748, -22.823406228110628 ] ] ] } },
{ "type": "Feature", "properties": { "id": 0 }, "geometry": { "type": "Polygon", "coordinates": [ [ [ -53.075318390573955, -22.8234585475779 ], [ -53.075318525575312, -22.82345842859371 ], [ -53.075140367475115, -22.823417938116393 ], [ -53.075318390573955, -22.8234585475779 ] ] ] } },
{ "type": "Feature", "properties": { "id": 0 }, "geometry": { "type": "Polygon", "coordinates": [ [ [ -53.075484384138804, -22.82232953420214 ], [ -53.075484155890194, -22.822329215715627 ], [ -53.075469720489878, -22.822321791795503 ], [ -53.075484384138804, -22.82232953420214 ] ] ] } },
{ "type": "Feature", "properties": { "id": 0 }, "geometry": { "type": "Polygon", "coordinates": [ [ [ -53.075504236118718, -22.822357982709207 ], [ -53.075504619254787, -22.822357769247731 ], [ -53.075496433907631, -22.822346347833047 ], [ -53.075504236118718, -22.822357982709207 ] ] ] } },
{ "type": "Feature", "properties": { "id": 0 }, "geometry": { "type": "Polygon", "coordinates": [ [ [ -53.075496433907631, -22.822346347833047 ], [ -53.075485583566774, -22.82233016750007 ], [ -53.075484384138804, -22.82232953420214 ], [ -53.075496433907631, -22.822346347833047 ] ] ] } },
{ "type": "Feature", "properties": { "id": 0 }, "geometry": { "type": "Polygon", "coordinates": [ [ [ -53.076058503635295, -22.823893224110634 ], [ -53.076090613065446, -22.823900454048498 ], [ -53.076059398519817, -22.823892763508297 ], [ -53.076058503635295, -22.823893224110634 ] ] ] } },
{ "type": "Feature", "properties": { "id": 0 }, "geometry": { "type": "Polygon", "coordinates": [ [ [ -53.076148814127919, -22.823948666845808 ], [ -53.076126380347205, -22.823908507608621 ], [ -53.076090613065446, -22.823900454048498 ], [ -53.07612507164356, -22.823908943843151 ], [ -53.076148814127919, -22.823948666845808 ] ] ] } }
]
}
