{
"type": "FeatureCollection",
"name": "talhao3",
"crs": { "type": "name", "properties": { "name": "urn:ogc:def:crs:OGC:1.3:CRS84" } },
"features": [
{ "type": "Feature", "properties": { "id": null }, "geometry": { "type": "Polygon", "coordinates": [ [ [ -53.084343340779419, -22.822137268496789 ], [ -53.084322075324543, -22.822102429347311 ], [ -53.084256921590452, -22.82207482950162 ], [ -53.084159643445801, -22.822087950739736 ], [ -53.084093584798744, -22.822101524434345 ], [ -53.084018477021942, -22.822123242345707 ], [ -53.08381668142885, -22.822126861997603 ], [ -53.083602217054143, -22.822102429347318 ], [ -53.0833714642459, -22.82208523600082 ], [ -53.083285497513451, -22.822074829501631 ], [ -53.082924437237025, -22.822050396851346 ], [ -53.082619481564961, -22.822016010158354 ], [ -53.082384204191854, -22.821993387334015 ], [ -53.081991471961359, -22.821946331859394 ], [ -53.081616837990325, -22.821915564818294 ], [ -53.08112456533275, -22.821873033908538 ], [ -53.08062957793625, -22.821817834217153 ], [ -53.08033186156797, -22.821789781914976 ], [ -53.079892073862858, -22.821741821527382 ], [ -53.079471289330179, -22.821691146400866 ], [ -53.079121992922417, -22.821649520404087 ], [ -53.078724736127057, -22.821596130538651 ], [ -53.078234273295422, -22.821536406282402 ], [ -53.077860544237382, -22.821499304850487 ], [ -53.077427090923081, -22.821447724810998 ], [ -53.076977349175259, -22.821398859510428 ], [ -53.076831658186528, -22.821381666163933 ], [ -53.07673573741134, -22.821410623379084 ], [ -53.076690039306179, -22.821449534636944 ], [ -53.076683704915361, -22.821487540981828 ], [ -53.076718091608349, -22.821716483964131 ], [ -53.076748858649445, -22.822020534723226 ], [ -53.076778720777568, -22.822282054572565 ], [ -53.076810392731645, -22.822539049857038 ], [ -53.076841159772741, -22.82280147461935 ], [ -53.076871021900864, -22.823123623637912 ], [ -53.076915362636569, -22.823517260781379 ], [ -53.076959703372268, -22.824020392394644 ], [ -53.076984136022553, -22.824428508145687 ], [ -53.076986850761472, -22.82466559534474 ], [ -53.0770610536253, -22.825022131056297 ], [ -53.07714159087994, -22.82511352726662 ], [ -53.077376868253047, -22.825105383049859 ], [ -53.077780459439225, -22.825023035969267 ], [ -53.078305308963849, -22.825010367187637 ], [ -53.07899485264965, -22.825039324402791 ], [ -53.079633721208936, -22.825102668310937 ], [ -53.079919673708559, -22.8250936191812 ], [ -53.080368510543408, -22.824994078754116 ], [ -53.080992900495119, -22.824901777630821 ], [ -53.08129695125421, -22.824871010589721 ], [ -53.081506891064059, -22.824798617551842 ], [ -53.081673395051183, -22.824756991555063 ], [ -53.082084225541152, -22.824778709466429 ], [ -53.08245523986028, -22.824755181729117 ], [ -53.083079629811991, -22.824690027995029 ], [ -53.083651534811231, -22.824608585827413 ], [ -53.083964634700067, -22.82453800261548 ], [ -53.084087702864458, -22.824452940795972 ], [ -53.084165525380179, -22.824156129340668 ], [ -53.084221629984533, -22.82361680120847 ], [ -53.084306691804045, -22.822796950054485 ], [ -53.084355557104608, -22.822333634612061 ], [ -53.084359176756507, -22.822154461843308 ], [ -53.084343340779419, -22.822137268496789 ] ] ] } },
{ "type": "Feature", "properties": { "id": null }, "geometry": { "type": "Polygon", "coordinates": [ [ [ -53.07274823839365, -22.825479112107917 ], [ -53.072905693251037, -22.825432961546259 ], [ -53.073390726604828, -22.825259218255347 ], [ -53.073543656897357, -22.825223021736409 ], [ -53.073844088004556, -22.825256503516432 ], [ -53.07399973303599, -22.825238405256961 ], [ -53.074246774277754, -22.825128910787164 ], [ -53.074648555637985, -22.824947023279496 ], [ -53.074834062797549, -22.824907207108662 ], [ -53.074916409878135, -22.824920780803264 ], [ -53.075111871080416, -22.824942498714631 ], [ -53.075404157970851, -22.824912636586507 ], [ -53.075552563698501, -22.824882774458381 ], [ -53.075778791941872, -22.824863771285937 ], [ -53.07590457484519, -22.824873725328647 ], [ -53.076061124789604, -22.824889108849195 ], [ -53.076214959995092, -22.824879154806485 ], [ -53.07640861137142, -22.824809476507525 ], [ -53.076742524258641, -22.824646592172297 ], [ -53.076966037763093, -22.824523524007905 ], [ -53.076958798459302, -22.824404980408374 ], [ -53.076928936331178, -22.824003199048146 ], [ -53.076900884029001, -22.823621325773335 ], [ -53.076842064685728, -22.823019558645964 ], [ -53.076788674820286, -22.822561672681374 ], [ -53.076723521086201, -22.822056731242167 ], [ -53.076689134393206, -22.821723723267922 ], [ -53.076671036133739, -22.821579842105137 ], [ -53.07663031504994, -22.821428721638565 ], [ -53.076563351489895, -22.821371712121238 ], [ -53.076414945762245, -22.821334610689323 ], [ -53.075928102582509, -22.821290269953622 ], [ -53.075333574758922, -22.821236880088186 ], [ -53.074270302015066, -22.82109752349027 ], [ -53.073578948503325, -22.821015176409681 ], [ -53.073053194065722, -22.820956357066404 ], [ -53.072830585474243, -22.820928304764223 ], [ -53.072784434912592, -22.820946403023694 ], [ -53.072765431740152, -22.820992553585342 ], [ -53.072733759786075, -22.821445914985059 ], [ -53.072694848528215, -22.821816024391218 ], [ -53.072670415877923, -22.822164415886014 ], [ -53.072613406360595, -22.822596964287342 ], [ -53.072558206669207, -22.823052135513009 ], [ -53.072539203496767, -22.823271124452592 ], [ -53.072509341368644, -22.823519070607329 ], [ -53.072450522025363, -22.824035775915196 ], [ -53.072396227246955, -22.824591392480922 ], [ -53.072348266859365, -22.825077330747689 ], [ -53.072317499818269, -22.825426627155455 ], [ -53.072303926123666, -22.825542456016059 ], [ -53.072310260514485, -22.825589511490683 ], [ -53.072340122642608, -22.8256094195761 ], [ -53.072599832666, -22.825527977408484 ], [ -53.07274823839365, -22.825479112107917 ] ] ] } }
]
}
