{
"type": "FeatureCollection",
"name": "72696_LINHAS",
"crs": { "type": "name", "properties": { "name": "urn:ogc:def:crs:OGC:1.3:CRS84" } },
"xy_coordinate_resolution": 1e-15,
"features": [
{ "type": "Feature", "properties": { "Field": "003", "Length": 253.64902323055384, "id": null }, "geometry": { "type": "MultiLineString", "coordinates": [ [ [ -51.028474819831182, -22.087932373022035, 0.0 ], [ -51.02847334697779, -22.08793518514376, 0.0 ] ] ] } },
{ "type": "Feature", "properties": { "Field": "003", "Length": 256.54293209643828, "id": null }, "geometry": { "type": "MultiLineString", "coordinates": [ [ [ -51.028475083866859, -22.087903041675716, 0.0 ], [ -51.028473812, -22.087905588, 0.0 ], [ -51.028457645875527, -22.087935107712511, 0.0 ] ] ] } },
{ "type": "Feature", "properties": { "Field": "003", "Length": 256.97096360131127, "id": null }, "geometry": { "type": "MultiLineString", "coordinates": [ [ [ -51.028475264423832, -22.087882983859586, 0.0 ], [ -51.028465794, -22.087901944, 0.0 ], [ -51.028447659969217, -22.087935058466211, 0.0 ] ] ] } },
{ "type": "Feature", "properties": { "Field": "003", "Length": 259.90204471207323, "id": null }, "geometry": { "type": "MultiLineString", "coordinates": [ [ [ -51.028475543492597, -22.087851982508667, 0.0 ], [ -51.028460244, -22.087881536, 0.0 ], [ -51.02844408, -22.087914414, 0.0 ], [ -51.028433044000572, -22.087934986386383, 0.0 ] ] ] } },
{ "type": "Feature", "properties": { "Field": "003", "Length": 260.31412812108761, "id": null }, "geometry": { "type": "MultiLineString", "coordinates": [ [ [ -51.028475718741426, -22.087832514366731, 0.0 ], [ -51.028452174, -22.087877998, 0.0 ], [ -51.028436036, -22.087910824, 0.0 ], [ -51.028423099570503, -22.087934937344627, 0.0 ] ] ] } },
{ "type": "Feature", "properties": { "Field": "003", "Length": 262.73395586722683, "id": null }, "geometry": { "type": "MultiLineString", "coordinates": [ [ [ -51.028406773525191, -22.087934856831421, 0.0 ], [ -51.028415168, -22.087919912, 0.0 ], [ -51.028474289, -22.087805908, 0.0 ], [ -51.028475990639492, -22.087802309599503, 0.0 ] ] ] } },
{ "type": "Feature", "properties": { "Field": "003", "Length": 263.15205640610202, "id": null }, "geometry": { "type": "MultiLineString", "coordinates": [ [ [ -51.028396734820603, -22.087934807324739, 0.0 ], [ -51.0284072, -22.087916176, 0.0 ], [ -51.028466191, -22.087802422, 0.0 ], [ -51.028473437247861, -22.087787099056946, 0.0 ] ] ] } },
{ "type": "Feature", "properties": { "Field": "003", "Length": 266.009023896342, "id": null }, "geometry": { "type": "MultiLineString", "coordinates": [ [ [ -51.028380695099891, -22.087934728223566, 0.0 ], [ -51.028389709, -22.087918847, 0.0 ], [ -51.028398282, -22.087902545, 0.0 ], [ -51.028457339168185, -22.087787137144726, 0.0 ] ] ] } },
{ "type": "Feature", "properties": { "Field": "003", "Length": 266.43677477282188, "id": null }, "geometry": { "type": "MultiLineString", "coordinates": [ [ [ -51.02837063425175, -22.087934678607684, 0.0 ], [ -51.028381761, -22.087915075, 0.0 ], [ -51.028390252, -22.087898927, 0.0 ], [ -51.028447446812557, -22.087787160549869, 0.0 ] ] ] } },
{ "type": "Feature", "properties": { "Field": "003", "Length": 270.08917669154772, "id": null }, "geometry": { "type": "MultiLineString", "coordinates": [ [ [ -51.028432074204005, -22.087787196921195, 0.0 ], [ -51.028415822, -22.087819871, 0.0 ], [ -51.028411604, -22.08782809, 0.0 ], [ -51.02839399, -22.087860311, 0.0 ], [ -51.02835970200001, -22.08792518, 0.0 ], [ -51.028354319811292, -22.087934598151708, 0.0 ] ] ] } },
{ "type": "Feature", "properties": { "Field": "003", "Length": 270.5019097493601, "id": null }, "geometry": { "type": "MultiLineString", "coordinates": [ [ [ -51.028422232452989, -22.087787220206607, 0.0 ], [ -51.028407754, -22.087816329, 0.0 ], [ -51.028403606, -22.08782441, 0.0 ], [ -51.028386016, -22.087856587, 0.0 ], [ -51.028351764, -22.087921388, 0.0 ], [ -51.028344243195491, -22.087934548458065, 0.0 ] ] ] } },
{ "type": "Feature", "properties": { "Field": "003", "Length": 272.94459340762262, "id": null }, "geometry": { "type": "MultiLineString", "coordinates": [ [ [ -51.028406434118835, -22.087787257585195, 0.0 ], [ -51.028355556, -22.087882564, 0.0 ], [ -51.028330553, -22.087931581, 0.0 ], [ -51.028328880368868, -22.08793447269505, 0.0 ] ] ] } },
{ "type": "Feature", "properties": { "Field": "003", "Length": 273.30643518369266, "id": null }, "geometry": { "type": "MultiLineString", "coordinates": [ [ [ -51.028396459764132, -22.087787281184344, 0.0 ], [ -51.028347536, -22.087878928, 0.0 ], [ -51.028322595, -22.087927823, 0.0 ], [ -51.028318777349952, -22.087934422871196, 0.0 ] ] ] } },
{ "type": "Feature", "properties": { "Field": "003", "Length": 276.02239617563407, "id": null }, "geometry": { "type": "MultiLineString", "coordinates": [ [ [ -51.028380981266096, -22.087787317806203, 0.0 ], [ -51.028340708, -22.087866015, 0.0 ], [ -51.028336319, -22.087874176, 0.0 ], [ -51.028322624, -22.087898074, 0.0 ], [ -51.028318396, -22.087906038, 0.0 ], [ -51.028314468, -22.087914269, 0.0 ], [ -51.028310214, -22.08792254, 0.0 ], [ -51.02830354572869, -22.08793434775523, 0.0 ] ] ] } },
{ "type": "Feature", "properties": { "Field": "003", "Length": 276.28895219174018, "id": null }, "geometry": { "type": "MultiLineString", "coordinates": [ [ [ -51.028371088759776, -22.087787341211705, 0.0 ], [ -51.028332696, -22.087862363, 0.0 ], [ -51.028328397, -22.087870356, 0.0 ], [ -51.028314692, -22.087894272, 0.0 ], [ -51.028310322, -22.087902504, 0.0 ], [ -51.02830637, -22.087910783, 0.0 ], [ -51.028302244, -22.087918806, 0.0 ], [ -51.02829349416367, -22.087934298185129, 0.0 ] ] ] } },
{ "type": "Feature", "properties": { "Field": "003", "Length": 278.64849500000645, "id": null }, "geometry": { "type": "MultiLineString", "coordinates": [ [ [ -51.028354949532655, -22.087787379396836, 0.0 ], [ -51.02832039, -22.087851878, 0.0 ], [ -51.028316163, -22.08785995, 0.0 ], [ -51.028303842, -22.087884507, 0.0 ], [ -51.02829951, -22.087892719, 0.0 ], [ -51.028275561908799, -22.08793420975077, 0.0 ] ] ] } },
{ "type": "Feature", "properties": { "Field": "003", "Length": 278.87458925201037, "id": null }, "geometry": { "type": "MultiLineString", "coordinates": [ [ [ -51.028344967790744, -22.087787403013465, 0.0 ], [ -51.028312392, -22.087848198, 0.0 ], [ -51.028308115, -22.087856366, 0.0 ], [ -51.0282958, -22.087880913, 0.0 ], [ -51.028291578, -22.087888915, 0.0 ], [ -51.028265463617792, -22.087934159950237, 0.0 ] ] ] } },
{ "type": "Feature", "properties": { "Field": "003", "Length": 281.07852934347977, "id": null }, "geometry": { "type": "MultiLineString", "coordinates": [ [ [ -51.028248763150785, -22.087934077590539, 0.0 ], [ -51.028249233, -22.087933243, 0.0 ], [ -51.028256007, -22.087920615000012, 0.0 ], [ -51.028265657, -22.087902033, 0.0 ], [ -51.028280346, -22.087876273, 0.0 ], [ -51.028288185, -22.087861285, 0.0 ], [ -51.02829563, -22.087846352, 0.0 ], [ -51.028327316068456, -22.087787444777135, 0.0 ] ] ] } },
{ "type": "Feature", "properties": { "Field": "003", "Length": 281.25818802280747, "id": null }, "geometry": { "type": "MultiLineString", "coordinates": [ [ [ -51.028238696612249, -22.087934027946591, 0.0 ], [ -51.028241295, -22.087929453, 0.0 ], [ -51.028247999, -22.087916957, 0.0 ], [ -51.028257739, -22.087898207, 0.0 ], [ -51.028272398, -22.087872501, 0.0 ], [ -51.028280131, -22.087857713, 0.0 ], [ -51.028287598, -22.087842738, 0.0 ], [ -51.028317327274365, -22.08778746841045, 0.0 ] ] ] } },
{ "type": "Feature", "properties": { "Field": "003", "Length": 283.12975203927505, "id": null }, "geometry": { "type": "MultiLineString", "coordinates": [ [ [ -51.028223690674686, -22.087933953943605, 0.0 ], [ -51.028229457, -22.087923801, 0.0 ], [ -51.028236054, -22.087911503, 0.0 ], [ -51.02824593, -22.087892503, 0.0 ], [ -51.028260544, -22.087866875, 0.0 ], [ -51.028268122, -22.087852385, 0.0 ], [ -51.028275619, -22.087837347, 0.0 ], [ -51.028302429779714, -22.087787503657665, 0.0 ] ] ] } },
{ "type": "Feature", "properties": { "Field": "003", "Length": 283.36036612570905, "id": null }, "geometry": { "type": "MultiLineString", "coordinates": [ [ [ -51.028213628304286, -22.087933904320213, 0.0 ], [ -51.028221519, -22.087920011, 0.0 ], [ -51.028228046, -22.087907845, 0.0 ], [ -51.028238012, -22.087888677, 0.0 ], [ -51.028252596, -22.087863103, 0.0 ], [ -51.028260068, -22.087848813, 0.0 ], [ -51.028267587, -22.087833733, 0.0 ], [ -51.028292440994022, -22.08778752729096, 0.0 ] ] ] } },
{ "type": "Feature", "properties": { "Field": "003", "Length": 285.44519396864848, "id": null }, "geometry": { "type": "MultiLineString", "coordinates": [ [ [ -51.028195791884592, -22.087933816358476, 0.0 ], [ -51.028196615, -22.087932388, 0.0 ], [ -51.028207382, -22.087913262, 0.0 ], [ -51.028213782, -22.087901332, 0.0 ], [ -51.02822391, -22.087881865, 0.0 ], [ -51.028238439, -22.087856385, 0.0 ], [ -51.028245727, -22.087842451, 0.0 ], [ -51.028253283, -22.087827295, 0.0 ], [ -51.028274651379867, -22.087787569380883, 0.0 ] ] ] } },
{ "type": "Feature", "properties": { "Field": "003", "Length": 285.65412799817705, "id": null }, "geometry": { "type": "MultiLineString", "coordinates": [ [ [ -51.028185647220432, -22.087933766329247, 0.0 ], [ -51.028199444, -22.087909472, 0.0 ], [ -51.028205774, -22.087897674, 0.0 ], [ -51.028215992, -22.087878039, 0.0 ], [ -51.028230491, -22.087852613, 0.0 ], [ -51.028237673, -22.087838879, 0.0 ], [ -51.028245251, -22.087823681, 0.0 ], [ -51.028264662622249, -22.087787593014109, 0.0 ] ] ] } },
{ "type": "Feature", "properties": { "Field": "003", "Length": 287.28325379917982, "id": null }, "geometry": { "type": "MultiLineString", "coordinates": [ [ [ -51.028251890606725, -22.087787623232476, 0.0 ], [ -51.028249215, -22.087792956, 0.0 ], [ -51.028232896, -22.087824655, 0.0 ], [ -51.028216053, -22.08785615, 0.0 ], [ -51.028204901, -22.087876177, 0.0 ], [ -51.028191682, -22.08789925, 0.0 ], [ -51.028171397836715, -22.087933696057263, 0.0 ] ] ] } },
{ "type": "Feature", "properties": { "Field": "003", "Length": 287.43595351503365, "id": null }, "geometry": { "type": "MultiLineString", "coordinates": [ [ [ -51.028242036889843, -22.0877876465462, 0.0 ], [ -51.028241154, -22.087789399999988, 0.0 ], [ -51.028227831, -22.087815353, 0.0 ], [ -51.028216356, -22.087837131, 0.0 ], [ -51.028205472, -22.087857165, 0.0 ], [ -51.028193855, -22.087877865, 0.0 ], [ -51.028183835, -22.0878953, 0.0 ], [ -51.028164406, -22.087928472, 0.0 ], [ -51.028161341596558, -22.087933646464105, 0.0 ] ] ] } },
{ "type": "Feature", "properties": { "Field": "003", "Length": 289.03058808173034, "id": null }, "geometry": { "type": "MultiLineString", "coordinates": [ [ [ -51.02814438839895, -22.087933562858048, 0.0 ], [ -51.028150563, -22.087923388, 0.0 ], [ -51.028167204, -22.087894081, 0.0 ], [ -51.028173245, -22.08788282, 0.0 ], [ -51.028183831, -22.087862502, 0.0 ], [ -51.028198207, -22.087837293, 0.0 ], [ -51.028204966, -22.08782437, 0.0 ], [ -51.028212628, -22.087809, 0.0 ], [ -51.02822409127274, -22.087787689005221, 0.0 ] ] ] } },
{ "type": "Feature", "properties": { "Field": "003", "Length": 289.05101616011899, "id": null }, "geometry": { "type": "MultiLineString", "coordinates": [ [ [ -51.028134093413634, -22.087933512087499, 0.0 ], [ -51.028135489, -22.087931346, 0.0 ], [ -51.028142751, -22.087919376, 0.0 ], [ -51.028159266, -22.087890291, 0.0 ], [ -51.028165237, -22.087879162, 0.0 ], [ -51.028175913, -22.087858678, 0.0 ], [ -51.028190259, -22.087833521, 0.0 ], [ -51.028196912, -22.087820798, 0.0 ], [ -51.028204596, -22.087805386, 0.0 ], [ -51.028214102536815, -22.087787712638399, 0.0 ] ] ] } },
{ "type": "Feature", "properties": { "Field": "003", "Length": 290.75798993604309, "id": null }, "geometry": { "type": "MultiLineString", "coordinates": [ [ [ -51.028198160810739, -22.087787750356249, 0.0 ], [ -51.028179675, -22.087824054, 0.0 ], [ -51.02816488500001, -22.087852441, 0.0 ], [ -51.028151857, -22.087876637, 0.0 ], [ -51.028142023, -22.087894261, 0.0 ], [ -51.028131474, -22.087912553, 0.0 ], [ -51.028126634672176, -22.087920699216156, 0.0 ] ] ] } },
{ "type": "Feature", "properties": { "Field": "003", "Length": 290.77773404033405, "id": null }, "geometry": { "type": "MultiLineString", "coordinates": [ [ [ -51.028188277222263, -22.087787773740647, 0.0 ], [ -51.028171633, -22.087820461, 0.0 ], [ -51.028156886, -22.087848765, 0.0 ], [ -51.028143917, -22.087872852, 0.0 ], [ -51.028134138, -22.087890377, 0.0 ], [ -51.02812689732221, -22.087902931740462, 0.0 ] ] ] } },
{ "type": "Feature", "properties": { "Field": "003", "Length": 292.08533394035697, "id": null }, "geometry": { "type": "MultiLineString", "coordinates": [ [ [ -51.028127393302825, -22.087869380161273, 0.0 ], [ -51.028141728, -22.087842163, 0.0 ], [ -51.028155943, -22.087817236, 0.0 ], [ -51.028162145, -22.087805376, 0.0 ], [ -51.028169920000011, -22.087789781, 0.0 ], [ -51.028170977696888, -22.087787814671024, 0.0 ] ] ] } },
{ "type": "Feature", "properties": { "Field": "003", "Length": 291.98692183122182, "id": null }, "geometry": { "type": "MultiLineString", "coordinates": [ [ [ -51.028127680162974, -22.087849974944412, 0.0 ], [ -51.02813381, -22.087838337, 0.0 ], [ -51.028147995, -22.087813464, 0.0 ], [ -51.028154091, -22.087801804, 0.0 ], [ -51.028161054723434, -22.087787838148611, 0.0 ] ] ] } },
{ "type": "Feature", "properties": { "Field": "003", "Length": 293.33816939256394, "id": null }, "geometry": { "type": "MultiLineString", "coordinates": [ [ [ -51.028128116575537, -22.087820452962355, 0.0 ], [ -51.028135487, -22.087807528, 0.0 ], [ -51.02814142, -22.087796182, 0.0 ], [ -51.028145561694636, -22.08778787480485, 0.0 ] ] ] } },
{ "type": "Feature", "properties": { "Field": "003", "Length": 293.22802546968092, "id": null }, "geometry": { "type": "MultiLineString", "coordinates": [ [ [ -51.028128387390076, -22.087802133182809, 0.0 ], [ -51.028133366, -22.08779261, 0.0 ], [ -51.028135715515468, -22.087787898100739, 0.0 ] ] ] } },
{ "type": "Feature", "properties": { "Field": "003", "Length": 171.64779362110116, "id": null }, "geometry": { "type": "MultiLineString", "coordinates": [ [ [ -51.026493463648656, -22.083729868465142, 0.0 ], [ -51.026471817, -22.083693583, 0.0 ], [ -51.026466933, -22.083685901, 0.0 ], [ -51.026441334, -22.083647652, 0.0 ], [ -51.026436073, -22.083640161, 0.0 ], [ -51.026425166, -22.083625191, 0.0 ], [ -51.026414745, -22.083609932, 0.0 ], [ -51.026409432, -22.083602494, 0.0 ], [ -51.02639456274575, -22.083582821804928, 0.0 ] ] ] } },
{ "type": "Feature", "properties": { "Field": "003", "Length": 168.18318177185697, "id": null }, "geometry": { "type": "MultiLineString", "coordinates": [ [ [ -51.02650367505543, -22.08372988167201, 0.0 ], [ -51.026479551, -22.083689445, 0.0 ], [ -51.026474553, -22.083681583, 0.0 ], [ -51.02644885, -22.083643175999988, 0.0 ], [ -51.026443493, -22.083635549, 0.0 ], [ -51.026432618, -22.083620623, 0.0 ], [ -51.026422219, -22.083605398, 0.0 ], [ -51.02641679, -22.083597795999978, 0.0 ], [ -51.026405440243074, -22.083582780320313, 0.0 ] ] ] } },
{ "type": "Feature", "properties": { "Field": "003", "Length": 155.87219842483094, "id": null }, "geometry": { "type": "MultiLineString", "coordinates": [ [ [ -51.026520194548205, -22.083729903037408, 0.0 ], [ -51.026515769, -22.083721841, 0.0 ], [ -51.026511174, -22.083713994, 0.0 ], [ -51.026501607, -22.083698353, 0.0 ], [ -51.026491823, -22.083682838, 0.0 ], [ -51.02645623, -22.083629079, 0.0 ], [ -51.026451101, -22.083621541, 0.0 ], [ -51.026445664, -22.083614217, 0.0 ], [ -51.026439959, -22.083606884, 0.0 ], [ -51.026434465, -22.083599303, 0.0 ], [ -51.026423985, -22.083584139, 0.0 ], [ -51.026422917802627, -22.083582713664374, 0.0 ] ] ] } },
{ "type": "Feature", "properties": { "Field": "003", "Length": 152.9628567651998, "id": null }, "geometry": { "type": "MultiLineString", "coordinates": [ [ [ -51.02653021944468, -22.083729916003055, 0.0 ], [ -51.026523655, -22.083717957, 0.0 ], [ -51.026518962, -22.083709944, 0.0 ], [ -51.026509325, -22.083694189, 0.0 ], [ -51.026499463, -22.08367855, 0.0 ], [ -51.02646379, -22.083624671, 0.0 ], [ -51.026458537000011, -22.083616949, 0.0 ], [ -51.026452942, -22.083609413, 0.0 ], [ -51.026447267, -22.083602118, 0.0 ], [ -51.026441909, -22.083594725, 0.0 ], [ -51.026433579688074, -22.083582673002059, 0.0 ] ] ] } },
{ "type": "Feature", "properties": { "Field": "003", "Length": 138.52164980827627, "id": null }, "geometry": { "type": "MultiLineString", "coordinates": [ [ [ -51.026557721741277, -22.083729951573005, 0.0 ], [ -51.026537671, -22.083695655, 0.0 ], [ -51.02652208, -22.083672744, 0.0 ], [ -51.026510171, -22.083652925, 0.0 ], [ -51.026483289, -22.083614413, 0.0 ], [ -51.026462998, -22.083585876, 0.0 ], [ -51.026460575069656, -22.083582570047035, 0.0 ] ] ] } },
{ "type": "Feature", "properties": { "Field": "003", "Length": 141.02131021627014, "id": null }, "geometry": { "type": "MultiLineString", "coordinates": [ [ [ -51.026547558309176, -22.083729938428185, 0.0 ], [ -51.026529981, -22.083699873, 0.0 ], [ -51.02651442, -22.083677008, 0.0 ], [ -51.026495454, -22.083645528, 0.0 ], [ -51.026452984, -22.083585385, 0.0 ], [ -51.02645074387766, -22.083582607541249, 0.0 ] ] ] } },
{ "type": "Feature", "properties": { "Field": "003", "Length": 126.57387822803977, "id": null }, "geometry": { "type": "MultiLineString", "coordinates": [ [ [ -51.026583880328083, -22.083729985405075, 0.0 ], [ -51.026565384, -22.083698852, 0.0 ], [ -51.0265405, -22.083660089999981, 0.0 ], [ -51.026521705, -22.083628407, 0.0 ], [ -51.026490195, -22.083582626, 0.0 ], [ -51.02649007297132, -22.083582457547898, 0.0 ] ] ] } },
{ "type": "Feature", "properties": { "Field": "003", "Length": 72.375984306783764, "id": null }, "geometry": { "type": "MultiLineString", "coordinates": [ [ [ -51.026625737191615, -22.083619612259174, 0.0 ], [ -51.026621141, -22.083612278, 0.0 ], [ -51.026610524, -22.083597207, 0.0 ], [ -51.026601433348553, -22.083582032841534, 0.0 ] ] ] } },
{ "type": "Feature", "properties": { "Field": "003", "Length": 87.033143652876703, "id": null }, "geometry": { "type": "MultiLineString", "coordinates": [ [ [ -51.026574633256331, -22.083582135051763, 0.0 ], [ -51.026582581, -22.083593834, 0.0 ], [ -51.026612587, -22.083640364, 0.0 ], [ -51.026622353, -22.08365606, 0.0 ], [ -51.02662582297166, -22.083661912669115, 0.0 ] ] ] } },
{ "type": "Feature", "properties": { "Field": "003", "Length": 113.50800637542319, "id": null }, "geometry": { "type": "MultiLineString", "coordinates": [ [ [ -51.026608508124511, -22.083730017257306, 0.0 ], [ -51.026605729000011, -22.083725297, 0.0 ], [ -51.026590718, -22.083701136, 0.0 ], [ -51.026556115, -22.083646962, 0.0 ], [ -51.026528544, -22.083602521, 0.0 ], [ -51.026515761750787, -22.083582359575995, 0.0 ] ] ] } },
{ "type": "Feature", "properties": { "Field": "003", "Length": 102.28262902624549, "id": null }, "geometry": { "type": "MultiLineString", "coordinates": [ [ [ -51.026545305409101, -22.083582246902349, 0.0 ], [ -51.026580193, -22.083634312, 0.0 ], [ -51.026584956, -22.083642378, 0.0 ], [ -51.02658938, -22.083650385, 0.0 ], [ -51.026594086, -22.083658113, 0.0 ], [ -51.026599119, -22.083665813999989, 0.0 ], [ -51.026604025, -22.083673715, 0.0 ], [ -51.026625922368794, -22.083710928032431, 0.0 ] ] ] } },
{ "type": "Feature", "properties": { "Field": "003", "Length": 129.20878097002981, "id": null }, "geometry": { "type": "MultiLineString", "coordinates": [ [ [ -51.026573678702711, -22.083729972210858, 0.0 ], [ -51.026557654, -22.083703, 0.0 ], [ -51.026532768, -22.083664236, 0.0 ], [ -51.026514041, -22.083632667, 0.0 ], [ -51.026482745, -22.083587196, 0.0 ], [ -51.026479341937993, -22.083582498473927, 0.0 ] ] ] } },
{ "type": "Feature", "properties": { "Field": "003", "Length": 75.697924431009952, "id": null }, "geometry": { "type": "MultiLineString", "coordinates": [ [ [ -51.026625771352059, -22.083636457678924, 0.0 ], [ -51.026623241, -22.083632109, 0.0 ], [ -51.026613557, -22.083616658, 0.0 ], [ -51.026602894, -22.083601519, 0.0 ], [ -51.026593446, -22.083585751, 0.0 ], [ -51.026590830736367, -22.083582073277793, 0.0 ] ] ] } },
{ "type": "Feature", "properties": { "Field": "003", "Length": 116.01802211988213, "id": null }, "geometry": { "type": "MultiLineString", "coordinates": [ [ [ -51.026597935499261, -22.083730003583256, 0.0 ], [ -51.026591957, -22.083719807, 0.0 ], [ -51.026573294, -22.083689295, 0.0 ], [ -51.026554213, -22.083659004, 0.0 ], [ -51.02654786, -22.083649479, 0.0 ], [ -51.026532227, -22.083624613, 0.0 ], [ -51.026517368, -22.083601411, 0.0 ], [ -51.026504788525344, -22.083582401425698, 0.0 ] ] ] } },
{ "type": "Feature", "properties": { "Field": "003", "Length": 89.571096101380093, "id": null }, "geometry": { "type": "MultiLineString", "coordinates": [ [ [ -51.026564105208415, -22.083582175203649, 0.0 ], [ -51.026574991, -22.083598198, 0.0 ], [ -51.026604907, -22.08364459, 0.0 ], [ -51.026614591, -22.083660156, 0.0 ], [ -51.026625857944865, -22.083679158884603, 0.0 ] ] ] } },
{ "type": "Feature", "properties": { "Field": "003", "Length": 104.66140426472754, "id": null }, "geometry": { "type": "MultiLineString", "coordinates": [ [ [ -51.026534817690631, -22.083582286900423, 0.0 ], [ -51.026572499, -22.08363852, 0.0 ], [ -51.026577084, -22.083646284, 0.0 ], [ -51.026581534, -22.083654341, 0.0 ], [ -51.026586398, -22.083662327, 0.0 ], [ -51.026591451, -22.083670058, 0.0 ], [ -51.026596255, -22.083677795, 0.0 ], [ -51.026619558, -22.083717399, 0.0 ], [ -51.026624336, -22.083725133, 0.0 ], [ -51.026625957541228, -22.08372827248936, 0.0 ] ] ] } },
{ "type": "Feature", "properties": { "Field": "003", "Length": 56.629644372541705, "id": null }, "geometry": { "type": "MultiLineString", "coordinates": [ [ [ -51.026625692288924, -22.083597469551972, 0.0 ], [ -51.026616093169096, -22.083581976931889, 0.0 ] ] ] } },
{ "type": "Feature", "properties": { "Field": "003", "Length": 625.52389380230409, "id": null }, "geometry": { "type": "MultiLineString", "coordinates": [ [ [ -51.026476269419305, -22.083729846227076, 0.0 ], [ -51.026456144, -22.083696693, 0.0 ], [ -51.026430823, -22.083658041, 0.0 ], [ -51.026388886, -22.083597144, 0.0 ], [ -51.026383441, -22.083589552, 0.0 ], [ -51.02637835576332, -22.08358288361514, 0.0 ] ] ] } },
{ "type": "Feature", "properties": { "Field": "003", "Length": 625.28814926371376, "id": null }, "geometry": { "type": "MultiLineString", "coordinates": [ [ [ -51.026466015280995, -22.083729832964941, 0.0 ], [ -51.026448456, -22.083700907, 0.0 ], [ -51.026423263, -22.083662451, 0.0 ], [ -51.026381426, -22.083601698, 0.0 ], [ -51.026376097, -22.08359427, 0.0 ], [ -51.026370546, -22.083586991, 0.0 ], [ -51.026367308346806, -22.083582925747795, 0.0 ] ] ] } },
{ "type": "Feature", "properties": { "Field": "003", "Length": 627.05927366844844, "id": null }, "geometry": { "type": "MultiLineString", "coordinates": [ [ [ -51.026349485507041, -22.083582993720565, 0.0 ], [ -51.026368994, -22.083609595, 0.0 ], [ -51.026415786, -22.083678318, 0.0 ], [ -51.026420965, -22.083686008, 0.0 ], [ -51.026431028, -22.083701528, 0.0 ], [ -51.026440851, -22.083717173, 0.0 ], [ -51.0264485389905, -22.083729810362072, 0.0 ] ] ] } },
{ "type": "Feature", "properties": { "Field": "003", "Length": 626.68355890561952, "id": null }, "geometry": { "type": "MultiLineString", "coordinates": [ [ [ -51.026338630233717, -22.083583035120423, 0.0 ], [ -51.026339756, -22.083584456, 0.0 ], [ -51.026361546, -22.083614169, 0.0 ], [ -51.026408244, -22.083682754, 0.0 ], [ -51.026413371, -22.083690368, 0.0 ], [ -51.02642336200001, -22.083705775999977, 0.0 ], [ -51.026433123, -22.083721321, 0.0 ], [ -51.026438279441734, -22.083729797092943, 0.0 ] ] ] } },
{ "type": "Feature", "properties": { "Field": "003", "Length": 630.0975491858535, "id": null }, "geometry": { "type": "MultiLineString", "coordinates": [ [ [ -51.026320240655139, -22.083583105254622, 0.0 ], [ -51.026321671, -22.083584913, 0.0 ], [ -51.026344132, -22.083614556, 0.0 ], [ -51.026354474, -22.08362986, 0.0 ], [ -51.026371069, -22.083652156, 0.0 ], [ -51.02642177175359, -22.08372977574281, 0.0 ] ] ] } },
{ "type": "Feature", "properties": { "Field": "003", "Length": 629.70962665654747, "id": null }, "geometry": { "type": "MultiLineString", "coordinates": [ [ [ -51.026309193425618, -22.083583147386562, 0.0 ], [ -51.026314439, -22.083589777, 0.0 ], [ -51.026336712, -22.083619172, 0.0 ], [ -51.026347034, -22.083634446, 0.0 ], [ -51.026363589, -22.08365669, 0.0 ], [ -51.026411321045558, -22.083729762226444, 0.0 ] ] ] } },
{ "type": "Feature", "properties": { "Field": "003", "Length": 632.10923981608209, "id": null }, "geometry": { "type": "MultiLineString", "coordinates": [ [ [ -51.026292308283452, -22.083583211783139, 0.0 ], [ -51.026297719, -22.083590094, 0.0 ], [ -51.026314006, -22.083612586, 0.0 ], [ -51.026336468, -22.083642079, 0.0 ], [ -51.026368345, -22.083687568, 0.0 ], [ -51.026378641, -22.083702975, 0.0 ], [ -51.026395803605084, -22.083729742157043, 0.0 ] ] ] } },
{ "type": "Feature", "properties": { "Field": "003", "Length": 631.8355230384592, "id": null }, "geometry": { "type": "MultiLineString", "coordinates": [ [ [ -51.026281285458651, -22.083583253822006, 0.0 ], [ -51.026290423, -22.083594876, 0.0 ], [ -51.026306672, -22.083617316, 0.0 ], [ -51.026329096, -22.083646759, 0.0 ], [ -51.026360825, -22.083692038, 0.0 ], [ -51.026371027, -22.083707305, 0.0 ], [ -51.02638540530031, -22.083729728708452, 0.0 ] ] ] } },
{ "type": "Feature", "properties": { "Field": "003", "Length": 634.23911520813772, "id": null }, "geometry": { "type": "MultiLineString", "coordinates": [ [ [ -51.026277742162826, -22.083600661642944, 0.0 ], [ -51.026286829, -22.083612395, 0.0 ], [ -51.026297882, -22.083627355, 0.0 ], [ -51.026350991, -22.083703034, 0.0 ], [ -51.026361378, -22.083718392, 0.0 ], [ -51.02636862229329, -22.083729707002238, 0.0 ] ] ] } },
{ "type": "Feature", "properties": { "Field": "003", "Length": 633.96614332685942, "id": null }, "geometry": { "type": "MultiLineString", "coordinates": [ [ [ -51.026277639921197, -22.083614732649583, 0.0 ], [ -51.026279539, -22.083617185, 0.0 ], [ -51.026290476, -22.083631987, 0.0 ], [ -51.026343487, -22.083707526, 0.0 ], [ -51.026353776, -22.083722738, 0.0 ], [ -51.02635822889075, -22.083729693559984, 0.0 ] ] ] } },
{ "type": "Feature", "properties": { "Field": "003", "Length": 635.3817842242471, "id": null }, "geometry": { "type": "MultiLineString", "coordinates": [ [ [ -51.026341137980928, -22.083729671455547, 0.0 ], [ -51.026331446, -22.083715033, 0.0 ], [ -51.026294516, -22.083661835, 0.0 ], [ -51.026288884, -22.083654336, 0.0 ], [ -51.0262774579626, -22.083639774707233, 0.0 ] ] ] } },
{ "type": "Feature", "properties": { "Field": "003", "Length": 634.95393533780714, "id": null }, "geometry": { "type": "MultiLineString", "coordinates": [ [ [ -51.026330650247417, -22.083729657891293, 0.0 ], [ -51.026323906, -22.083719473, 0.0 ], [ -51.026287116, -22.083666477, 0.0 ], [ -51.02628163, -22.083659174, 0.0 ], [ -51.026277356577282, -22.083653727865176, 0.0 ] ] ] } },
{ "type": "Feature", "properties": { "Field": "003", "Length": 636.83932319922656, "id": null }, "geometry": { "type": "MultiLineString", "coordinates": [ [ [ -51.026312934243208, -22.083729634978393, 0.0 ], [ -51.026291406, -22.083696842, 0.0 ], [ -51.026280656, -22.083681691, 0.0 ], [ -51.026277188141179, -22.08367690888895, 0.0 ] ] ] } },
{ "type": "Feature", "properties": { "Field": "003", "Length": 636.39272348970371, "id": null }, "geometry": { "type": "MultiLineString", "coordinates": [ [ [ -51.026302469891895, -22.08372962144438, 0.0 ], [ -51.02628388, -22.083701304, 0.0 ], [ -51.026277080515094, -22.08369172093202, 0.0 ] ] ] } },
{ "type": "Feature", "properties": { "Field": "003", "Length": 637.76254219872101, "id": null }, "geometry": { "type": "MultiLineString", "coordinates": [ [ [ -51.026287485421648, -22.083729602064295, 0.0 ], [ -51.026276917517372, -22.083714153498605, 0.0 ] ] ] } },
{ "type": "Feature", "properties": { "Field": "003", "Length": 637.11185775627666, "id": null }, "geometry": { "type": "MultiLineString", "coordinates": [ [ [ -51.026276898855841, -22.083729588372215, 0.0 ], [ -51.026276806348363, -22.083729453137067, 0.0 ] ] ] } },
{ "type": "Feature", "properties": { "Field": "003", "Length": 770.80628444527565, "id": null }, "geometry": { "type": "MultiLineString", "coordinates": [ [ [ -51.021974870927082, -22.081692278939521, 0.0 ], [ -51.021974153404514, -22.0816921450342, 0.0 ] ] ] } },
{ "type": "Feature", "properties": { "Field": "003", "Length": 769.98677294065601, "id": null }, "geometry": { "type": "MultiLineString", "coordinates": [ [ [ -51.021974903623466, -22.08170076153182, 0.0 ], [ -51.021966831, -22.081699255, 0.0 ], [ -51.02194565300001, -22.08169576, 0.0 ], [ -51.021923715, -22.081692569, 0.0 ], [ -51.021922793344302, -22.081692452939333, 0.0 ] ] ] } },
{ "type": "Feature", "properties": { "Field": "003", "Length": 771.441843199701, "id": null }, "geometry": { "type": "MultiLineString", "coordinates": [ [ [ -51.021974956211885, -22.081714404818676, 0.0 ], [ -51.021964176, -22.081712393, 0.0 ], [ -51.021943266, -22.081708943, 0.0 ], [ -51.021932481, -22.08170732, 0.0 ], [ -51.021921679, -22.081705804, 0.0 ], [ -51.021900628, -22.081703151, 0.0 ], [ -51.02186966, -22.081699907, 0.0 ], [ -51.02184878, -22.081698101, 0.0 ], [ -51.021828298, -22.081696576, 0.0 ], [ -51.021807942, -22.081695266, 0.0 ], [ -51.021787629, -22.081694144, 0.0 ], [ -51.021770768034862, -22.081693364335717, 0.0 ] ] ] } },
{ "type": "Feature", "properties": { "Field": "003", "Length": 770.52043852203008, "id": null }, "geometry": { "type": "MultiLineString", "coordinates": [ [ [ -51.021974988909854, -22.081722887822547, 0.0 ], [ -51.021962523, -22.081720561, 0.0 ], [ -51.021941777, -22.081717139, 0.0 ], [ -51.021931106, -22.081715532, 0.0 ], [ -51.021920417, -22.081714032, 0.0 ], [ -51.021899532, -22.081711399999989, 0.0 ], [ -51.02186875, -22.081708176, 0.0 ], [ -51.02184801300001, -22.081706382, 0.0 ], [ -51.021827636, -22.081704865, 0.0 ], [ -51.021807371, -22.081703561, 0.0 ], [ -51.021787144, -22.081702444, 0.0 ], [ -51.021766883, -22.081701507, 0.0 ], [ -51.021746538, -22.081700761, 0.0 ], [ -51.02172609, -22.081700227, 0.0 ], [ -51.021705544, -22.081699929, 0.0 ], [ -51.021684933, -22.081699887, 0.0 ], [ -51.021664311, -22.081700110999989, 0.0 ], [ -51.021643738, -22.081700596, 0.0 ], [ -51.021628226130829, -22.081701148290726, 0.0 ] ] ] } },
{ "type": "Feature", "properties": { "Field": "003", "Length": 770.5755554301453, "id": null }, "geometry": { "type": "MultiLineString", "coordinates": [ [ [ -51.021975041499331, -22.081736531385324, 0.0 ], [ -51.021959867, -22.081733699, 0.0 ], [ -51.02193939, -22.081730323, 0.0 ], [ -51.021928894, -22.081728743, 0.0 ], [ -51.021918381, -22.081727267, 0.0 ], [ -51.021897768, -22.081724668, 0.0 ], [ -51.021867289, -22.081721476, 0.0 ], [ -51.021846782, -22.081719703, 0.0 ], [ -51.021826571, -22.081718198, 0.0 ], [ -51.021806453, -22.081716904, 0.0 ], [ -51.021786364, -22.081715794, 0.0 ], [ -51.021766245, -22.081714864, 0.0 ], [ -51.021746055, -22.081714124, 0.0 ], [ -51.021725777, -22.081713595, 0.0 ], [ -51.021705416, -22.081713299, 0.0 ], [ -51.021685001, -22.081713257, 0.0 ], [ -51.021664576, -22.081713479, 0.0 ], [ -51.021644194, -22.08171396, 0.0 ], [ -51.021628328529495, -22.081714524279295, 0.0 ] ] ] } },
{ "type": "Feature", "properties": { "Field": "003", "Length": 769.12995112194187, "id": null }, "geometry": { "type": "MultiLineString", "coordinates": [ [ [ -51.021975074197336, -22.081745014397367, 0.0 ], [ -51.021958215, -22.081741868, 0.0 ], [ -51.021937902, -22.081738518, 0.0 ], [ -51.021927519, -22.081736956, 0.0 ], [ -51.021917119, -22.081735495, 0.0 ], [ -51.021896672, -22.081732917, 0.0 ], [ -51.021866379, -22.081729745, 0.0 ], [ -51.021846015, -22.081727984, 0.0 ], [ -51.021825909, -22.081726487, 0.0 ], [ -51.021805882, -22.081725199, 0.0 ], [ -51.021765849, -22.081723168, 0.0 ], [ -51.021745755, -22.081722431, 0.0 ], [ -51.021725583, -22.081721905, 0.0 ], [ -51.021705337, -22.081721611, 0.0 ], [ -51.021685043, -22.081721569, 0.0 ], [ -51.021664741, -22.081721789, 0.0 ], [ -51.021644477, -22.081722268, 0.0 ], [ -51.021628392189605, -22.081722839982262, 0.0 ] ] ] } },
{ "type": "Feature", "properties": { "Field": "003", "Length": 768.2166937018934, "id": null }, "geometry": { "type": "MultiLineString", "coordinates": [ [ [ -51.021975126784717, -22.081758657415506, 0.0 ], [ -51.021955559, -22.081755005, 0.0 ], [ -51.021935514, -22.081751702, 0.0 ], [ -51.021915084, -22.08174873, 0.0 ], [ -51.021894908, -22.081746185, 0.0 ], [ -51.021864919, -22.081743045, 0.0 ], [ -51.021844783, -22.081741305, 0.0 ], [ -51.021824845, -22.081739821, 0.0 ], [ -51.021804964, -22.081738542, 0.0 ], [ -51.021765211, -22.081736525, 0.0 ], [ -51.021745272, -22.081735794, 0.0 ], [ -51.021725269, -22.081735272, 0.0 ], [ -51.021705209, -22.08173498, 0.0 ], [ -51.021685111, -22.081734939, 0.0 ], [ -51.02166500700001, -22.081735157, 0.0 ], [ -51.021644932, -22.081735631, 0.0 ], [ -51.02162849459296, -22.081736216583653, 0.0 ] ] ] } },
{ "type": "Feature", "properties": { "Field": "003", "Length": 766.77596535035093, "id": null }, "geometry": { "type": "MultiLineString", "coordinates": [ [ [ -51.02197515948275, -22.081767140437282, 0.0 ], [ -51.021953907, -22.081763174, 0.0 ], [ -51.021934027, -22.081759897, 0.0 ], [ -51.021913821, -22.081756959, 0.0 ], [ -51.021893812, -22.081754434, 0.0 ], [ -51.021864009, -22.081751314, 0.0 ], [ -51.021844017, -22.081749586, 0.0 ], [ -51.021824183, -22.08174811, 0.0 ], [ -51.021804393, -22.081746837, 0.0 ], [ -51.021764815, -22.081744829, 0.0 ], [ -51.021744971, -22.081744101, 0.0 ], [ -51.021725075, -22.081743582, 0.0 ], [ -51.02170513, -22.081743292, 0.0 ], [ -51.021685153, -22.081743251, 0.0 ], [ -51.021665171, -22.081743468, 0.0 ], [ -51.021645216, -22.081743939, 0.0 ], [ -51.021628558253219, -22.08174453230566, 0.0 ] ] ] } },
{ "type": "Feature", "properties": { "Field": "003", "Length": 765.90448896131954, "id": null }, "geometry": { "type": "MultiLineString", "coordinates": [ [ [ -51.021975212074558, -22.081780784602319, 0.0 ], [ -51.021951251, -22.081776312, 0.0 ], [ -51.021931638, -22.081773081, 0.0 ], [ -51.021921721, -22.08177159, 0.0 ], [ -51.021911787, -22.081770194, 0.0 ], [ -51.021892047, -22.081767701, 0.0 ], [ -51.021862548, -22.081764614, 0.0 ], [ -51.021842785, -22.081762907, 0.0 ], [ -51.021823118, -22.081761444, 0.0 ], [ -51.021783835, -22.081759095, 0.0 ], [ -51.021764177, -22.081758186, 0.0 ], [ -51.021744488, -22.081757464, 0.0 ], [ -51.021724762, -22.081756949, 0.0 ], [ -51.021705002, -22.081756662, 0.0 ], [ -51.021685221, -22.081756621, 0.0 ], [ -51.021665437, -22.081756836, 0.0 ], [ -51.021645671, -22.081757303, 0.0 ], [ -51.021628660651423, -22.081757908233893, 0.0 ] ] ] } },
{ "type": "Feature", "properties": { "Field": "003", "Length": 764.47001404075945, "id": null }, "geometry": { "type": "MultiLineString", "coordinates": [ [ [ -51.021975244771184, -22.081789267257882, 0.0 ], [ -51.021949599, -22.08178448, 0.0 ], [ -51.021930152, -22.081781276, 0.0 ], [ -51.021910524, -22.081778422, 0.0 ], [ -51.021890951, -22.081775951, 0.0 ], [ -51.021861639, -22.081772883, 0.0 ], [ -51.021842019, -22.081771188, 0.0 ], [ -51.021822456, -22.081769733, 0.0 ], [ -51.021802904, -22.081768475, 0.0 ], [ -51.021763781, -22.08176649, 0.0 ], [ -51.021744188, -22.081765772, 0.0 ], [ -51.021724567, -22.081765259, 0.0 ], [ -51.021704923, -22.081764973, 0.0 ], [ -51.021685263, -22.081764933, 0.0 ], [ -51.021665602, -22.081765146, 0.0 ], [ -51.021645954, -22.08176561, 0.0 ], [ -51.021628724310794, -22.08176622384061, 0.0 ] ] ] } },
{ "type": "Feature", "properties": { "Field": "003", "Length": 763.71902418984348, "id": null }, "geometry": { "type": "MultiLineString", "coordinates": [ [ [ -51.021975296746767, -22.081802751554115, 0.0 ], [ -51.021946943, -22.081797459, 0.0 ], [ -51.021918134, -22.081792853, 0.0 ], [ -51.021889187, -22.081789059, 0.0 ], [ -51.021860178, -22.081786023, 0.0 ], [ -51.021840787, -22.08178435, 0.0 ], [ -51.021821392, -22.081782907, 0.0 ], [ -51.021782571, -22.081780587, 0.0 ], [ -51.021763144, -22.081779688, 0.0 ], [ -51.021743705, -22.081778975, 0.0 ], [ -51.021724254, -22.081778467, 0.0 ], [ -51.021704795, -22.081778184, 0.0 ], [ -51.02168533, -22.081778144, 0.0 ], [ -51.021665867, -22.081778355, 0.0 ], [ -51.02164641, -22.081778815, 0.0 ], [ -51.021628825491952, -22.081779440789642, 0.0 ] ] ] } },
{ "type": "Feature", "properties": { "Field": "003", "Length": 762.32713447460617, "id": null }, "geometry": { "type": "MultiLineString", "coordinates": [ [ [ -51.021975329576357, -22.081811268705479, 0.0 ], [ -51.02197372, -22.081810934, 0.0 ], [ -51.021945291, -22.081805627, 0.0 ], [ -51.021916759, -22.081801066, 0.0 ], [ -51.021888091, -22.081797308, 0.0 ], [ -51.021859269, -22.081794292, 0.0 ], [ -51.021840021, -22.081792631, 0.0 ], [ -51.02182073, -22.081791196, 0.0 ], [ -51.021782086, -22.081788886, 0.0 ], [ -51.021762747, -22.081787992, 0.0 ], [ -51.021743404, -22.081787282, 0.0 ], [ -51.02172406, -22.081786777, 0.0 ], [ -51.021704715, -22.081786495, 0.0 ], [ -51.021685373, -22.081786456, 0.0 ], [ -51.021666032, -22.081786666, 0.0 ], [ -51.021646693, -22.081787122, 0.0 ], [ -51.021628889151387, -22.081787756404825, 0.0 ] ] ] } },
{ "type": "Feature", "properties": { "Field": "003", "Length": 761.3250991996149, "id": null }, "geometry": { "type": "MultiLineString", "coordinates": [ [ [ -51.021975374615032, -22.081822953322771, 0.0 ], [ -51.021967464, -22.081821307, 0.0 ], [ -51.02195335, -22.08181856, 0.0 ], [ -51.021930655, -22.081814564, 0.0 ], [ -51.02190785, -22.081811167, 0.0 ], [ -51.021882074, -22.081808061, 0.0 ], [ -51.021853367, -22.081805338, 0.0 ], [ -51.021818865, -22.081802799, 0.0 ], [ -51.0217786, -22.081800465, 0.0 ], [ -51.021744057, -22.081799003, 0.0 ], [ -51.021712366, -22.081798234, 0.0 ], [ -51.021695083, -22.081798085, 0.0 ], [ -51.021677778, -22.081798154, 0.0 ], [ -51.021660477, -22.081798452, 0.0 ], [ -51.021643204, -22.081798962, 0.0 ], [ -51.021628979448685, -22.081799551633324, 0.0 ] ] ] } },
{ "type": "Feature", "properties": { "Field": "003", "Length": 759.61776100763666, "id": null }, "geometry": { "type": "MultiLineString", "coordinates": [ [ [ -51.021975407467004, -22.081831476280243, 0.0 ], [ -51.0219656, -22.081829435, 0.0 ], [ -51.021951582, -22.081826708, 0.0 ], [ -51.021929119, -22.081822752, 0.0 ], [ -51.021906558, -22.081819391, 0.0 ], [ -51.021881058, -22.081816319, 0.0 ], [ -51.021852569, -22.081813616, 0.0 ], [ -51.021818243, -22.081811091, 0.0 ], [ -51.021778118, -22.081808765, 0.0 ], [ -51.021743733, -22.081807309, 0.0 ], [ -51.02171223, -22.081806544, 0.0 ], [ -51.021695045, -22.081806397, 0.0 ], [ -51.02167788, -22.081806466, 0.0 ], [ -51.021660715, -22.08180676, 0.0 ], [ -51.021643526, -22.081807268, 0.0 ], [ -51.021629043115404, -22.08180786819943, 0.0 ] ] ] } },
{ "type": "Feature", "properties": { "Field": "003", "Length": 757.66458932143712, "id": null }, "geometry": { "type": "MultiLineString", "coordinates": [ [ [ -51.021943783052585, -22.081839482264019, 0.0 ], [ -51.02193751, -22.081838296, 0.0 ], [ -51.021914387, -22.081834552, 0.0 ], [ -51.021891145, -22.081831454, 0.0 ], [ -51.021865843, -22.081828754, 0.0 ], [ -51.021834722, -22.081826156999988, 0.0 ], [ -51.021796454, -22.081823673, 0.0 ], [ -51.021760692, -22.08182186, 0.0 ], [ -51.021727517, -22.081820735, 0.0 ], [ -51.021710028, -22.081820405, 0.0 ], [ -51.021692561, -22.081820284, 0.0 ], [ -51.021676359, -22.081820374, 0.0 ], [ -51.021659532, -22.081820683, 0.0 ], [ -51.021642056, -22.081821222, 0.0 ], [ -51.021629149522752, -22.081821767828831, 0.0 ] ] ] } },
{ "type": "Feature", "properties": { "Field": "003", "Length": 756.25828032523623, "id": null }, "geometry": { "type": "MultiLineString", "coordinates": [ [ [ -51.021888057873781, -22.081839489693539, 0.0 ], [ -51.021864939, -22.081837024, 0.0 ], [ -51.02183402, -22.081834443, 0.0 ], [ -51.021795902, -22.081831969, 0.0 ], [ -51.021760284, -22.081830164, 0.0 ], [ -51.021727287, -22.081829044999989, 0.0 ], [ -51.021709904, -22.081828717, 0.0 ], [ -51.021692555, -22.081828596, 0.0 ], [ -51.021676473, -22.081828686, 0.0 ], [ -51.021659768, -22.081828993, 0.0 ], [ -51.021642406, -22.081829528, 0.0 ], [ -51.021629213203894, -22.081830086279226, 0.0 ] ] ] } },
{ "type": "Feature", "properties": { "Field": "002", "Length": 452.98085564080645, "id": null }, "geometry": { "type": "MultiLineString", "coordinates": [ [ [ -51.021965300750168, -22.088068151218835, 0.0 ], [ -51.021964691, -22.088069791, 0.0 ], [ -51.021957346, -22.088090157, 0.0 ], [ -51.021951160166012, -22.088108186720035, 0.0 ] ] ] } },
{ "type": "Feature", "properties": { "Field": "002", "Length": 453.13261249131619, "id": null }, "geometry": { "type": "MultiLineString", "coordinates": [ [ [ -51.02196534406238, -22.08804265107435, 0.0 ], [ -51.021956257, -22.088067089, 0.0 ], [ -51.021948876, -22.088087557, 0.0 ], [ -51.02194179476529, -22.088108194792582, 0.0 ] ] ] } },
{ "type": "Feature", "properties": { "Field": "002", "Length": 453.32366502441346, "id": null }, "geometry": { "type": "MultiLineString", "coordinates": [ [ [ -51.021926937354635, -22.088108207598985, 0.0 ], [ -51.021933582, -22.088088989, 0.0 ], [ -51.021944824, -22.088058267, 0.0 ], [ -51.021956631, -22.088027683, 0.0 ], [ -51.02196540985932, -22.088003913000396, 0.0 ] ] ] } },
{ "type": "Feature", "properties": { "Field": "002", "Length": 453.50254851206523, "id": null }, "geometry": { "type": "MultiLineString", "coordinates": [ [ [ -51.021917565015521, -22.088108215677511, 0.0 ], [ -51.02192512, -22.088086365, 0.0 ], [ -51.021936406, -22.088055519, 0.0 ], [ -51.021948217, -22.088024929, 0.0 ], [ -51.021965453437389, -22.087978256332853, 0.0 ] ] ] } },
{ "type": "Feature", "properties": { "Field": "002", "Length": 453.70637336819203, "id": null }, "geometry": { "type": "MultiLineString", "coordinates": [ [ [ -51.021903989615126, -22.088108227378882, 0.0 ], [ -51.021913037, -22.088081062, 0.0 ], [ -51.021920232, -22.088060479, 0.0 ], [ -51.021935256, -22.088019478, 0.0 ], [ -51.021949681, -22.087978437, 0.0 ], [ -51.021956652120323, -22.087961131159599, 0.0 ] ] ] } },
{ "type": "Feature", "properties": { "Field": "002", "Length": 453.85181566651715, "id": null }, "geometry": { "type": "MultiLineString", "coordinates": [ [ [ -51.021894649648885, -22.088108235429505, 0.0 ], [ -51.021904543, -22.08807853, 0.0 ], [ -51.02191176, -22.088057881, 0.0 ], [ -51.021915422, -22.088047608, 0.0 ], [ -51.021926794, -22.088016854, 0.0 ], [ -51.021941265, -22.087975681, 0.0 ], [ -51.021947108629234, -22.087961174221356, 0.0 ] ] ] } },
{ "type": "Feature", "properties": { "Field": "002", "Length": 454.07693437620412, "id": null }, "geometry": { "type": "MultiLineString", "coordinates": [ [ [ -51.02193102772339, -22.087961246780974, 0.0 ], [ -51.021929746, -22.087964336, 0.0 ], [ -51.021922026, -22.087984532, 0.0 ], [ -51.021911282, -22.088015282, 0.0 ], [ -51.021900245, -22.088046183, 0.0 ], [ -51.021890079, -22.088077322, 0.0 ], [ -51.021883068, -22.088098038, 0.0 ], [ -51.021879440473562, -22.088108248539115, 0.0 ] ] ] } },
{ "type": "Feature", "properties": { "Field": "002", "Length": 454.24111705071022, "id": null }, "geometry": { "type": "MultiLineString", "coordinates": [ [ [ -51.021921447744511, -22.087961290007371, 0.0 ], [ -51.021921388, -22.087961434, 0.0 ], [ -51.021913586, -22.087981844, 0.0 ], [ -51.021902798, -22.088012716, 0.0 ], [ -51.021891751, -22.088043651, 0.0 ], [ -51.021881563, -22.088074852, 0.0 ], [ -51.021874582, -22.088095482, 0.0 ], [ -51.021870043133873, -22.088108256639192, 0.0 ] ] ] } },
{ "type": "Feature", "properties": { "Field": "002", "Length": 454.46620661432752, "id": null }, "geometry": { "type": "MultiLineString", "coordinates": [ [ [ -51.021906403635128, -22.087961357888798, 0.0 ], [ -51.021901525, -22.087973335, 0.0 ], [ -51.021893768, -22.087993634, 0.0 ], [ -51.021875976, -22.088045079, 0.0 ], [ -51.021864868, -22.088075876, 0.0 ], [ -51.02185375997972, -22.088108270674521, 0.0 ] ] ] } },
{ "type": "Feature", "properties": { "Field": "002", "Length": 454.62562159403438, "id": null }, "geometry": { "type": "MultiLineString", "coordinates": [ [ [ -51.021896847069279, -22.087961401009551, 0.0 ], [ -51.021893171, -22.087970425, 0.0 ], [ -51.021885322, -22.087990966, 0.0 ], [ -51.021867502, -22.088042485, 0.0 ], [ -51.021856382, -22.08807332, 0.0 ], [ -51.021844394653513, -22.088108278747004, 0.0 ] ] ] } },
{ "type": "Feature", "properties": { "Field": "002", "Length": 454.83044470087674, "id": null }, "geometry": { "type": "MultiLineString", "coordinates": [ [ [ -51.02182968530542, -22.088108291425787, 0.0 ], [ -51.021829796, -22.088107945, 0.0 ], [ -51.021836668, -22.088087287, 0.0 ], [ -51.0218474, -22.088056551, 0.0 ], [ -51.021858513, -22.088025756, 0.0 ], [ -51.021882467640275, -22.087961465891834, 0.0 ] ] ] } },
{ "type": "Feature", "properties": { "Field": "002", "Length": 454.981582998075, "id": null }, "geometry": { "type": "MultiLineString", "coordinates": [ [ [ -51.021820376610989, -22.088108299449452, 0.0 ], [ -51.021821258, -22.088105541, 0.0 ], [ -51.021828164, -22.088084781, 0.0 ], [ -51.021838936, -22.088053929, 0.0 ], [ -51.021850073, -22.088023072, 0.0 ], [ -51.021873012086694, -22.087961508556806, 0.0 ] ] ] } },
{ "type": "Feature", "properties": { "Field": "002", "Length": 455.05690685616571, "id": null }, "geometry": { "type": "MultiLineString", "coordinates": [ [ [ -51.021805083166228, -22.0881083126317, 0.0 ], [ -51.021812667, -22.088084537, 0.0 ], [ -51.02183069, -22.08803309, 0.0 ], [ -51.021836859, -22.088015999, 0.0 ], [ -51.021852794, -22.087973234, 0.0 ], [ -51.021857288935415, -22.087961579502178, 0.0 ] ] ] } },
{ "type": "Feature", "properties": { "Field": "002", "Length": 455.21348318557619, "id": null }, "geometry": { "type": "MultiLineString", "coordinates": [ [ [ -51.02179577628371, -22.088108320653806, 0.0 ], [ -51.021804147, -22.088082077, 0.0 ], [ -51.021822226, -22.08803047, 0.0 ], [ -51.021828419, -22.088013311, 0.0 ], [ -51.021844384, -22.087970464, 0.0 ], [ -51.021847794344779, -22.08796162234329, 0.0 ] ] ] } },
{ "type": "Feature", "properties": { "Field": "002", "Length": 455.67147459653103, "id": null }, "geometry": { "type": "MultiLineString", "coordinates": [ [ [ -51.021781166978911, -22.088108333246353, 0.0 ], [ -51.02179686, -22.088061646, 0.0 ], [ -51.02180368, -22.088040952, 0.0 ], [ -51.02180723, -22.088030699, 0.0 ], [ -51.02182224, -22.087989774, 0.0 ], [ -51.021832886171346, -22.087961689611351, 0.0 ] ] ] } },
{ "type": "Feature", "properties": { "Field": "002", "Length": 455.82652077884978, "id": null }, "geometry": { "type": "MultiLineString", "coordinates": [ [ [ -51.021771817676211, -22.088108341305023, 0.0 ], [ -51.021788342, -22.088059184, 0.0 ], [ -51.021795174, -22.088038456, 0.0 ], [ -51.021798766, -22.088028079, 0.0 ], [ -51.02181381, -22.087987062, 0.0 ], [ -51.021823412210203, -22.087961732359378, 0.0 ] ] ] } },
{ "type": "Feature", "properties": { "Field": "002", "Length": 456.13451236887357, "id": null }, "geometry": { "type": "MultiLineString", "coordinates": [ [ [ -51.021807844123863, -22.087961802605072, 0.0 ], [ -51.021801548, -22.087978914, 0.0 ], [ -51.021794354, -22.087999348, 0.0 ], [ -51.021790559, -22.088009636, 0.0 ], [ -51.021786567, -22.088020185, 0.0 ], [ -51.021782481, -22.088030309, 0.0 ], [ -51.021778887, -22.088040167, 0.0 ], [ -51.021757736, -22.088102088, 0.0 ], [ -51.021755675646546, -22.088108355218711, 0.0 ] ] ] } },
{ "type": "Feature", "properties": { "Field": "002", "Length": 456.2841910477008, "id": null }, "geometry": { "type": "MultiLineString", "coordinates": [ [ [ -51.021798399757316, -22.087961845219564, 0.0 ], [ -51.021793092, -22.08797627, 0.0 ], [ -51.0217859, -22.087996702, 0.0 ], [ -51.02178213700001, -22.088006902, 0.0 ], [ -51.021778187, -22.088017339, 0.0 ], [ -51.021774083, -22.088027509, 0.0 ], [ -51.021770415, -22.088037569, 0.0 ], [ -51.021749224, -22.088099606, 0.0 ], [ -51.021746345042658, -22.088108363261263, 0.0 ] ] ] } },
{ "type": "Feature", "properties": { "Field": "002", "Length": 456.56945626339126, "id": null }, "geometry": { "type": "MultiLineString", "coordinates": [ [ [ -51.021783554687588, -22.087961912202893, 0.0 ], [ -51.021758622, -22.088029217, 0.0 ], [ -51.021740927, -22.088080624, 0.0 ], [ -51.021731678824565, -22.08810837590287, 0.0 ] ] ] } },
{ "type": "Feature", "properties": { "Field": "002", "Length": 456.71035540823874, "id": null }, "geometry": { "type": "MultiLineString", "coordinates": [ [ [ -51.021774104193277, -22.087961954845035, 0.0 ], [ -51.02175016, -22.088026591, 0.0 ], [ -51.021732419, -22.08807813, 0.0 ], [ -51.021722337998746, -22.088108383954232, 0.0 ] ] ] } },
{ "type": "Feature", "properties": { "Field": "002", "Length": 457.00692956011721, "id": null }, "geometry": { "type": "MultiLineString", "coordinates": [ [ [ -51.021757546852491, -22.087962029554404, 0.0 ], [ -51.021755918, -22.087966256, 0.0 ], [ -51.021744478, -22.087996838, 0.0 ], [ -51.021733359, -22.088027604, 0.0 ], [ -51.02172272, -22.088058397, 0.0 ], [ -51.021719321, -22.088068725, 0.0 ], [ -51.021706761901633, -22.088108397380111, 0.0 ] ] ] } },
{ "type": "Feature", "properties": { "Field": "002", "Length": 457.16772801910719, "id": null }, "geometry": { "type": "MultiLineString", "coordinates": [ [ [ -51.021748054475161, -22.087962072385526, 0.0 ], [ -51.021747512, -22.08796348, 0.0 ], [ -51.021736044, -22.087994136, 0.0 ], [ -51.021724885, -22.088025012, 0.0 ], [ -51.021714212, -22.088055905, 0.0 ], [ -51.021710789, -22.088066301, 0.0 ], [ -51.021697460514467, -22.088108405397481, 0.0 ] ] ] } },
{ "type": "Feature", "properties": { "Field": "002", "Length": 457.22440212630727, "id": null }, "geometry": { "type": "MultiLineString", "coordinates": [ [ [ -51.021683393899046, -22.088108417522257, 0.0 ], [ -51.021684057, -22.088106347, 0.0 ], [ -51.021692776, -22.088080507, 0.0 ], [ -51.021700821, -22.088055776, 0.0 ], [ -51.021721617, -22.087995597, 0.0 ], [ -51.021734066265495, -22.087962135502565, 0.0 ] ] ] } },
{ "type": "Feature", "properties": { "Field": "002", "Length": 457.41762179488677, "id": null }, "geometry": { "type": "MultiLineString", "coordinates": [ [ [ -51.02167408351648, -22.088108425547379, 0.0 ], [ -51.021675529, -22.088103911, 0.0 ], [ -51.021684254, -22.088078055, 0.0 ], [ -51.021692309, -22.088053296, 0.0 ], [ -51.021713155, -22.087992973, 0.0 ], [ -51.021724611651173, -22.087962178163298, 0.0 ] ] ] } },
{ "type": "Feature", "properties": { "Field": "002", "Length": 457.88994083734167, "id": null }, "geometry": { "type": "MultiLineString", "coordinates": [ [ [ -51.021658299958268, -22.08810843915208, 0.0 ], [ -51.021672566, -22.08806439, 0.0 ], [ -51.021697717, -22.087992083, 0.0 ], [ -51.021708478256457, -22.087962250959755, 0.0 ] ] ] } },
{ "type": "Feature", "properties": { "Field": "002", "Length": 458.0445551483653, "id": null }, "geometry": { "type": "MultiLineString", "coordinates": [ [ [ -51.021648981703649, -22.088108447183988, 0.0 ], [ -51.021664062, -22.088061882, 0.0 ], [ -51.021689249, -22.087989477, 0.0 ], [ -51.021699053661457, -22.087962293485035, 0.0 ] ] ] } },
{ "type": "Feature", "properties": { "Field": "002", "Length": 458.31000105962607, "id": null }, "geometry": { "type": "MultiLineString", "coordinates": [ [ [ -51.021634656366189, -22.088108459531771, 0.0 ], [ -51.021637867, -22.088098395, 0.0 ], [ -51.021662145, -22.088026022, 0.0 ], [ -51.021673115, -22.087995239, 0.0 ], [ -51.021684545846895, -22.087962358946612, 0.0 ] ] ] } },
{ "type": "Feature", "properties": { "Field": "002", "Length": 458.47805551921914, "id": null }, "geometry": { "type": "MultiLineString", "coordinates": [ [ [ -51.021625350436132, -22.088108467553056, 0.0 ], [ -51.021629337, -22.088095971, 0.0 ], [ -51.021653651, -22.088023484, 0.0 ], [ -51.021664643, -22.087992641, 0.0 ], [ -51.021675155794561, -22.08796240131603, 0.0 ] ] ] } },
{ "type": "Feature", "properties": { "Field": "002", "Length": 458.70109195654055, "id": null }, "geometry": { "type": "MultiLineString", "coordinates": [ [ [ -51.02161671621284, -22.088089284782125, 0.0 ], [ -51.021623183, -22.088069726, 0.0 ], [ -51.021637094, -22.088028361, 0.0 ], [ -51.021647844, -22.087997478, 0.0 ], [ -51.021660606399962, -22.087962466965227, 0.0 ] ] ] } },
{ "type": "Feature", "properties": { "Field": "002", "Length": 458.8748272873928, "id": null }, "geometry": { "type": "MultiLineString", "coordinates": [ [ [ -51.021616872151505, -22.088060702424762, 0.0 ], [ -51.02162859, -22.088025857, 0.0 ], [ -51.021639376, -22.08799487, 0.0 ], [ -51.021651172480809, -22.087962509532577, 0.0 ] ] ] } },
{ "type": "Feature", "properties": { "Field": "002", "Length": 459.14674931763079, "id": null }, "geometry": { "type": "MultiLineString", "coordinates": [ [ [ -51.021617108003305, -22.088017472603301, 0.0 ], [ -51.021633316, -22.087969431, 0.0 ], [ -51.02163580739667, -22.087962578862292, 0.0 ] ] ] } },
{ "type": "Feature", "properties": { "Field": "002", "Length": 459.33130769758139, "id": null }, "geometry": { "type": "MultiLineString", "coordinates": [ [ [ -51.021617261654036, -22.087989309605881, 0.0 ], [ -51.021624846, -22.087966829, 0.0 ], [ -51.021626375833343, -22.087962621419017, 0.0 ] ] ] } },
{ "type": "Feature", "properties": { "Field": "003", "Length": 263.94798879650318, "id": null }, "geometry": { "type": "MultiLineString", "coordinates": [ [ [ -51.021541420037842, -22.084082515470634, 0.0 ], [ -51.021538584, -22.084074456, 0.0 ], [ -51.021535096374215, -22.084063822741868, 0.0 ] ] ] } },
{ "type": "Feature", "properties": { "Field": "003", "Length": 264.63452669375079, "id": null }, "geometry": { "type": "MultiLineString", "coordinates": [ [ [ -51.021541683343607, -22.084128464743774, 0.0 ], [ -51.021541471, -22.084127919, 0.0 ], [ -51.021531512, -22.084101334, 0.0 ], [ -51.021523649, -22.084078972, 0.0 ], [ -51.02151866850658, -22.084063824891672, 0.0 ] ] ] } },
{ "type": "Feature", "properties": { "Field": "003", "Length": 263.90925122770881, "id": null }, "geometry": { "type": "MultiLineString", "coordinates": [ [ [ -51.021541825137994, -22.084153209166633, 0.0 ], [ -51.021533073, -22.084130715, 0.0 ], [ -51.021523066, -22.084104004, 0.0 ], [ -51.021515145, -22.084081478, 0.0 ], [ -51.021509341600378, -22.084063826112224, 0.0 ] ] ] } },
{ "type": "Feature", "properties": { "Field": "003", "Length": 261.02307683567136, "id": null }, "geometry": { "type": "MultiLineString", "coordinates": [ [ [ -51.021542075174864, -22.084196842895555, 0.0 ], [ -51.021518157, -22.084135364, 0.0 ], [ -51.021508333, -22.084109153999989, 0.0 ], [ -51.021500227, -22.084086143, 0.0 ], [ -51.021493981, -22.084067136, 0.0 ], [ -51.021492936909773, -22.084063828258994, 0.0 ] ] ] } },
{ "type": "Feature", "properties": { "Field": "003", "Length": 260.45082413572038, "id": null }, "geometry": { "type": "MultiLineString", "coordinates": [ [ [ -51.021537858288312, -22.084210386195998, 0.0 ], [ -51.021509759, -22.08413816, 0.0 ], [ -51.021499887, -22.084111826, 0.0 ], [ -51.021491725, -22.084088651, 0.0 ], [ -51.021485433, -22.084069506, 0.0 ], [ -51.021483641188837, -22.084063829475465, 0.0 ] ] ] } },
{ "type": "Feature", "properties": { "Field": "003", "Length": 257.91313457753051, "id": null }, "geometry": { "type": "MultiLineString", "coordinates": [ [ [ -51.021523713183633, -22.084210350380996, 0.0 ], [ -51.021497476, -22.084142916, 0.0 ], [ -51.021487308, -22.084115802, 0.0 ], [ -51.021479107, -22.084092525, 0.0 ], [ -51.021472723, -22.084073105, 0.0 ], [ -51.021469796219606, -22.084063831287263, 0.0 ] ] ] } },
{ "type": "Feature", "properties": { "Field": "003", "Length": 257.34088987592276, "id": null }, "geometry": { "type": "MultiLineString", "coordinates": [ [ [ -51.021514217108901, -22.084210326337207, 0.0 ], [ -51.021489078, -22.084145714, 0.0 ], [ -51.021478864, -22.084118474, 0.0 ], [ -51.021470605, -22.084095035, 0.0 ], [ -51.021464175, -22.084075475, 0.0 ], [ -51.021460500605649, -22.08406383250372, 0.0 ] ] ] } },
{ "type": "Feature", "properties": { "Field": "003", "Length": 254.98891653748919, "id": null }, "geometry": { "type": "MultiLineString", "coordinates": [ [ [ -51.021443973161134, -22.084063834666555, 0.0 ], [ -51.021448903, -22.084078321, 0.0 ], [ -51.021496337551497, -22.084210281066678, 0.0 ] ] ] } },
{ "type": "Feature", "properties": { "Field": "003", "Length": 254.46355310407742, "id": null }, "geometry": { "type": "MultiLineString", "coordinates": [ [ [ -51.021434617116448, -22.08406383589092, 0.0 ], [ -51.021440423, -22.084080897, 0.0 ], [ -51.021486923500049, -22.08421025723057, 0.0 ] ] ] } },
{ "type": "Feature", "properties": { "Field": "003", "Length": 252.10019594596071, "id": null }, "geometry": { "type": "MultiLineString", "coordinates": [ [ [ -51.021421563184681, -22.084063837599199, 0.0 ], [ -51.021460608, -22.084179026, 0.0 ], [ -51.021466783, -22.084196096, 0.0 ], [ -51.021472018154903, -22.084210219490661, 0.0 ] ] ] } },
{ "type": "Feature", "properties": { "Field": "003", "Length": 251.52510093659362, "id": null }, "geometry": { "type": "MultiLineString", "coordinates": [ [ [ -51.021412210544895, -22.084063838823116, 0.0 ], [ -51.02145213, -22.084181606, 0.0 ], [ -51.021458343, -22.08419878, 0.0 ], [ -51.021462574344788, -22.084210195579207, 0.0 ] ] ] } },
{ "type": "Feature", "properties": { "Field": "003", "Length": 249.04654385501024, "id": null }, "geometry": { "type": "MultiLineString", "coordinates": [ [ [ -51.021448046941643, -22.084210158796235, 0.0 ], [ -51.021430793, -22.084163677, 0.0 ], [ -51.021396950141209, -22.084063840820143, 0.0 ] ] ] } },
{ "type": "Feature", "properties": { "Field": "003", "Length": 248.43029274802825, "id": null }, "geometry": { "type": "MultiLineString", "coordinates": [ [ [ -51.021438601009166, -22.084210134879406, 0.0 ], [ -51.021422325, -22.084166289, 0.0 ], [ -51.021387597407248, -22.084063842044074, 0.0 ] ] ] } },
{ "type": "Feature", "properties": { "Field": "003", "Length": 246.08207902792779, "id": null }, "geometry": { "type": "MultiLineString", "coordinates": [ [ [ -51.02137269851108, -22.084063843993793, 0.0 ], [ -51.02137275, -22.084063992, 0.0 ], [ -51.021398095, -22.08414181, 0.0 ], [ -51.021403933, -22.084158983, 0.0 ], [ -51.021422154893749, -22.084210093238312, 0.0 ] ] ] } },
{ "type": "Feature", "properties": { "Field": "003", "Length": 245.4563757479344, "id": null }, "geometry": { "type": "MultiLineString", "coordinates": [ [ [ -51.021363322721143, -22.08406384522074, 0.0 ], [ -51.02136424, -22.084066482, 0.0 ], [ -51.021389577, -22.084144272, 0.0 ], [ -51.021395451, -22.084161549, 0.0 ], [ -51.021412749914035, -22.084210069425172, 0.0 ] ] ] } },
{ "type": "Feature", "properties": { "Field": "003", "Length": 242.8256242066355, "id": null }, "geometry": { "type": "MultiLineString", "coordinates": [ [ [ -51.021398433398097, -22.084210033176163, 0.0 ], [ -51.021397695, -22.084208, 0.0 ], [ -51.021388917, -22.084182159, 0.0 ], [ -51.021385774, -22.084173532, 0.0 ], [ -51.021372728, -22.08413953, 0.0 ], [ -51.021369772, -22.084131043, 0.0 ], [ -51.021348250349455, -22.084063847193161, 0.0 ] ] ] } },
{ "type": "Feature", "properties": { "Field": "003", "Length": 242.2324588109592, "id": null }, "geometry": { "type": "MultiLineString", "coordinates": [ [ [ -51.021389022465677, -22.084210009347949, 0.0 ], [ -51.021380443, -22.084184749, 0.0 ], [ -51.021377352, -22.084176268, 0.0 ], [ -51.021364286, -22.084142214, 0.0 ], [ -51.021361256, -22.084133515, 0.0 ], [ -51.021338943325382, -22.084063848411109, 0.0 ] ] ] } },
{ "type": "Feature", "properties": { "Field": "003", "Length": 239.52348558049295, "id": null }, "geometry": { "type": "MultiLineString", "coordinates": [ [ [ -51.021323416542913, -22.084063850442995, 0.0 ], [ -51.021333564, -22.084094444, 0.0 ], [ -51.021357321, -22.084163204, 0.0 ], [ -51.021363376, -22.08418032, 0.0 ], [ -51.021374416935366, -22.084209972367166, 0.0 ] ] ] } },
{ "type": "Feature", "properties": { "Field": "003", "Length": 238.90810106951136, "id": null }, "geometry": { "type": "MultiLineString", "coordinates": [ [ [ -51.021314082461863, -22.084063851664485, 0.0 ], [ -51.02132506, -22.084096946, 0.0 ], [ -51.021348841, -22.08416578, 0.0 ], [ -51.021354928, -22.084182984, 0.0 ], [ -51.021364967884843, -22.084209948442439, 0.0 ] ] ] } },
{ "type": "Feature", "properties": { "Field": "003", "Length": 236.22695757180895, "id": null }, "geometry": { "type": "MultiLineString", "coordinates": [ [ [ -51.021349748908214, -22.084209909908424, 0.0 ], [ -51.021330472, -22.08415751, 0.0 ], [ -51.021298720625261, -22.084063853674785, 0.0 ] ] ] } },
{ "type": "Feature", "properties": { "Field": "003", "Length": 235.66202564268488, "id": null }, "geometry": { "type": "MultiLineString", "coordinates": [ [ [ -51.021340312707309, -22.084209886016232, 0.0 ], [ -51.021322, -22.08416011, 0.0 ], [ -51.021289368363284, -22.084063854898655, 0.0 ] ] ] } },
{ "type": "Feature", "properties": { "Field": "003", "Length": 232.48995515537769, "id": null }, "geometry": { "type": "MultiLineString", "coordinates": [ [ [ -51.02132375434195, -22.084209844090925, 0.0 ], [ -51.021276046, -22.084076596, 0.0 ], [ -51.02127176522734, -22.08406385720226, 0.0 ] ] ] } },
{ "type": "Feature", "properties": { "Field": "003", "Length": 231.71503700676621, "id": null }, "geometry": { "type": "MultiLineString", "coordinates": [ [ [ -51.021314344253405, -22.084209820264849, 0.0 ], [ -51.02126756, -22.084079154, 0.0 ], [ -51.021262419969695, -22.08406385842521, 0.0 ] ] ] } },
{ "type": "Feature", "properties": { "Field": "003", "Length": 229.62895197038765, "id": null }, "geometry": { "type": "MultiLineString", "coordinates": [ [ [ -51.021299777053081, -22.084209783381116, 0.0 ], [ -51.02125524310334, -22.084085402935379, 0.0 ] ] ] } },
{ "type": "Feature", "properties": { "Field": "003", "Length": 229.0686870615815, "id": null }, "geometry": { "type": "MultiLineString", "coordinates": [ [ [ -51.021290365841381, -22.084209759552195, 0.0 ], [ -51.021255396762285, -22.084112091421179, 0.0 ] ] ] } },
{ "type": "Feature", "properties": { "Field": "003", "Length": 226.49489311243656, "id": null }, "geometry": { "type": "MultiLineString", "coordinates": [ [ [ -51.02127574468571, -22.084209722531849, 0.0 ], [ -51.021255642629725, -22.084154795280369, 0.0 ] ] ] } },
{ "type": "Feature", "properties": { "Field": "003", "Length": 225.93549111305376, "id": null }, "geometry": { "type": "MultiLineString", "coordinates": [ [ [ -51.021266313287988, -22.084209698651819, 0.0 ], [ -51.021255793239341, -22.084180954140269, 0.0 ] ] ] } },
{ "type": "Feature", "properties": { "Field": "001", "Length": 137.97038022777215, "id": null }, "geometry": { "type": "MultiLineString", "coordinates": [ [ [ -51.02068112905318, -22.08555638437284, 0.0 ], [ -51.020687038647509, -22.085566119963307, 0.0 ] ] ] } },
{ "type": "Feature", "properties": { "Field": "001", "Length": 139.03252841793821, "id": null }, "geometry": { "type": "MultiLineString", "coordinates": [ [ [ -51.020665388498934, -22.085556455220722, 0.0 ], [ -51.020678076, -22.085577187, 0.0 ], [ -51.020687042453417, -22.085592248359717, 0.0 ] ] ] } },
{ "type": "Feature", "properties": { "Field": "001", "Length": 139.53873584190777, "id": null }, "geometry": { "type": "MultiLineString", "coordinates": [ [ [ -51.020655150090299, -22.085556501303568, 0.0 ], [ -51.020670306, -22.085581267, 0.0 ], [ -51.020687044949533, -22.085609384723767, 0.0 ] ] ] } },
{ "type": "Feature", "properties": { "Field": "001", "Length": 140.66379197784079, "id": null }, "geometry": { "type": "MultiLineString", "coordinates": [ [ [ -51.020687049319093, -22.085639382723677, 0.0 ], [ -51.020668604, -22.085605928, 0.0 ], [ -51.020661228, -22.085593189, 0.0 ], [ -51.020639085989146, -22.085556573607725, 0.0 ] ] ] } },
{ "type": "Feature", "properties": { "Field": "001", "Length": 141.16116726065422, "id": null }, "geometry": { "type": "MultiLineString", "coordinates": [ [ [ -51.020687051968714, -22.085657572955018, 0.0 ], [ -51.020660712, -22.085609802, 0.0 ], [ -51.020653418, -22.085597203, 0.0 ], [ -51.020628876578982, -22.085556619560052, 0.0 ] ] ] } },
{ "type": "Feature", "properties": { "Field": "001", "Length": 142.36245455690604, "id": null }, "geometry": { "type": "MultiLineString", "coordinates": [ [ [ -51.020687056056182, -22.08568563437473, 0.0 ], [ -51.020675029, -22.085663629, 0.0 ], [ -51.020652468, -22.085623586, 0.0 ], [ -51.020615356, -22.085560171, 0.0 ], [ -51.020613221446645, -22.085556690023452, 0.0 ] ] ] } },
{ "type": "Feature", "properties": { "Field": "001", "Length": 142.90756190281436, "id": null }, "geometry": { "type": "MultiLineString", "coordinates": [ [ [ -51.020686552600772, -22.085703188580933, 0.0 ], [ -51.020684228, -22.085698773, 0.0 ], [ -51.020667107, -22.085667447, 0.0 ], [ -51.020644604, -22.085627508, 0.0 ], [ -51.020607568, -22.085564223, 0.0 ], [ -51.020602977650462, -22.085556736130549, 0.0 ] ] ] } },
{ "type": "Feature", "properties": { "Field": "001", "Length": 144.17272308319633, "id": null }, "geometry": { "type": "MultiLineString", "coordinates": [ [ [ -51.020669157198668, -22.085703241785438, 0.0 ], [ -51.020651555, -22.085670818, 0.0 ], [ -51.020634962, -22.085641354, 0.0 ], [ -51.020601339, -22.085582935, 0.0 ], [ -51.020585340642171, -22.085556815514327, 0.0 ] ] ] } },
{ "type": "Feature", "properties": { "Field": "001", "Length": 144.7313691140167, "id": null }, "geometry": { "type": "MultiLineString", "coordinates": [ [ [ -51.020659178831046, -22.085703272304663, 0.0 ], [ -51.020643627, -22.085674626, 0.0 ], [ -51.020627084, -22.08564525, 0.0 ], [ -51.020593505, -22.085586907, 0.0 ], [ -51.020575100919778, -22.085556861603088, 0.0 ] ] ] } },
{ "type": "Feature", "properties": { "Field": "001", "Length": 145.96688161929958, "id": null }, "geometry": { "type": "MultiLineString", "coordinates": [ [ [ -51.020642549891384, -22.085703323164914, 0.0 ], [ -51.020629757, -22.08568017, 0.0 ], [ -51.020621584, -22.085663973, 0.0 ], [ -51.0206125, -22.085647863, 0.0 ], [ -51.020589328, -22.085607721, 0.0 ], [ -51.020559189927319, -22.085556933218108, 0.0 ] ] ] } },
{ "type": "Feature", "properties": { "Field": "001", "Length": 146.54060813033638, "id": null }, "geometry": { "type": "MultiLineString", "coordinates": [ [ [ -51.020632535889924, -22.085703353793125, 0.0 ], [ -51.020621755, -22.085683842, 0.0 ], [ -51.020613598, -22.085667677, 0.0 ], [ -51.020604626, -22.085651765, 0.0 ], [ -51.020581498, -22.085611701, 0.0 ], [ -51.020549025958594, -22.085556978965904, 0.0 ] ] ] } },
{ "type": "Feature", "properties": { "Field": "001", "Length": 148.00157510766275, "id": null }, "geometry": { "type": "MultiLineString", "coordinates": [ [ [ -51.020617256102824, -22.085703400526942, 0.0 ], [ -51.020592025, -22.085658033, 0.0 ], [ -51.020564724, -22.085610424, 0.0 ], [ -51.020559778, -22.08560209, 0.0 ], [ -51.02053196881544, -22.08555705573972, 0.0 ] ] ] } },
{ "type": "Feature", "properties": { "Field": "001", "Length": 148.75196852407899, "id": null }, "geometry": { "type": "MultiLineString", "coordinates": [ [ [ -51.020607227991341, -22.085703431198308, 0.0 ], [ -51.020584133, -22.085661905, 0.0 ], [ -51.020556888, -22.085614394, 0.0 ], [ -51.02055201, -22.085606174, 0.0 ], [ -51.020521707243631, -22.085557101926828, 0.0 ] ] ] } },
{ "type": "Feature", "properties": { "Field": "001", "Length": 150.13043876259331, "id": null }, "geometry": { "type": "MultiLineString", "coordinates": [ [ [ -51.020505857663515, -22.085557173265432, 0.0 ], [ -51.020515503, -22.085573258, 0.0 ], [ -51.020530343, -22.085596543, 0.0 ], [ -51.020535173, -22.085604437, 0.0 ], [ -51.020542267, -22.085616233, 0.0 ], [ -51.02056782, -22.085660144, 0.0 ], [ -51.020590212, -22.085700414, 0.0 ], [ -51.020591875462188, -22.08570347815461, 0.0 ] ] ] } },
{ "type": "Feature", "properties": { "Field": "001", "Length": 150.90242398548602, "id": null }, "geometry": { "type": "MultiLineString", "coordinates": [ [ [ -51.020495666229913, -22.085557219136845, 0.0 ], [ -51.020507781, -22.085577418, 0.0 ], [ -51.020522635, -22.085600725, 0.0 ], [ -51.020527409, -22.085608527, 0.0 ], [ -51.020534457, -22.085620247, 0.0 ], [ -51.020559954, -22.08566406, 0.0 ], [ -51.020581887855784, -22.085703508702089, 0.0 ] ] ] } },
{ "type": "Feature", "properties": { "Field": "001", "Length": 152.70883751487881, "id": null }, "geometry": { "type": "MultiLineString", "coordinates": [ [ [ -51.020478700759469, -22.085557295498045, 0.0 ], [ -51.020479115, -22.085557935, 0.0 ], [ -51.020484077, -22.085565894, 0.0 ], [ -51.020493468, -22.085581689, 0.0 ], [ -51.020508044, -22.085605169, 0.0 ], [ -51.020513702, -22.085614718, 0.0 ], [ -51.020558773, -22.085692891, 0.0 ], [ -51.020564768596621, -22.085703561062001, 0.0 ] ] ] } },
{ "type": "Feature", "properties": { "Field": "001", "Length": 152.5960941774496, "id": null }, "geometry": { "type": "MultiLineString", "coordinates": [ [ [ -51.020468313047445, -22.085557342252905, 0.0 ], [ -51.020471441, -22.085562171, 0.0 ], [ -51.020476321, -22.085569996, 0.0 ], [ -51.020485714, -22.085585797, 0.0 ], [ -51.020500264, -22.085609233, 0.0 ], [ -51.02050587, -22.085618694, 0.0 ], [ -51.020550901, -22.085696799, 0.0 ], [ -51.020554718277815, -22.085703591801291, 0.0 ] ] ] } },
{ "type": "Feature", "properties": { "Field": "001", "Length": 155.45772284861408, "id": null }, "geometry": { "type": "MultiLineString", "coordinates": [ [ [ -51.020451259429997, -22.085557419010854, 0.0 ], [ -51.020466523, -22.085581167, 0.0 ], [ -51.020478536, -22.085600727, 0.0 ], [ -51.020500014, -22.085636562, 0.0 ], [ -51.020517828, -22.085668707, 0.0 ], [ -51.020538192936542, -22.085703642344683, 0.0 ] ] ] } },
{ "type": "Feature", "properties": { "Field": "001", "Length": 156.34366653460381, "id": null }, "geometry": { "type": "MultiLineString", "coordinates": [ [ [ -51.020440893619501, -22.085557465667133, 0.0 ], [ -51.020458825, -22.085585365, 0.0 ], [ -51.020470776, -22.085604823, 0.0 ], [ -51.02049214, -22.085640466, 0.0 ], [ -51.020509946, -22.085672599, 0.0 ], [ -51.020528061408108, -22.085703673332354, 0.0 ] ] ] } },
{ "type": "Feature", "properties": { "Field": "001", "Length": 158.0518014619249, "id": null }, "geometry": { "type": "MultiLineString", "coordinates": [ [ [ -51.020424116228874, -22.085557541181792, 0.0 ], [ -51.020442806, -22.085587006, 0.0 ], [ -51.02046653, -22.085625708, 0.0 ], [ -51.020498717, -22.085682029, 0.0 ], [ -51.020507789, -22.085697436, 0.0 ], [ -51.020511366030533, -22.08570372439581, 0.0 ] ] ] } },
{ "type": "Feature", "properties": { "Field": "001", "Length": 159.07404206067923, "id": null }, "geometry": { "type": "MultiLineString", "coordinates": [ [ [ -51.020413786003957, -22.085557587677904, 0.0 ], [ -51.020435096, -22.085591182, 0.0 ], [ -51.02045872, -22.085629724, 0.0 ], [ -51.020490871, -22.085685983, 0.0 ], [ -51.020499939, -22.085701382, 0.0 ], [ -51.020501288915362, -22.085703755217054, 0.0 ] ] ] } },
{ "type": "Feature", "properties": { "Field": "000", "Length": 270.15427766753839, "id": null }, "geometry": { "type": "MultiLineString", "coordinates": [ [ [ -51.020529923933118, -22.082917913929087, 0.0 ], [ -51.0205260876075, -22.08291928690748, 0.0 ] ] ] } },
{ "type": "Feature", "properties": { "Field": "000", "Length": 268.2672164414098, "id": null }, "geometry": { "type": "MultiLineString", "coordinates": [ [ [ -51.020529890032016, -22.082909022452753, 0.0 ], [ -51.020506722, -22.082917313999989, 0.0 ], [ -51.020501802373957, -22.082919247027203, 0.0 ] ] ] } },
{ "type": "Feature", "properties": { "Field": "000", "Length": 265.45268983995493, "id": null }, "geometry": { "type": "MultiLineString", "coordinates": [ [ [ -51.02052983581325, -22.082894802124287, 0.0 ], [ -51.020512208, -22.082901216, 0.0 ], [ -51.020484691, -22.08291157, 0.0 ], [ -51.020464937498524, -22.082919186489129, 0.0 ] ] ] } },
{ "type": "Feature", "properties": { "Field": "001", "Length": 160.78890735569632, "id": null }, "geometry": { "type": "MultiLineString", "coordinates": [ [ [ -51.020397403442907, -22.085557661415443, 0.0 ], [ -51.020402145, -22.085565001, 0.0 ], [ -51.020411982, -22.085580598, 0.0 ], [ -51.02044135, -22.085627795, 0.0 ], [ -51.020455381, -22.085651431, 0.0 ], [ -51.020485395200858, -22.085703803828594, 0.0 ] ] ] } },
{ "type": "Feature", "properties": { "Field": "000", "Length": 263.53281749839971, "id": null }, "geometry": { "type": "MultiLineString", "coordinates": [ [ [ -51.02052980183938, -22.082885891563002, 0.0 ], [ -51.020508916, -22.08289349, 0.0 ], [ -51.020481323, -22.082903874, 0.0 ], [ -51.020441709693074, -22.082919148345322, 0.0 ] ] ] } },
{ "type": "Feature", "properties": { "Field": "000", "Length": 260.43543969627279, "id": null }, "geometry": { "type": "MultiLineString", "coordinates": [ [ [ -51.020529747442403, -22.082871624494093, 0.0 ], [ -51.020504061, -22.082880943, 0.0 ], [ -51.020477314, -22.082890461, 0.0 ], [ -51.020459326, -22.082897526, 0.0 ], [ -51.02043208, -22.082907511, 0.0 ], [ -51.020414237, -22.082914443, 0.0 ], [ -51.020402932975038, -22.08291908466769, 0.0 ] ] ] } },
{ "type": "Feature", "properties": { "Field": "000", "Length": 258.87022657764345, "id": null }, "geometry": { "type": "MultiLineString", "coordinates": [ [ [ -51.020529713484365, -22.082862718085615, 0.0 ], [ -51.020500845, -22.082873191, 0.0 ], [ -51.020473976, -22.082882753, 0.0 ], [ -51.020455932, -22.08288984, 0.0 ], [ -51.020428734, -22.082899807, 0.0 ], [ -51.020410735, -22.082906799, 0.0 ], [ -51.020393162, -22.082914016, 0.0 ], [ -51.02038146083347, -22.082919049406968, 0.0 ] ] ] } },
{ "type": "Feature", "properties": { "Field": "000", "Length": 256.25611680912328, "id": null }, "geometry": { "type": "MultiLineString", "coordinates": [ [ [ -51.020529656830199, -22.082847859006936, 0.0 ], [ -51.02050204, -22.082857178, 0.0 ], [ -51.020456946, -22.082873851, 0.0 ], [ -51.020403368, -22.082894869, 0.0 ], [ -51.020367962, -22.082909617, 0.0 ], [ -51.020346157849254, -22.082918991433768, 0.0 ] ] ] } },
{ "type": "Feature", "properties": { "Field": "000", "Length": 254.37275556515715, "id": null }, "geometry": { "type": "MultiLineString", "coordinates": [ [ [ -51.020529623169828, -22.08283903066966, 0.0 ], [ -51.020498886, -22.082849402, 0.0 ], [ -51.020453564, -22.082866161, 0.0 ], [ -51.020399802, -22.082887251, 0.0 ], [ -51.020364284, -22.082902045, 0.0 ], [ -51.020336541, -22.082913972, 0.0 ], [ -51.020327751, -22.082917897, 0.0 ], [ -51.020325472794205, -22.082918957465569, 0.0 ] ] ] } },
{ "type": "Feature", "properties": { "Field": "000", "Length": 251.64868714042206, "id": null }, "geometry": { "type": "MultiLineString", "coordinates": [ [ [ -51.020293241757088, -22.082918904537003, 0.0 ], [ -51.020335607, -22.082899549, 0.0 ], [ -51.020353302, -22.08289189000001, 0.0 ], [ -51.020397486, -22.082873437, 0.0 ], [ -51.020418538, -22.082864858, 0.0 ], [ -51.02045111, -22.082852386, 0.0 ], [ -51.020487103, -22.082839107, 0.0 ], [ -51.020529566817252, -22.082824250691505, 0.0 ] ] ] } },
{ "type": "Feature", "properties": { "Field": "000", "Length": 249.87398668197909, "id": null }, "geometry": { "type": "MultiLineString", "coordinates": [ [ [ -51.020273103160946, -22.082918871466177, 0.0 ], [ -51.020274455, -22.082918231, 0.0 ], [ -51.020331765, -22.082892047, 0.0 ], [ -51.0203496, -22.082884328, 0.0 ], [ -51.020393876, -22.082865837, 0.0 ], [ -51.02041504200001, -22.082857212, 0.0 ], [ -51.020447786, -22.082844672, 0.0 ], [ -51.020483895, -22.082831351, 0.0 ], [ -51.020529533011647, -22.082815384262194, 0.0 ] ] ] } },
{ "type": "Feature", "properties": { "Field": "000", "Length": 247.50656281756923, "id": null }, "geometry": { "type": "MultiLineString", "coordinates": [ [ [ -51.020242377857812, -22.082918612704503, 0.0 ], [ -51.020292941, -22.082895112, 0.0 ], [ -51.020314698, -22.082884824, 0.0 ], [ -51.02032736, -22.082879148999989, 0.0 ], [ -51.020367568, -22.082861864, 0.0 ], [ -51.020397655, -22.082849385, 0.0 ], [ -51.020438936, -22.082833479, 0.0 ], [ -51.020496318, -22.08281249, 0.0 ], [ -51.020520196, -22.08280394, 0.0 ], [ -51.020529477576055, -22.082800844788551, 0.0 ] ] ] } },
{ "type": "Feature", "properties": { "Field": "001", "Length": 162.10603525860714, "id": null }, "geometry": { "type": "MultiLineString", "coordinates": [ [ [ -51.020387023307244, -22.0855577081362, 0.0 ], [ -51.020394469, -22.085569233, 0.0 ], [ -51.02040428, -22.085584788, 0.0 ], [ -51.0204336, -22.085631909, 0.0 ], [ -51.020447527, -22.085655369, 0.0 ], [ -51.020475302429105, -22.085703834697725, 0.0 ] ] ] } },
{ "type": "Feature", "properties": { "Field": "000", "Length": 245.88122341073293, "id": null }, "geometry": { "type": "MultiLineString", "coordinates": [ [ [ -51.020242517126157, -22.082909259639251, 0.0 ], [ -51.020288899, -22.082887702, 0.0 ], [ -51.020310756, -22.082877368, 0.0 ], [ -51.02032356, -22.082871629, 0.0 ], [ -51.020363878, -22.082854298, 0.0 ], [ -51.020394129, -22.082841749, 0.0 ], [ -51.020435624, -22.082825761, 0.0 ], [ -51.020493082, -22.082804744, 0.0 ], [ -51.020517088, -22.082796148, 0.0 ], [ -51.02052944395971, -22.082792027997602, 0.0 ] ] ] } },
{ "type": "Feature", "properties": { "Field": "000", "Length": 243.19878882552933, "id": null }, "geometry": { "type": "MultiLineString", "coordinates": [ [ [ -51.02052939033041, -22.08277796227167, 0.0 ], [ -51.020492708, -22.08279048, 0.0 ], [ -51.020483718, -22.082793717, 0.0 ], [ -51.020466875, -22.082799907, 0.0 ], [ -51.020395051, -22.082827134, 0.0 ], [ -51.020377253, -22.082834274, 0.0 ], [ -51.0203236, -22.082856664, 0.0 ], [ -51.020288878, -22.08287227, 0.0 ], [ -51.020245784, -22.082892349, 0.0 ], [ -51.020242746393897, -22.082893862341486, 0.0 ] ] ] } },
{ "type": "Feature", "properties": { "Field": "000", "Length": 241.60336929890116, "id": null }, "geometry": { "type": "MultiLineString", "coordinates": [ [ [ -51.020524623269665, -22.082770737084953, 0.0 ], [ -51.020489568, -22.0827827, 0.0 ], [ -51.020463563, -22.082792189, 0.0 ], [ -51.020391597, -22.082819472, 0.0 ], [ -51.020373653, -22.08282667, 0.0 ], [ -51.02031987, -22.082849114, 0.0 ], [ -51.020284938, -22.082864814, 0.0 ], [ -51.02024288720196, -22.082884405871191, 0.0 ] ] ] } },
{ "type": "Feature", "properties": { "Field": "000", "Length": 239.62262372951676, "id": null }, "geometry": { "type": "MultiLineString", "coordinates": [ [ [ -51.020481222840779, -22.082771206987029, 0.0 ], [ -51.020471214, -22.082774719, 0.0 ], [ -51.020424198, -22.082793015, 0.0 ], [ -51.020379262, -22.082809883, 0.0 ], [ -51.020373022, -22.082812366, 0.0 ], [ -51.020326184, -22.082832162, 0.0 ], [ -51.020264881, -22.082859142, 0.0 ], [ -51.020250726, -22.082865831, 0.0 ], [ -51.020243108290515, -22.082869557875895, 0.0 ] ] ] } },
{ "type": "Feature", "properties": { "Field": "000", "Length": 237.90553757924695, "id": null }, "geometry": { "type": "MultiLineString", "coordinates": [ [ [ -51.020456401358409, -22.082771475732439, 0.0 ], [ -51.020420814, -22.082785325, 0.0 ], [ -51.020375844, -22.082802205, 0.0 ], [ -51.020369446, -22.082804752, 0.0 ], [ -51.020322428, -22.082824624, 0.0 ], [ -51.020260987, -22.082851664, 0.0 ], [ -51.02024662, -22.082858453, 0.0 ], [ -51.020243249088608, -22.082860102074715, 0.0 ] ] ] } },
{ "type": "Feature", "properties": { "Field": "000", "Length": 235.43838172289671, "id": null }, "geometry": { "type": "MultiLineString", "coordinates": [ [ [ -51.020416078601599, -22.082771912312161, 0.0 ], [ -51.0203943, -22.082780531, 0.0 ], [ -51.020376343, -22.082787239, 0.0 ], [ -51.02035459, -22.082796213, 0.0 ], [ -51.020331847, -22.082805112, 0.0 ], [ -51.020301884, -22.082817931, 0.0 ], [ -51.020287927, -22.082824469, 0.0 ], [ -51.020276262, -22.082830152, 0.0 ], [ -51.020243462903409, -22.082845742575198, 0.0 ] ] ] } },
{ "type": "Feature", "properties": { "Field": "000", "Length": 234.52482862773985, "id": null }, "geometry": { "type": "MultiLineString", "coordinates": [ [ [ -51.020392617906523, -22.082772166324151, 0.0 ], [ -51.020390898, -22.082772847, 0.0 ], [ -51.020372879, -22.082779579, 0.0 ], [ -51.020351058, -22.082788581, 0.0 ], [ -51.020328269, -22.082797498, 0.0 ], [ -51.020297996, -22.082810449, 0.0 ], [ -51.020283859, -22.082817073, 0.0 ], [ -51.02027217, -22.082822766, 0.0 ], [ -51.020243602829794, -22.082836345316636, 0.0 ] ] ] } },
{ "type": "Feature", "properties": { "Field": "001", "Length": 163.62288856414276, "id": null }, "geometry": { "type": "MultiLineString", "coordinates": [ [ [ -51.020459034522226, -22.085703884453743, 0.0 ], [ -51.020439283, -22.085669178, 0.0 ], [ -51.020432096, -22.085656898, 0.0 ], [ -51.02040796, -22.085617651, 0.0 ], [ -51.020370084014175, -22.085557784379578, 0.0 ] ] ] } },
{ "type": "Feature", "properties": { "Field": "000", "Length": 231.22267120995679, "id": null }, "geometry": { "type": "MultiLineString", "coordinates": [ [ [ -51.020354047832903, -22.082772583927344, 0.0 ], [ -51.020325319, -22.082784867, 0.0 ], [ -51.020299097, -22.082796602, 0.0 ], [ -51.020281462, -22.082804043, 0.0 ], [ -51.020246753, -22.082819993, 0.0 ], [ -51.020243826732859, -22.082821308303245, 0.0 ] ] ] } },
{ "type": "Feature", "properties": { "Field": "000", "Length": 229.65184113960987, "id": null }, "geometry": { "type": "MultiLineString", "coordinates": [ [ [ -51.02033210502001, -22.082772821505028, 0.0 ], [ -51.020321529, -22.082777343, 0.0 ], [ -51.020295327, -22.082789068, 0.0 ], [ -51.02027765, -22.082796527, 0.0 ], [ -51.020243965213155, -22.0828120081622, 0.0 ] ] ] } },
{ "type": "Feature", "properties": { "Field": "000", "Length": 227.95304733882099, "id": null }, "geometry": { "type": "MultiLineString", "coordinates": [ [ [ -51.020298342620784, -22.082773187054904, 0.0 ], [ -51.020264585, -22.082788309, 0.0 ], [ -51.020244186413201, -22.082797152679397, 0.0 ] ] ] } },
{ "type": "Feature", "properties": { "Field": "000", "Length": 226.03694229804455, "id": null }, "geometry": { "type": "MultiLineString", "coordinates": [ [ [ -51.020277200578775, -22.082773415962539, 0.0 ], [ -51.020260775, -22.082780795, 0.0 ], [ -51.020244323786947, -22.082787926852546, 0.0 ] ] ] } },
{ "type": "Feature", "properties": { "Field": "001", "Length": 164.51944431474857, "id": null }, "geometry": { "type": "MultiLineString", "coordinates": [ [ [ -51.020448957032833, -22.085703915276135, 0.0 ], [ -51.020431429, -22.085673116, 0.0 ], [ -51.020424312, -22.085660954, 0.0 ], [ -51.02040025, -22.085621829, 0.0 ], [ -51.020359760848052, -22.085557830843918, 0.0 ] ] ] } },
{ "type": "Feature", "properties": { "Field": "001", "Length": 166.37945450894907, "id": null }, "geometry": { "type": "MultiLineString", "coordinates": [ [ [ -51.020433801968281, -22.085703961628482, 0.0 ], [ -51.020419208, -22.085677833, 0.0 ], [ -51.020411151, -22.085663759, 0.0 ], [ -51.020406431, -22.085655936, 0.0 ], [ -51.020401452, -22.085648071, 0.0 ], [ -51.020391227, -22.085632899000011, 0.0 ], [ -51.020379833, -22.085615185, 0.0 ], [ -51.020343847033502, -22.085557902471642, 0.0 ] ] ] } },
{ "type": "Feature", "properties": { "Field": "001", "Length": 167.51585401863809, "id": null }, "geometry": { "type": "MultiLineString", "coordinates": [ [ [ -51.020423763784684, -22.085703992330654, 0.0 ], [ -51.020411322, -22.085681717, 0.0 ], [ -51.020403329, -22.085667752999989, 0.0 ], [ -51.020398703, -22.085660086, 0.0 ], [ -51.020393834, -22.085652393, 0.0 ], [ -51.020383641, -22.085637269, 0.0 ], [ -51.020372151, -22.085619407, 0.0 ], [ -51.020338805774145, -22.085566330048596, 0.0 ] ] ] } },
{ "type": "Feature", "properties": { "Field": "001", "Length": 169.93980017467331, "id": null }, "geometry": { "type": "MultiLineString", "coordinates": [ [ [ -51.020407159783851, -22.085704043114632, 0.0 ], [ -51.020387632, -22.085670088, 0.0 ], [ -51.020383929, -22.085664005, 0.0 ], [ -51.02036296, -22.085631298, 0.0 ], [ -51.020342744, -22.085600391, 0.0 ], [ -51.020339179396231, -22.08559467145195, 0.0 ] ] ] } },
{ "type": "Feature", "properties": { "Field": "001", "Length": 171.21541268702816, "id": null }, "geometry": { "type": "MultiLineString", "coordinates": [ [ [ -51.020397059098926, -22.085704074007964, 0.0 ], [ -51.020379822, -22.085674102, 0.0 ], [ -51.020376221, -22.085668189, 0.0 ], [ -51.020355332, -22.085635604, 0.0 ], [ -51.020339397845767, -22.08561124211673, 0.0 ] ] ] } },
{ "type": "Feature", "properties": { "Field": "001", "Length": 173.51135204519181, "id": null }, "geometry": { "type": "MultiLineString", "coordinates": [ [ [ -51.020339724602202, -22.085636028488455, 0.0 ], [ -51.020363393, -22.085673505, 0.0 ], [ -51.020373114, -22.085689457, 0.0 ], [ -51.020381453892433, -22.085704121737091, 0.0 ] ] ] } },
{ "type": "Feature", "properties": { "Field": "001", "Length": 174.87154305961946, "id": null }, "geometry": { "type": "MultiLineString", "coordinates": [ [ [ -51.020339945221338, -22.085652763730444, 0.0 ], [ -51.020355689, -22.085677691, 0.0 ], [ -51.020365258, -22.085693393, 0.0 ], [ -51.020371377621821, -22.085704152555753, 0.0 ] ] ] } },
{ "type": "Feature", "properties": { "Field": "001", "Length": 177.3011292753454, "id": null }, "geometry": { "type": "MultiLineString", "coordinates": [ [ [ -51.020354766967628, -22.085704203360077, 0.0 ], [ -51.020340311202439, -22.085680525520669, 0.0 ] ] ] } },
{ "type": "Feature", "properties": { "Field": "001", "Length": 178.65803875562463, "id": null }, "geometry": { "type": "MultiLineString", "coordinates": [ [ [ -51.020344525186999, -22.085704234684957, 0.0 ], [ -51.020340537649837, -22.085697702869805, 0.0 ] ] ] } }
]
}
