{
"type": "FeatureCollection",
"name": "74097_LINHAS",
"crs": { "type": "name", "properties": { "name": "urn:ogc:def:crs:OGC:1.3:CRS84" } },
"xy_coordinate_resolution": 1e-15,
"features": [
{ "type": "Feature", "properties": { "Field": "008", "Length": 40.430345679366056, "id": null }, "geometry": { "type": "MultiLineString", "coordinates": [ [ [ -51.153699666721927, -22.257988948422216, 0.0 ], [ -51.153702124, -22.258014986, 0.0 ], [ -51.153703988, -22.258030692, 0.0 ], [ -51.153706095, -22.2580441, 0.0 ], [ -51.153708414, -22.258064303, 0.0 ], [ -51.153710947, -22.258091302, 0.0 ], [ -51.153711908083253, -22.258106855476484, 0.0 ] ] ] } },
{ "type": "Feature", "properties": { "Field": "008", "Length": 43.385210662942569, "id": null }, "geometry": { "type": "MultiLineString", "coordinates": [ [ [ -51.153688637778821, -22.257989040973772, 0.0 ], [ -51.153689414, -22.257994672, 0.0 ], [ -51.153690241, -22.258003673, 0.0 ], [ -51.153691106, -22.258010392, 0.0 ], [ -51.153692008, -22.258014831, 0.0 ], [ -51.153692609, -22.258019305, 0.0 ], [ -51.153693683, -22.258032818, 0.0 ], [ -51.153699814, -22.258082176, 0.0 ], [ -51.15370138, -22.258104712, 0.0 ], [ -51.153701505516707, -22.258106795366132, 0.0 ] ] ] } },
{ "type": "Feature", "properties": { "Field": "008", "Length": 46.711940482116432, "id": null }, "geometry": { "type": "MultiLineString", "coordinates": [ [ [ -51.153675408697922, -22.25798915198822, 0.0 ], [ -51.153677287, -22.258001163, 0.0 ], [ -51.153680316, -22.258023565, 0.0 ], [ -51.153682183, -22.258041549, 0.0 ], [ -51.15368405, -22.25805726, 0.0 ], [ -51.153685916, -22.258070697, 0.0 ], [ -51.153687748, -22.258090942, 0.0 ], [ -51.15368879746768, -22.258106721933743, 0.0 ] ] ] } },
{ "type": "Feature", "properties": { "Field": "008", "Length": 50.252016330539618, "id": null }, "geometry": { "type": "MultiLineString", "coordinates": [ [ [ -51.153678127707998, -22.258106660279434, 0.0 ], [ -51.153676129, -22.258078894, 0.0 ], [ -51.153674702, -22.258060878, 0.0 ], [ -51.15366831, -22.258013825, 0.0 ], [ -51.153664865, -22.257991471, 0.0 ], [ -51.153664470681782, -22.257989243776741, 0.0 ] ] ] } },
{ "type": "Feature", "properties": { "Field": "008", "Length": 54.205581124802713, "id": null }, "geometry": { "type": "MultiLineString", "coordinates": [ [ [ -51.153665719488288, -22.258106588579583, 0.0 ], [ -51.153663475, -22.258081858, 0.0 ], [ -51.15366115, -22.258059378, 0.0 ], [ -51.153658952, -22.258041425, 0.0 ], [ -51.153654969, -22.258012301, 0.0 ], [ -51.153651683606391, -22.257989351082013, 0.0 ] ] ] } },
{ "type": "Feature", "properties": { "Field": "008", "Length": 58.045814526347577, "id": null }, "geometry": { "type": "MultiLineString", "coordinates": [ [ [ -51.153655627484348, -22.258106530263792, 0.0 ], [ -51.153654811, -22.258097171, 0.0 ], [ -51.153653568, -22.258088212, 0.0 ], [ -51.153652614, -22.258079225, 0.0 ], [ -51.153651948, -22.258070212, 0.0 ], [ -51.153650317, -22.258054477, 0.0 ], [ -51.153647721, -22.258032021, 0.0 ], [ -51.15364505, -22.25801185, 0.0 ], [ -51.153641576165526, -22.257989435900601, 0.0 ] ] ] } },
{ "type": "Feature", "properties": { "Field": "008", "Length": 62.782682024881417, "id": null }, "geometry": { "type": "MultiLineString", "coordinates": [ [ [ -51.153643756559156, -22.25810646166865, 0.0 ], [ -51.153641708, -22.258086945, 0.0 ], [ -51.153637528, -22.258051018, 0.0 ], [ -51.153631688, -22.25801074, 0.0 ], [ -51.153628126766925, -22.257989548763888, 0.0 ] ] ] } },
{ "type": "Feature", "properties": { "Field": "008", "Length": 67.290893610835468, "id": null }, "geometry": { "type": "MultiLineString", "coordinates": [ [ [ -51.153633622862721, -22.258106403111942, 0.0 ], [ -51.153633317, -22.25810345, 0.0 ], [ -51.153630198, -22.258081051, 0.0 ], [ -51.153627839, -22.258060849, 0.0 ], [ -51.153626242, -22.258042841, 0.0 ], [ -51.153623104, -22.258020462, 0.0 ], [ -51.153618425, -22.257993713, 0.0 ], [ -51.15361765478, -22.257989636641636, 0.0 ] ] ] } },
{ "type": "Feature", "properties": { "Field": "008", "Length": 71.67546338129479, "id": null }, "geometry": { "type": "MultiLineString", "coordinates": [ [ [ -51.153619776886018, -22.258106323104133, 0.0 ], [ -51.153617981, -22.258091574, 0.0 ], [ -51.153615866, -22.258071345, 0.0 ], [ -51.153613822, -22.258048839, 0.0 ], [ -51.153610141, -22.258021971, 0.0 ], [ -51.153604825, -22.257990741, 0.0 ], [ -51.153604640555557, -22.25798974585307, 0.0 ] ] ] } },
{ "type": "Feature", "properties": { "Field": "008", "Length": 77.630564584186544, "id": null }, "geometry": { "type": "MultiLineString", "coordinates": [ [ [ -51.153609182760704, -22.258106261886873, 0.0 ], [ -51.153605395, -22.25807663, 0.0 ], [ -51.15360491, -22.258072135, 0.0 ], [ -51.153602772, -22.258045108, 0.0 ], [ -51.153599759, -22.258022699, 0.0 ], [ -51.153599055, -22.25801823, 0.0 ], [ -51.153593647805984, -22.257989838100901, 0.0 ] ] ] } },
{ "type": "Feature", "properties": { "Field": "008", "Length": 83.29853839821746, "id": null }, "geometry": { "type": "MultiLineString", "coordinates": [ [ [ -51.153580945322396, -22.257989944696302, 0.0 ], [ -51.15358934, -22.258044809, 0.0 ], [ -51.15359588, -22.258103215, 0.0 ], [ -51.153596124313225, -22.258106186429735, 0.0 ] ] ] } },
{ "type": "Feature", "properties": { "Field": "008", "Length": 90.922946014402726, "id": null }, "geometry": { "type": "MultiLineString", "coordinates": [ [ [ -51.153571527791819, -22.25799002372537, 0.0 ], [ -51.153572044, -22.257992806, 0.0 ], [ -51.153573945, -22.258006239, 0.0 ], [ -51.153579258, -22.258046591, 0.0 ], [ -51.153585391974929, -22.258106124413825, 0.0 ] ] ] } },
{ "type": "Feature", "properties": { "Field": "008", "Length": 96.725111642976117, "id": null }, "geometry": { "type": "MultiLineString", "coordinates": [ [ [ -51.153558196306015, -22.257990135599169, 0.0 ], [ -51.153558848, -22.257993938, 0.0 ], [ -51.153562261, -22.258016299, 0.0 ], [ -51.153565866, -22.25804319, 0.0 ], [ -51.153572293000011, -22.258097064, 0.0 ], [ -51.153573013787259, -22.258106052887513, 0.0 ] ] ] } },
{ "type": "Feature", "properties": { "Field": "008", "Length": 104.54643577954496, "id": null }, "geometry": { "type": "MultiLineString", "coordinates": [ [ [ -51.153561707982625, -22.258105987557872, 0.0 ], [ -51.153558895, -22.258075307, 0.0 ], [ -51.153555816, -22.25804382, 0.0 ], [ -51.153548538, -22.257994598, 0.0 ], [ -51.153547841451633, -22.257990222493977, 0.0 ] ] ] } },
{ "type": "Feature", "properties": { "Field": "008", "Length": 117.58716036456471, "id": null }, "geometry": { "type": "MultiLineString", "coordinates": [ [ [ -51.153535022478181, -22.257990330066924, 0.0 ], [ -51.153536487, -22.257999691, 0.0 ], [ -51.153539577, -22.258022092, 0.0 ], [ -51.153543658, -22.258053482, 0.0 ], [ -51.153547539, -22.258089432, 0.0 ], [ -51.153549035840435, -22.258105914332969, 0.0 ] ] ] } },
{ "type": "Feature", "properties": { "Field": "006", "Length": 165.25977077470765, "id": null }, "geometry": { "type": "MultiLineString", "coordinates": [ [ [ -51.153070190901929, -22.255891886857192, 0.0 ], [ -51.153060891704854, -22.255878501016188, 0.0 ] ] ] } },
{ "type": "Feature", "properties": { "Field": "006", "Length": 165.31979641712587, "id": null }, "geometry": { "type": "MultiLineString", "coordinates": [ [ [ -51.153070312059945, -22.255909139961087, 0.0 ], [ -51.153048728025993, -22.255878565954276, 0.0 ] ] ] } },
{ "type": "Feature", "properties": { "Field": "006", "Length": 165.35141291702166, "id": null }, "geometry": { "type": "MultiLineString", "coordinates": [ [ [ -51.15307047771266, -22.255932729183989, 0.0 ], [ -51.153033125403574, -22.255878649251812, 0.0 ] ] ] } },
{ "type": "Feature", "properties": { "Field": "008", "Length": 192.95006119492459, "id": null }, "geometry": { "type": "MultiLineString", "coordinates": [ [ [ -51.153524346249419, -22.257990419658608, 0.0 ], [ -51.153533263, -22.25805008, 0.0 ], [ -51.153533861, -22.258054562, 0.0 ], [ -51.153538403, -22.258104069, 0.0 ], [ -51.153538556493302, -22.258105853778947, 0.0 ] ] ] } },
{ "type": "Feature", "properties": { "Field": "006", "Length": 165.3382914973227, "id": null }, "geometry": { "type": "MultiLineString", "coordinates": [ [ [ -51.153070615325845, -22.255952325531148, 0.0 ], [ -51.153066411, -22.255946345, 0.0 ], [ -51.153025654, -22.255887499, 0.0 ], [ -51.153019832314442, -22.255878720219471, 0.0 ] ] ] } },
{ "type": "Feature", "properties": { "Field": "006", "Length": 165.29834702771831, "id": null }, "geometry": { "type": "MultiLineString", "coordinates": [ [ [ -51.153070768373688, -22.255974119799923, 0.0 ], [ -51.153054525, -22.255950736, 0.0 ], [ -51.153018002, -22.255897413, 0.0 ], [ -51.153005113151295, -22.255878798800492, 0.0 ] ] ] } },
{ "type": "Feature", "properties": { "Field": "006", "Length": 165.26209206435098, "id": null }, "geometry": { "type": "MultiLineString", "coordinates": [ [ [ -51.153070890807577, -22.255991554590477, 0.0 ], [ -51.153057513, -22.255972406, 0.0 ], [ -51.153047276, -22.255957056, 0.0 ], [ -51.153036772, -22.255941864, 0.0 ], [ -51.153026002, -22.255926830999972, 0.0 ], [ -51.153012929, -22.255907808, 0.0 ], [ -51.152997552, -22.255884791999989, 0.0 ], [ -51.152993512477465, -22.255878860732874, 0.0 ] ] ] } },
{ "type": "Feature", "properties": { "Field": "008", "Length": 193.96498727755269, "id": null }, "geometry": { "type": "MultiLineString", "coordinates": [ [ [ -51.153510887768533, -22.257990532598111, 0.0 ], [ -51.153512949, -22.258001639, 0.0 ], [ -51.153518662, -22.258035091, 0.0 ], [ -51.153521084, -22.258053017, 0.0 ], [ -51.153523979, -22.258082248, 0.0 ], [ -51.153525934990434, -22.258105780846655, 0.0 ] ] ] } },
{ "type": "Feature", "properties": { "Field": "006", "Length": 165.32547931641935, "id": null }, "geometry": { "type": "MultiLineString", "coordinates": [ [ [ -51.153058363639197, -22.255994578950769, 0.0 ], [ -51.153048014, -22.255979708, 0.0 ], [ -51.153030062, -22.255952864, 0.0 ], [ -51.153010554, -22.255924265, 0.0 ], [ -51.15298949, -22.25589391, 0.0 ], [ -51.152979430872371, -22.255878935910172, 0.0 ] ] ] } },
{ "type": "Feature", "properties": { "Field": "006", "Length": 165.24867900180942, "id": null }, "geometry": { "type": "MultiLineString", "coordinates": [ [ [ -51.15304679078158, -22.25599462353113, 0.0 ], [ -51.153029051, -22.255968798, 0.0 ], [ -51.153013886, -22.255945662, 0.0 ], [ -51.152999617, -22.255924671, 0.0 ], [ -51.152975628, -22.2558907, 0.0 ], [ -51.152968103894679, -22.255878996381373, 0.0 ] ] ] } },
{ "type": "Feature", "properties": { "Field": "006", "Length": 165.348039970006, "id": null }, "geometry": { "type": "MultiLineString", "coordinates": [ [ [ -51.153030270833007, -22.255994687168418, 0.0 ], [ -51.153006478, -22.255959581, 0.0 ], [ -51.152995222, -22.255942164, 0.0 ], [ -51.152992508, -22.255938424, 0.0 ], [ -51.15298404, -22.255927401, 0.0 ], [ -51.15297511, -22.255913957, 0.0 ], [ -51.15296003400001, -22.255890771, 0.0 ], [ -51.152952264973642, -22.255879080940435, 0.0 ] ] ] } },
{ "type": "Feature", "properties": { "Field": "008", "Length": 195.04421722863273, "id": null }, "geometry": { "type": "MultiLineString", "coordinates": [ [ [ -51.153500893091369, -22.257990616470419, 0.0 ], [ -51.153502467, -22.257999019, 0.0 ], [ -51.153504608, -22.258012422, 0.0 ], [ -51.153508528, -22.258041555, 0.0 ], [ -51.153511474, -22.258066246, 0.0 ], [ -51.153515831610086, -22.258105722465125, 0.0 ] ] ] } },
{ "type": "Feature", "properties": { "Field": "006", "Length": 165.38130289378697, "id": null }, "geometry": { "type": "MultiLineString", "coordinates": [ [ [ -51.153018300482678, -22.25599473327998, 0.0 ], [ -51.152997141, -22.255964185, 0.0 ], [ -51.152942567, -22.255884075, 0.0 ], [ -51.15293914443594, -22.255879150986896, 0.0 ] ] ] } },
{ "type": "Feature", "properties": { "Field": "006", "Length": 165.45699249805401, "id": null }, "geometry": { "type": "MultiLineString", "coordinates": [ [ [ -51.153002873723217, -22.255994792706144, 0.0 ], [ -51.15298451000001, -22.255967648, 0.0 ], [ -51.152949281, -22.255916235, 0.0 ], [ -51.152923737796527, -22.25587923323814, 0.0 ] ] ] } },
{ "type": "Feature", "properties": { "Field": "008", "Length": 51.352075632269283, "id": null }, "geometry": { "type": "MultiLineString", "coordinates": [ [ [ -51.153430844282276, -22.258105231373023, 0.0 ], [ -51.153429807, -22.258090442, 0.0 ], [ -51.153428311, -22.258072427999988, 0.0 ], [ -51.15342515741677, -22.258051382342604, 0.0 ] ] ] } },
{ "type": "Feature", "properties": { "Field": "006", "Length": 165.51936560182446, "id": null }, "geometry": { "type": "MultiLineString", "coordinates": [ [ [ -51.152991293322934, -22.255994837315562, 0.0 ], [ -51.152988154, -22.2559902, 0.0 ], [ -51.152964449, -22.255956058, 0.0 ], [ -51.152937735, -22.255918348, 0.0 ], [ -51.152913979, -22.255884235, 0.0 ], [ -51.152910617757925, -22.255879303281933, 0.0 ] ] ] } },
{ "type": "Feature", "properties": { "Field": "008", "Length": 196.09106718629965, "id": null }, "geometry": { "type": "MultiLineString", "coordinates": [ [ [ -51.15348771680619, -22.257990727041818, 0.0 ], [ -51.153489023, -22.257998193, 0.0 ], [ -51.153494314, -22.25803171, 0.0 ], [ -51.153497144, -22.258056411, 0.0 ], [ -51.153502330722162, -22.258105644451383, 0.0 ] ] ] } },
{ "type": "Feature", "properties": { "Field": "006", "Length": 165.55256796882378, "id": null }, "geometry": { "type": "MultiLineString", "coordinates": [ [ [ -51.152895486040727, -22.255879384065455, 0.0 ], [ -51.15295162, -22.255959948, 0.0 ], [ -51.152959839, -22.255971133, 0.0 ], [ -51.152967694, -22.255982535, 0.0 ], [ -51.152975186, -22.255994155, 0.0 ], [ -51.152975683787488, -22.255994897445802, 0.0 ] ] ] } },
{ "type": "Feature", "properties": { "Field": "006", "Length": 165.61755080232442, "id": null }, "geometry": { "type": "MultiLineString", "coordinates": [ [ [ -51.152964058011911, -22.255994942230014, 0.0 ], [ -51.152960584, -22.25598961, 0.0 ], [ -51.152938411, -22.255957239, 0.0 ], [ -51.152906646, -22.255911808, 0.0 ], [ -51.152883714303961, -22.255879446911088, 0.0 ] ] ] } },
{ "type": "Feature", "properties": { "Field": "008", "Length": 196.9304052514139, "id": null }, "geometry": { "type": "MultiLineString", "coordinates": [ [ [ -51.153491531363436, -22.258105582048202, 0.0 ], [ -51.153491324, -22.258103077, 0.0 ], [ -51.153488065, -22.258071604, 0.0 ], [ -51.153485569, -22.258049139, 0.0 ], [ -51.15348412, -22.258037928, 0.0 ], [ -51.153479017, -22.258004386, 0.0 ], [ -51.153476558441746, -22.257990820679439, 0.0 ] ] ] } },
{ "type": "Feature", "properties": { "Field": "006", "Length": 165.51059908336305, "id": null }, "geometry": { "type": "MultiLineString", "coordinates": [ [ [ -51.152866989823877, -22.25587953619787, 0.0 ], [ -51.152871333, -22.25588577, 0.0 ], [ -51.152892836, -22.255915859, 0.0 ], [ -51.152911367, -22.255942356, 0.0 ], [ -51.152926927, -22.255965265, 0.0 ], [ -51.152940115, -22.25598422, 0.0 ], [ -51.152947888563894, -22.255995004517121, 0.0 ] ] ] } },
{ "type": "Feature", "properties": { "Field": "006", "Length": 165.47817964617997, "id": null }, "geometry": { "type": "MultiLineString", "coordinates": [ [ [ -51.152934866480997, -22.255995054680113, 0.0 ], [ -51.15293385, -22.255993586, 0.0 ], [ -51.152907101, -22.255955896, 0.0 ], [ -51.152884532, -22.255923759, 0.0 ], [ -51.152866143, -22.255897173, 0.0 ], [ -51.152855789, -22.255881897, 0.0 ], [ -51.15285444784098, -22.255879603155606, 0.0 ] ] ] } },
{ "type": "Feature", "properties": { "Field": "006", "Length": 165.45377105468737, "id": null }, "geometry": { "type": "MultiLineString", "coordinates": [ [ [ -51.152919928990293, -22.255995112221541, 0.0 ], [ -51.152887676, -22.255948898, 0.0 ], [ -51.152865084, -22.255916776, 0.0 ], [ -51.152855509, -22.25590372, 0.0 ], [ -51.152850374, -22.255896056, 0.0 ], [ -51.15284293, -22.255884412, 0.0 ], [ -51.152839557753907, -22.255879682649141, 0.0 ] ] ] } },
{ "type": "Feature", "properties": { "Field": "008", "Length": 197.5870651223116, "id": null }, "geometry": { "type": "MultiLineString", "coordinates": [ [ [ -51.153463591572823, -22.257990929493484, 0.0 ], [ -51.15346716, -22.258009133, 0.0 ], [ -51.153469094, -22.258022562, 0.0 ], [ -51.1534786123242, -22.258105507396621, 0.0 ] ] ] } },
{ "type": "Feature", "properties": { "Field": "006", "Length": 165.46353780630142, "id": null }, "geometry": { "type": "MultiLineString", "coordinates": [ [ [ -51.152907220659884, -22.25599516117591, 0.0 ], [ -51.152897173, -22.255980548, 0.0 ], [ -51.152844379, -22.255904744, 0.0 ], [ -51.152826675434298, -22.255879751423826, 0.0 ] ] ] } },
{ "type": "Feature", "properties": { "Field": "006", "Length": 165.45950779801754, "id": null }, "geometry": { "type": "MultiLineString", "coordinates": [ [ [ -51.152811451310257, -22.255879832700678, 0.0 ], [ -51.152822653, -22.255895767, 0.0 ], [ -51.152844292, -22.255925767, 0.0 ], [ -51.152864789, -22.255956454, 0.0 ], [ -51.152892119095966, -22.255995219349373, 0.0 ] ] ] } },
{ "type": "Feature", "properties": { "Field": "006", "Length": 165.46502474082402, "id": null }, "geometry": { "type": "MultiLineString", "coordinates": [ [ [ -51.152881042161987, -22.255995262019361, 0.0 ], [ -51.152867119, -22.255975263, 0.0 ], [ -51.152834939, -22.255930085, 0.0 ], [ -51.152802998, -22.255884763, 0.0 ], [ -51.152799604294309, -22.255879895948201, 0.0 ] ] ] } },
{ "type": "Feature", "properties": { "Field": "008", "Length": 198.69099024187872, "id": null }, "geometry": { "type": "MultiLineString", "coordinates": [ [ [ -51.153452281785398, -22.2579910244018, 0.0 ], [ -51.153456461, -22.258014019, 0.0 ], [ -51.153463923, -22.258067778, 0.0 ], [ -51.153466281, -22.25808571, 0.0 ], [ -51.153466697, -22.258090211, 0.0 ], [ -51.153467823603393, -22.258105445054909, 0.0 ] ] ] } },
{ "type": "Feature", "properties": { "Field": "006", "Length": 165.45493334063309, "id": null }, "geometry": { "type": "MultiLineString", "coordinates": [ [ [ -51.152865008072567, -22.255995323785051, 0.0 ], [ -51.152799896, -22.255901908999988, 0.0 ], [ -51.152784547420687, -22.255879976332157, 0.0 ] ] ] } },
{ "type": "Feature", "properties": { "Field": "006", "Length": 165.46304161719004, "id": null }, "geometry": { "type": "MultiLineString", "coordinates": [ [ [ -51.152778330233247, -22.255889640368991, 0.0 ], [ -51.152783455, -22.255897038, 0.0 ], [ -51.152802773, -22.255925747, 0.0 ], [ -51.152836156, -22.255972891, 0.0 ], [ -51.152849388, -22.255991821, 0.0 ], [ -51.152851782820193, -22.255995374730681, 0.0 ] ] ] } },
{ "type": "Feature", "properties": { "Field": "008", "Length": 199.63804696352221, "id": null }, "geometry": { "type": "MultiLineString", "coordinates": [ [ [ -51.15343991626893, -22.257991128169476, 0.0 ], [ -51.153441091, -22.257997647, 0.0 ], [ -51.153446189, -22.258028908, 0.0 ], [ -51.153450304, -22.258058012, 0.0 ], [ -51.153453437, -22.258084958, 0.0 ], [ -51.153455542, -22.258105188, 0.0 ], [ -51.153455556809476, -22.258105374172274, 0.0 ] ] ] } },
{ "type": "Feature", "properties": { "Field": "006", "Length": 165.48142970425877, "id": null }, "geometry": { "type": "MultiLineString", "coordinates": [ [ [ -51.152836625306556, -22.255995433119669, 0.0 ], [ -51.15281868, -22.255969231, 0.0 ], [ -51.152793643, -22.255933198, 0.0 ], [ -51.152778097716457, -22.255911111118049, 0.0 ] ] ] } },
{ "type": "Feature", "properties": { "Field": "006", "Length": 165.47350317858294, "id": null }, "geometry": { "type": "MultiLineString", "coordinates": [ [ [ -51.152825256856801, -22.25599547691262, 0.0 ], [ -51.152816623, -22.255982882, 0.0 ], [ -51.152777922636908, -22.255927278075607, 0.0 ] ] ] } },
{ "type": "Feature", "properties": { "Field": "006", "Length": 165.44178132754183, "id": null }, "geometry": { "type": "MultiLineString", "coordinates": [ [ [ -51.152809503228781, -22.255995537597929, 0.0 ], [ -51.152790949, -22.255968286, 0.0 ], [ -51.152777684353559, -22.255949281312379, 0.0 ] ] ] } },
{ "type": "Feature", "properties": { "Field": "008", "Length": 200.71999676041094, "id": null }, "geometry": { "type": "MultiLineString", "coordinates": [ [ [ -51.153429195799689, -22.25799121813241, 0.0 ], [ -51.153437553, -22.25803776, 0.0 ], [ -51.153442356, -22.258080436, 0.0 ], [ -51.153444499, -22.258105193, 0.0 ], [ -51.153444506085364, -22.258105310316598, 0.0 ] ] ] } },
{ "type": "Feature", "properties": { "Field": "006", "Length": 165.42909126608669, "id": null }, "geometry": { "type": "MultiLineString", "coordinates": [ [ [ -51.152797474527709, -22.255995583934268, 0.0 ], [ -51.152786734, -22.255979605, 0.0 ], [ -51.15277749871165, -22.255966423604903, 0.0 ] ] ] } },
{ "type": "Feature", "properties": { "Field": "006", "Length": 165.44044099694509, "id": null }, "geometry": { "type": "MultiLineString", "coordinates": [ [ [ -51.152781722900095, -22.255995644611868, 0.0 ], [ -51.152777250780154, -22.255989317757702, 0.0 ] ] ] } },
{ "type": "Feature", "properties": { "Field": "008", "Length": 235.54466182293993, "id": null }, "geometry": { "type": "MultiLineString", "coordinates": [ [ [ -51.152858372, -22.257343028, 0.0 ], [ -51.15286168471988, -22.257349468248616, 0.0 ] ] ] } },
{ "type": "Feature", "properties": { "Field": "006", "Length": 136.6412743581368, "id": null }, "geometry": { "type": "MultiLineString", "coordinates": [ [ [ -51.152852506, -22.257291778, 0.0 ], [ -51.152851229357147, -22.2572899748032, 0.0 ] ] ] } },
{ "type": "Feature", "properties": { "Field": "008", "Length": 237.20341839957089, "id": null }, "geometry": { "type": "MultiLineString", "coordinates": [ [ [ -51.152835755, -22.25732597, 0.0 ], [ -51.152841614, -22.257338841, 0.0 ], [ -51.152850001, -22.257355287, 0.0 ], [ -51.152861996353394, -22.257377949446735, 0.0 ] ] ] } },
{ "type": "Feature", "properties": { "Field": "008", "Length": 238.90920941252833, "id": null }, "geometry": { "type": "MultiLineString", "coordinates": [ [ [ -51.152815809264609, -22.257310926542583, 0.0 ], [ -51.152831229, -22.257342545, 0.0 ], [ -51.152841767, -22.257363198, 0.0 ], [ -51.152852562, -22.257383425, 0.0 ], [ -51.152862262512556, -22.257402274596711, 0.0 ] ] ] } },
{ "type": "Feature", "properties": { "Field": "008", "Length": 240.34569982482117, "id": null }, "geometry": { "type": "MultiLineString", "coordinates": [ [ [ -51.152850675630638, -22.257406461471685, 0.0 ], [ -51.15285063, -22.257406367, 0.0 ], [ -51.152829198, -22.257365842, 0.0 ], [ -51.152795261, -22.257295429, 0.0 ] ] ] } },
{ "type": "Feature", "properties": { "Field": "008", "Length": 242.06957910151817, "id": null }, "geometry": { "type": "MultiLineString", "coordinates": [ [ [ -51.152838158462735, -22.257406427471167, 0.0 ], [ -51.152836557, -22.257403389, 0.0 ], [ -51.152828329, -22.257387027, 0.0 ], [ -51.152820424, -22.257370526, 0.0 ], [ -51.152810095, -22.257350092, 0.0 ], [ -51.152797341, -22.257325728, 0.0 ], [ -51.152787046, -22.257305162, 0.0 ], [ -51.152779908306684, -22.257289884384274, 0.0 ] ] ] } },
{ "type": "Feature", "properties": { "Field": "008", "Length": 208.86366914008639, "id": null }, "geometry": { "type": "MultiLineString", "coordinates": [ [ [ -51.152580766976548, -22.257405728315899, 0.0 ], [ -51.152570052913532, -22.257384890735128, 0.0 ] ] ] } },
{ "type": "Feature", "properties": { "Field": "008", "Length": 244.1762809785086, "id": null }, "geometry": { "type": "MultiLineString", "coordinates": [ [ [ -51.152824143304052, -22.257406389401641, 0.0 ], [ -51.152820276, -22.2573992, 0.0 ], [ -51.152808222, -22.257374529, 0.0 ], [ -51.152799966, -22.257358179, 0.0 ], [ -51.152783169, -22.257325602, 0.0 ], [ -51.152777561, -22.257313098, 0.0 ], [ -51.152773642, -22.257304835, 0.0 ], [ -51.152765833378481, -22.257289866540454, 0.0 ] ] ] } },
{ "type": "Feature", "properties": { "Field": "008", "Length": 245.72572742798218, "id": null }, "geometry": { "type": "MultiLineString", "coordinates": [ [ [ -51.152813066295728, -22.257406359313045, 0.0 ], [ -51.152803218, -22.257386775, 0.0 ], [ -51.152790687, -22.257362314, 0.0 ], [ -51.152786236, -22.257354286, 0.0 ], [ -51.152780905, -22.257344143, 0.0 ], [ -51.152758807, -22.257298913, 0.0 ], [ -51.152754263569662, -22.25728985187256, 0.0 ] ] ] } },
{ "type": "Feature", "properties": { "Field": "008", "Length": 247.72364527598486, "id": null }, "geometry": { "type": "MultiLineString", "coordinates": [ [ [ -51.152739251599293, -22.257289832840783, 0.0 ], [ -51.152749142, -22.257309793, 0.0 ], [ -51.152760591, -22.257332233, 0.0 ], [ -51.152769259, -22.2573484, 0.0 ], [ -51.152776582, -22.257362662, 0.0 ], [ -51.152782558, -22.257375019, 0.0 ], [ -51.152788784, -22.257387265999988, 0.0 ], [ -51.152795262, -22.257399401, 0.0 ], [ -51.152798715096615, -22.257406320330727, 0.0 ] ] ] } },
{ "type": "Feature", "properties": { "Field": "008", "Length": 249.45682530732566, "id": null }, "geometry": { "type": "MultiLineString", "coordinates": [ [ [ -51.152727196346468, -22.257289817557457, 0.0 ], [ -51.152767068, -22.257366915, 0.0 ], [ -51.152781224, -22.257395656, 0.0 ], [ -51.152786900766237, -22.257406288239334, 0.0 ] ] ] } },
{ "type": "Feature", "properties": { "Field": "008", "Length": 251.58363738500117, "id": null }, "geometry": { "type": "MultiLineString", "coordinates": [ [ [ -51.152773546233895, -22.257406251964273, 0.0 ], [ -51.152754491, -22.257368371, 0.0 ], [ -51.152731109, -22.257323703, 0.0 ], [ -51.152714944, -22.25729085, 0.0 ], [ -51.152714357198711, -22.257289801280326, 0.0 ] ] ] } },
{ "type": "Feature", "properties": { "Field": "008", "Length": 253.82945378633451, "id": null }, "geometry": { "type": "MultiLineString", "coordinates": [ [ [ -51.152702350860665, -22.257289786059012, 0.0 ], [ -51.152714637, -22.257312937, 0.0 ], [ -51.152745084, -22.257371982, 0.0 ], [ -51.152762264172551, -22.257406221318689, 0.0 ] ] ] } },
{ "type": "Feature", "properties": { "Field": "008", "Length": 256.50528153278538, "id": null }, "geometry": { "type": "MultiLineString", "coordinates": [ [ [ -51.152688175611907, -22.257289768088008, 0.0 ], [ -51.152703101, -22.25731797, 0.0 ], [ -51.152721963, -22.257354637, 0.0 ], [ -51.152738484, -22.257387337, 0.0 ], [ -51.152747850870249, -22.257406182167681, 0.0 ] ] ] } },
{ "type": "Feature", "properties": { "Field": "008", "Length": 259.40385860500595, "id": null }, "geometry": { "type": "MultiLineString", "coordinates": [ [ [ -51.152676592839612, -22.257289753403679, 0.0 ], [ -51.152711039, -22.257355715, 0.0 ], [ -51.152735273539982, -22.257406148003742, 0.0 ] ] ] } },
{ "type": "Feature", "properties": { "Field": "008", "Length": 261.76511386695103, "id": null }, "geometry": { "type": "MultiLineString", "coordinates": [ [ [ -51.152721162161349, -22.257406109672853, 0.0 ], [ -51.152704518, -22.257371553, 0.0 ], [ -51.15269525, -22.257353146, 0.0 ], [ -51.152682841, -22.257328629, 0.0 ], [ -51.152670142, -22.257304241, 0.0 ], [ -51.152662377604386, -22.257289735381981, 0.0 ] ] ] } },
{ "type": "Feature", "properties": { "Field": "008", "Length": 251.02489265773806, "id": null }, "geometry": { "type": "MultiLineString", "coordinates": [ [ [ -51.152593048711239, -22.257405761676907, 0.0 ], [ -51.152573086, -22.257367426, 0.0 ], [ -51.152570164149552, -22.257361964032579, 0.0 ] ] ] } },
{ "type": "Feature", "properties": { "Field": "008", "Length": 263.41443278473082, "id": null }, "geometry": { "type": "MultiLineString", "coordinates": [ [ [ -51.152650273377709, -22.257289720036567, 0.0 ], [ -51.152662416, -22.257313444, 0.0 ], [ -51.152675088, -22.257337843, 0.0 ], [ -51.152695456, -22.257376341, 0.0 ], [ -51.152709843335607, -22.257406078927406, 0.0 ] ] ] } },
{ "type": "Feature", "properties": { "Field": "008", "Length": 265.46042035165522, "id": null }, "geometry": { "type": "MultiLineString", "coordinates": [ [ [ -51.152635794063869, -22.257289701680079, 0.0 ], [ -51.152643744, -22.257304315, 0.0 ], [ -51.152662768, -22.257340906, 0.0 ], [ -51.15269601456626, -22.25740604136417, 0.0 ] ] ] } },
{ "type": "Feature", "properties": { "Field": "008", "Length": 267.3881562748536, "id": null }, "geometry": { "type": "MultiLineString", "coordinates": [ [ [ -51.152624146140241, -22.25728968691315, 0.0 ], [ -51.152626875, -22.257294606999988, 0.0 ], [ -51.152636615, -22.257312796, 0.0 ], [ -51.152644961, -22.257329109, 0.0 ], [ -51.152653118, -22.257345504, 0.0 ], [ -51.152661083, -22.257361981, 0.0 ], [ -51.152678773, -22.257396663, 0.0 ], [ -51.152683613685468, -22.257406007679524, 0.0 ] ] ] } },
{ "type": "Feature", "properties": { "Field": "008", "Length": 269.19157545772339, "id": null }, "geometry": { "type": "MultiLineString", "coordinates": [ [ [ -51.152609350876347, -22.257289668156108, 0.0 ], [ -51.15261616, -22.257302013, 0.0 ], [ -51.152643904, -22.257354751, 0.0 ], [ -51.15266996350114, -22.257405970601379, 0.0 ] ] ] } },
{ "type": "Feature", "properties": { "Field": "008", "Length": 263.77791416143424, "id": null }, "geometry": { "type": "MultiLineString", "coordinates": [ [ [ -51.152570296608907, -22.257334663019769, 0.0 ], [ -51.15258011, -22.257352524, 0.0 ], [ -51.15258225, -22.257356578, 0.0 ], [ -51.152595397, -22.257383266, 0.0 ], [ -51.152606899307465, -22.257405799299431, 0.0 ] ] ] } },
{ "type": "Feature", "properties": { "Field": "008", "Length": 270.81941422665716, "id": null }, "geometry": { "type": "MultiLineString", "coordinates": [ [ [ -51.152597253152116, -22.257289652818937, 0.0 ], [ -51.15260278, -22.257299915, 0.0 ], [ -51.152617373, -22.257328469, 0.0 ], [ -51.152632434, -22.257356806, 0.0 ], [ -51.152647962, -22.257384928, 0.0 ], [ -51.152656614, -22.257401092, 0.0 ], [ -51.152658388, -22.257405295, 0.0 ], [ -51.152658693471537, -22.257405939988477, 0.0 ] ] ] } },
{ "type": "Feature", "properties": { "Field": "008", "Length": 272.48240700531397, "id": null }, "geometry": { "type": "MultiLineString", "coordinates": [ [ [ -51.15258305378601, -22.257289634817358, 0.0 ], [ -51.152600161, -22.257322601, 0.0 ], [ -51.152619343, -22.257359123, 0.0 ], [ -51.152644539127436, -22.257405901540881, 0.0 ] ] ] } },
{ "type": "Feature", "properties": { "Field": "008", "Length": 274.41808617103038, "id": null }, "geometry": { "type": "MultiLineString", "coordinates": [ [ [ -51.152571745917967, -22.257289620481547, 0.0 ], [ -51.152574855, -22.257295232, 0.0 ], [ -51.152598849, -22.257339617, 0.0 ], [ -51.152611353, -22.257364092, 0.0 ], [ -51.152633350338526, -22.257405871148652, 0.0 ] ] ] } },
{ "type": "Feature", "properties": { "Field": "008", "Length": 276.30598291096237, "id": null }, "geometry": { "type": "MultiLineString", "coordinates": [ [ [ -51.152570402534927, -22.257312830753872, 0.0 ], [ -51.152571221, -22.257314331, 0.0 ], [ -51.15258422, -22.257338583, 0.0 ], [ -51.152593781, -22.257356857, 0.0 ], [ -51.152612355, -22.25739365, 0.0 ], [ -51.152618581500676, -22.2574058310319, 0.0 ] ] ] } },
{ "type": "Feature", "properties": { "Field": "004", "Length": 512.11789349339722, "id": null }, "geometry": { "type": "MultiLineString", "coordinates": [ [ [ -51.149529808769032, -22.259366697951076, 0.0 ], [ -51.149516751, -22.259366249, 0.0 ], [ -51.149487664, -22.259365036, 0.0 ], [ -51.149465842, -22.259364527, 0.0 ], [ -51.149459905716199, -22.259364606514723, 0.0 ] ] ] } },
{ "type": "Feature", "properties": { "Field": "004", "Length": 512.33928156845218, "id": null }, "geometry": { "type": "MultiLineString", "coordinates": [ [ [ -51.149459803209858, -22.259353111824076, 0.0 ], [ -51.149475688, -22.259353247999989, 0.0 ], [ -51.149509642, -22.25935413, 0.0 ], [ -51.149553285, -22.259355685, 0.0 ], [ -51.149606596, -22.259358182, 0.0 ], [ -51.149669575, -22.25936162, 0.0 ], [ -51.149735004, -22.259364674, 0.0 ], [ -51.149753191414312, -22.259365404257547, 0.0 ] ] ] } },
{ "type": "Feature", "properties": { "Field": "004", "Length": 512.56953556296401, "id": null }, "geometry": { "type": "MultiLineString", "coordinates": [ [ [ -51.149459718522039, -22.259343615237629, 0.0 ], [ -51.149481274, -22.25934371, 0.0 ], [ -51.149507956, -22.259344178, 0.0 ], [ -51.14953220400001, -22.259344985, 0.0 ], [ -51.149558863, -22.25934617, 0.0 ], [ -51.149609738, -22.259348807, 0.0 ], [ -51.149658246, -22.259350107, 0.0 ], [ -51.149750262, -22.259355557, 0.0 ], [ -51.149753085241713, -22.259355649199026, 0.0 ] ] ] } },
{ "type": "Feature", "properties": { "Field": "004", "Length": 512.78895337159065, "id": null }, "geometry": { "type": "MultiLineString", "coordinates": [ [ [ -51.149459610086019, -22.259331455614191, 0.0 ], [ -51.149475378, -22.259331572, 0.0 ], [ -51.14951177, -22.259332015, 0.0 ], [ -51.149545725, -22.259332932, 0.0 ], [ -51.149654789, -22.259337754, 0.0 ], [ -51.149679013, -22.259339016, 0.0 ], [ -51.149703221, -22.259340548, 0.0 ], [ -51.149727446, -22.259341782, 0.0 ], [ -51.149751689, -22.259342718, 0.0 ], [ -51.149752945172466, -22.259342779741932, 0.0 ] ] ] } },
{ "type": "Feature", "properties": { "Field": "004", "Length": 513.00130239062582, "id": null }, "geometry": { "type": "MultiLineString", "coordinates": [ [ [ -51.149459521916732, -22.259321568628412, 0.0 ], [ -51.149472503, -22.259321687, 0.0 ], [ -51.149528277, -22.259323284, 0.0 ], [ -51.149601006, -22.259326123, 0.0 ], [ -51.149656748, -22.259328609, 0.0 ], [ -51.149695502, -22.25933074, 0.0 ], [ -51.149724579, -22.259332131, 0.0 ], [ -51.149743979, -22.259332781, 0.0 ], [ -51.149752841263833, -22.259333232694562, 0.0 ] ] ] } },
{ "type": "Feature", "properties": { "Field": "004", "Length": 513.23936448909524, "id": null }, "geometry": { "type": "MultiLineString", "coordinates": [ [ [ -51.149459417829704, -22.259309896685298, 0.0 ], [ -51.149463263, -22.259309939, 0.0 ], [ -51.149504504, -22.259310651, 0.0 ], [ -51.14953846, -22.259311542, 0.0 ], [ -51.149589351, -22.259313818, 0.0 ], [ -51.149657176, -22.259317482, 0.0 ], [ -51.149703216, -22.25931965, 0.0 ], [ -51.14972747, -22.259320322, 0.0 ], [ -51.149752711884538, -22.259321345421995, 0.0 ] ] ] } },
{ "type": "Feature", "properties": { "Field": "004", "Length": 513.43089995624223, "id": null }, "geometry": { "type": "MultiLineString", "coordinates": [ [ [ -51.149752607033456, -22.259311711783557, 0.0 ], [ -51.149554562, -22.259302609, 0.0 ], [ -51.149459333385501, -22.259300427417461, 0.0 ] ] ] } },
{ "type": "Feature", "properties": { "Field": "004", "Length": 513.72600991037928, "id": null }, "geometry": { "type": "MultiLineString", "coordinates": [ [ [ -51.149459228891494, -22.25928870983719, 0.0 ], [ -51.149468349, -22.259288912, 0.0 ], [ -51.149497464, -22.259289074, 0.0 ], [ -51.149565347, -22.259291427, 0.0 ], [ -51.149730168, -22.259298498, 0.0 ], [ -51.149752477931379, -22.259299849981673, 0.0 ] ] ] } },
{ "type": "Feature", "properties": { "Field": "004", "Length": 513.88935393184317, "id": null }, "geometry": { "type": "MultiLineString", "coordinates": [ [ [ -51.149752371976888, -22.25929011496212, 0.0 ], [ -51.149726894, -22.25928863, 0.0 ], [ -51.149671177, -22.259285757, 0.0 ], [ -51.149642077, -22.259284809, 0.0 ], [ -51.149612995, -22.259283546, 0.0 ], [ -51.149583927, -22.25928197, 0.0 ], [ -51.149557271, -22.259280743, 0.0 ], [ -51.149516051, -22.259279334, 0.0 ], [ -51.149506348, -22.259279143, 0.0 ], [ -51.149459139957379, -22.259278737086785, 0.0 ] ] ] } },
{ "type": "Feature", "properties": { "Field": "004", "Length": 514.1026201845001, "id": null }, "geometry": { "type": "MultiLineString", "coordinates": [ [ [ -51.149459030057066, -22.259266413262498, 0.0 ], [ -51.149535149, -22.259268242, 0.0 ], [ -51.149605458, -22.25927078, 0.0 ], [ -51.149683009, -22.25927433, 0.0 ], [ -51.149729041, -22.259276648, 0.0 ], [ -51.149743552, -22.259277734, 0.0 ], [ -51.149752242519305, -22.259278220496743, 0.0 ] ] ] } },
{ "type": "Feature", "properties": { "Field": "004", "Length": 514.29825964021336, "id": null }, "geometry": { "type": "MultiLineString", "coordinates": [ [ [ -51.149752134550035, -22.259268300361242, 0.0 ], [ -51.14971315, -22.259266135, 0.0 ], [ -51.149647734, -22.259262823, 0.0 ], [ -51.149553208, -22.259258729, 0.0 ], [ -51.149458939383678, -22.259256245476305, 0.0 ] ] ] } },
{ "type": "Feature", "properties": { "Field": "004", "Length": 514.56646854212659, "id": null }, "geometry": { "type": "MultiLineString", "coordinates": [ [ [ -51.149609136548953, -22.259249690346557, 0.0 ], [ -51.149616867, -22.259250052, 0.0 ], [ -51.149645963, -22.259251068, 0.0 ], [ -51.1496823, -22.259252933, 0.0 ], [ -51.149725878, -22.259255648, 0.0 ], [ -51.14975201090035, -22.259256939520998, 0.0 ] ] ] } },
{ "type": "Feature", "properties": { "Field": "004", "Length": 535.86566682078546, "id": null }, "geometry": { "type": "MultiLineString", "coordinates": [ [ [ -51.150595487938467, -22.258315867990181, 0.0 ], [ -51.150597161, -22.258315231, 0.0 ], [ -51.150612831628401, -22.258308679977834, 0.0 ] ] ] } },
{ "type": "Feature", "properties": { "Field": "004", "Length": 536.02588572267621, "id": null }, "geometry": { "type": "MultiLineString", "coordinates": [ [ [ -51.150559382488247, -22.25831590142143, 0.0 ], [ -51.150567035, -22.25831337, 0.0 ], [ -51.15058953, -22.25830491, 0.0 ], [ -51.150612795213917, -22.258296563612003, 0.0 ] ] ] } },
{ "type": "Feature", "properties": { "Field": "004", "Length": 536.14611179334554, "id": null }, "geometry": { "type": "MultiLineString", "coordinates": [ [ [ -51.150523317916232, -22.258315934814831, 0.0 ], [ -51.15054298, -22.258310414, 0.0 ], [ -51.150556823, -22.258306222, 0.0 ], [ -51.150565929, -22.258303102, 0.0 ], [ -51.150597463, -22.258291349, 0.0 ], [ -51.150612760611502, -22.258285050186309, 0.0 ] ] ] } },
{ "type": "Feature", "properties": { "Field": "004", "Length": 536.28528972151776, "id": null }, "geometry": { "type": "MultiLineString", "coordinates": [ [ [ -51.150475589717061, -22.258315979007975, 0.0 ], [ -51.150476189, -22.25831586, 0.0 ], [ -51.150485631, -22.258313773, 0.0 ], [ -51.15051375, -22.258306742, 0.0 ], [ -51.150527674, -22.258302792, 0.0 ], [ -51.15054154, -22.258298664, 0.0 ], [ -51.150555335, -22.258294342, 0.0 ], [ -51.150571177, -22.258288647, 0.0 ], [ -51.150591366, -22.258280901, 0.0 ], [ -51.15061272106815, -22.258271892736524, 0.0 ] ] ] } },
{ "type": "Feature", "properties": { "Field": "004", "Length": 536.45889904021635, "id": null }, "geometry": { "type": "MultiLineString", "coordinates": [ [ [ -51.150422267002696, -22.258316028381266, 0.0 ], [ -51.150429689, -22.258314928, 0.0 ], [ -51.150439236, -22.258313307, 0.0 ], [ -51.150458249, -22.258309673, 0.0 ], [ -51.15047716, -22.258305604, 0.0 ], [ -51.15049594, -22.258301048, 0.0 ], [ -51.150528478, -22.258291974, 0.0 ], [ -51.150542371, -22.25828793, 0.0 ], [ -51.150558476, -22.258282911, 0.0 ], [ -51.15056978, -22.258278819, 0.0 ], [ -51.150589875, -22.258270868, 0.0 ], [ -51.150612016, -22.258261633, 0.0 ], [ -51.15061268932503, -22.258261330697092, 0.0 ] ] ] } },
{ "type": "Feature", "properties": { "Field": "004", "Length": 536.62723159719087, "id": null }, "geometry": { "type": "MultiLineString", "coordinates": [ [ [ -51.150612648062065, -22.258247601073524, 0.0 ], [ -51.150610528, -22.258248637, 0.0 ], [ -51.150597449, -22.25825458, 0.0 ], [ -51.150575274, -22.258263744, 0.0 ], [ -51.150561725, -22.258268694, 0.0 ], [ -51.150545736, -22.258274026, 0.0 ], [ -51.150529621, -22.258279013, 0.0 ], [ -51.150501672, -22.258286606, 0.0 ], [ -51.150480576, -22.258291849, 0.0 ], [ -51.150461699, -22.258296052, 0.0 ], [ -51.150442696, -22.258299719, 0.0 ], [ -51.150428375, -22.258302149, 0.0 ], [ -51.150397289, -22.258307124, 0.0 ], [ -51.150382865, -22.258308949, 0.0 ], [ -51.150365977, -22.25831062, 0.0 ], [ -51.15033938, -22.258312687, 0.0 ], [ -51.150324857, -22.258313596, 0.0 ], [ -51.150321402136029, -22.258313676952973, 0.0 ] ] ] } },
{ "type": "Feature", "properties": { "Field": "004", "Length": 536.80457402602804, "id": null }, "geometry": { "type": "MultiLineString", "coordinates": [ [ [ -51.150612615703039, -22.258236834101165, 0.0 ], [ -51.150599749, -22.258242639, 0.0 ], [ -51.150590907, -22.258246361, 0.0 ], [ -51.150579752, -22.258250794999981, 0.0 ], [ -51.150555027, -22.258260148, 0.0 ], [ -51.150536863, -22.258266511, 0.0 ], [ -51.150518467, -22.258272268, 0.0 ], [ -51.150499906, -22.258277552, 0.0 ], [ -51.150478855, -22.258282945, 0.0 ], [ -51.150469408, -22.258285009, 0.0 ], [ -51.150462284, -22.258286401, 0.0 ], [ -51.150443236, -22.258289873, 0.0 ], [ -51.150433685, -22.258291471, 0.0 ], [ -51.1504169, -22.258293873, 0.0 ], [ -51.150376056, -22.258299231, 0.0 ], [ -51.150366424, -22.258300335, 0.0 ], [ -51.150356773, -22.258301259, 0.0 ], [ -51.150337419, -22.258302624, 0.0 ], [ -51.150321350529758, -22.25830334672477, 0.0 ] ] ] } },
{ "type": "Feature", "properties": { "Field": "004", "Length": 536.93339300226626, "id": null }, "geometry": { "type": "MultiLineString", "coordinates": [ [ [ -51.150612575477147, -22.258223449549668, 0.0 ], [ -51.150587011, -22.258235001, 0.0 ], [ -51.150564947, -22.258244391, 0.0 ], [ -51.150544659, -22.258251901, 0.0 ], [ -51.150535552, -22.258255016, 0.0 ], [ -51.150519503, -22.258260185, 0.0 ], [ -51.150505624, -22.258264264, 0.0 ], [ -51.15047279, -22.258272359, 0.0 ], [ -51.150458607, -22.258275411, 0.0 ], [ -51.150434902, -22.25828022, 0.0 ], [ -51.150420558, -22.25828252, 0.0 ], [ -51.15039658, -22.258285955, 0.0 ], [ -51.150391765, -22.258286505, 0.0 ], [ -51.150353114, -22.258289887, 0.0 ], [ -51.150338612, -22.25829107, 0.0 ], [ -51.150324077, -22.25829179, 0.0 ], [ -51.150321293249462, -22.258291880704135, 0.0 ] ] ] } },
{ "type": "Feature", "properties": { "Field": "004", "Length": 536.96665939340301, "id": null }, "geometry": { "type": "MultiLineString", "coordinates": [ [ [ -51.150612543012286, -22.258212647360882, 0.0 ], [ -51.150608023, -22.258215036999989, 0.0 ], [ -51.150599418, -22.258219212, 0.0 ], [ -51.150588464, -22.258224064, 0.0 ], [ -51.150568551, -22.258232402, 0.0 ], [ -51.150546283, -22.258241362, 0.0 ], [ -51.150541735, -22.258242937, 0.0 ], [ -51.150530246, -22.25824656, 0.0 ], [ -51.150500286, -22.258255744, 0.0 ], [ -51.150491006, -22.258258386, 0.0 ], [ -51.15047692000001, -22.2582618, 0.0 ], [ -51.150460369, -22.258265351, 0.0 ], [ -51.150446131, -22.258268173, 0.0 ], [ -51.150415221, -22.25827402, 0.0 ], [ -51.150405649, -22.258275511, 0.0 ], [ -51.150400842, -22.258276119, 0.0 ], [ -51.150376718, -22.258278524, 0.0 ], [ -51.150321244408197, -22.258282103957921, 0.0 ] ] ] } },
{ "type": "Feature", "properties": { "Field": "004", "Length": 536.96515763793514, "id": null }, "geometry": { "type": "MultiLineString", "coordinates": [ [ [ -51.150612500057335, -22.258198354755365, 0.0 ], [ -51.150598995, -22.258205273, 0.0 ], [ -51.15059032, -22.258209318, 0.0 ], [ -51.150550232, -22.258225442, 0.0 ], [ -51.150536725, -22.258230495, 0.0 ], [ -51.150527605, -22.258233582, 0.0 ], [ -51.150502195, -22.258241175, 0.0 ], [ -51.150492907, -22.258243797, 0.0 ], [ -51.150474229, -22.258248707, 0.0 ], [ -51.150464837, -22.258250981, 0.0 ], [ -51.150448325, -22.258254675999989, 0.0 ], [ -51.150419806, -22.258260129, 0.0 ], [ -51.150410273, -22.258261814, 0.0 ], [ -51.150400668, -22.258263094, 0.0 ], [ -51.150381359, -22.258264932, 0.0 ], [ -51.150340293, -22.25826854, 0.0 ], [ -51.150330618, -22.258269238, 0.0 ], [ -51.150321182422651, -22.258269696067988, 0.0 ] ] ] } },
{ "type": "Feature", "properties": { "Field": "004", "Length": 537.03477808488117, "id": null }, "geometry": { "type": "MultiLineString", "coordinates": [ [ [ -51.150591612668464, -22.258197349256214, 0.0 ], [ -51.150589612, -22.25819829, 0.0 ], [ -51.150567605, -22.258207795, 0.0 ], [ -51.150540755, -22.258218277, 0.0 ], [ -51.150527129, -22.258223044, 0.0 ], [ -51.150517931, -22.258225926, 0.0 ], [ -51.150466722, -22.258239947, 0.0 ], [ -51.150445568, -22.258244982, 0.0 ], [ -51.150433748, -22.258247519, 0.0 ], [ -51.150424235, -22.258249308, 0.0 ], [ -51.150417068, -22.258250489, 0.0 ], [ -51.150400305, -22.258253021, 0.0 ], [ -51.150371392, -22.258256213, 0.0 ], [ -51.150349663, -22.258258224, 0.0 ], [ -51.15033031, -22.258259611, 0.0 ], [ -51.150321134273725, -22.258260057910189, 0.0 ] ] ] } },
{ "type": "Feature", "properties": { "Field": "004", "Length": 537.05448306485732, "id": null }, "geometry": { "type": "MultiLineString", "coordinates": [ [ [ -51.150560362054044, -22.258197561430933, 0.0 ], [ -51.150546858, -22.258203261, 0.0 ], [ -51.15053569, -22.25820767, 0.0 ], [ -51.150512971, -22.258215596, 0.0 ], [ -51.150499165, -22.258219892, 0.0 ], [ -51.150489852, -22.258222433, 0.0 ], [ -51.150452196, -22.258231217, 0.0 ], [ -51.150433331, -22.258235474, 0.0 ], [ -51.150423806, -22.258237191, 0.0 ], [ -51.150411813, -22.258238895, 0.0 ], [ -51.150380594, -22.258243086, 0.0 ], [ -51.150366126, -22.25824458, 0.0 ], [ -51.150322562, -22.258247455, 0.0 ], [ -51.150321071607223, -22.258247513711975, 0.0 ] ] ] } },
{ "type": "Feature", "properties": { "Field": "004", "Length": 537.12308089984469, "id": null }, "geometry": { "type": "MultiLineString", "coordinates": [ [ [ -51.150533281825297, -22.258197745290992, 0.0 ], [ -51.150532965, -22.258197867, 0.0 ], [ -51.150503224, -22.25820763, 0.0 ], [ -51.150491732, -22.258211238, 0.0 ], [ -51.150487084, -22.258212519, 0.0 ], [ -51.150470627, -22.258216412, 0.0 ], [ -51.15042585, -22.258226609, 0.0 ], [ -51.150421096, -22.258227498, 0.0 ], [ -51.150411527, -22.258228988, 0.0 ], [ -51.150387546, -22.258232411, 0.0 ], [ -51.150365836, -22.258234578, 0.0 ], [ -51.150339229, -22.258236503, 0.0 ], [ -51.150321021663501, -22.258237516282215, 0.0 ] ] ] } },
{ "type": "Feature", "properties": { "Field": "004", "Length": 537.13997927443597, "id": null }, "geometry": { "type": "MultiLineString", "coordinates": [ [ [ -51.150320963797405, -22.258225932999988, 0.0 ], [ -51.150333937, -22.258225326, 0.0 ], [ -51.150353297, -22.258224021, 0.0 ], [ -51.15036297, -22.258223282, 0.0 ], [ -51.150375033, -22.258222097, 0.0 ], [ -51.150403922, -22.258218719, 0.0 ], [ -51.15042063100001, -22.258215907, 0.0 ], [ -51.150432522, -22.258213671, 0.0 ], [ -51.150441968, -22.258211603, 0.0 ], [ -51.150488893, -22.25820009, 0.0 ], [ -51.150496000451042, -22.258197998411301, 0.0 ] ] ] } },
{ "type": "Feature", "properties": { "Field": "004", "Length": 537.12858061498434, "id": null }, "geometry": { "type": "MultiLineString", "coordinates": [ [ [ -51.150456107155222, -22.258198269265137, 0.0 ], [ -51.150451174, -22.258199352, 0.0 ], [ -51.150403682, -22.258208632, 0.0 ], [ -51.150394128, -22.258210217, 0.0 ], [ -51.150384517, -22.258211447, 0.0 ], [ -51.150348281, -22.25821458, 0.0 ], [ -51.150328916, -22.258215821, 0.0 ], [ -51.150320915140547, -22.258216193165907, 0.0 ] ] ] } },
{ "type": "Feature", "properties": { "Field": "004", "Length": 537.14752995979723, "id": null }, "geometry": { "type": "MultiLineString", "coordinates": [ [ [ -51.150384792200065, -22.258198753454995, 0.0 ], [ -51.150377998, -22.258199453, 0.0 ], [ -51.150365923, -22.258200522, 0.0 ], [ -51.1503208507038, -22.258203294610514, 0.0 ] ] ] } },
{ "type": "Feature", "properties": { "Field": "010", "Length": 331.01897898052493, "id": null }, "geometry": { "type": "MultiLineString", "coordinates": [ [ [ -51.147676350321859, -22.261125692473737, 0.0 ], [ -51.147670609979961, -22.26113226288011, 0.0 ] ] ] } },
{ "type": "Feature", "properties": { "Field": "010", "Length": 331.01811720656229, "id": null }, "geometry": { "type": "MultiLineString", "coordinates": [ [ [ -51.147676256256574, -22.26110682012586, 0.0 ], [ -51.147658688, -22.261126735, 0.0 ], [ -51.147653803259423, -22.261132314862493, 0.0 ] ] ] } },
{ "type": "Feature", "properties": { "Field": "010", "Length": 331.0845716052508, "id": null }, "geometry": { "type": "MultiLineString", "coordinates": [ [ [ -51.147676176150355, -22.261090748389535, 0.0 ], [ -51.147673983, -22.261093179, 0.0 ], [ -51.147644032, -22.261128718, 0.0 ], [ -51.147640734682838, -22.261132355282975, 0.0 ] ] ] } },
{ "type": "Feature", "properties": { "Field": "010", "Length": 331.06989286078993, "id": null }, "geometry": { "type": "MultiLineString", "coordinates": [ [ [ -51.14767608126288, -22.261071711085552, 0.0 ], [ -51.147675906, -22.261071904, 0.0 ], [ -51.147659095, -22.261091195, 0.0 ], [ -51.147641141, -22.261112533, 0.0 ], [ -51.147623803942295, -22.261132407648947, 0.0 ] ] ] } },
{ "type": "Feature", "properties": { "Field": "010", "Length": 331.12644122616558, "id": null }, "geometry": { "type": "MultiLineString", "coordinates": [ [ [ -51.147676007383694, -22.261056888680773, 0.0 ], [ -51.147666989, -22.261066931, 0.0 ], [ -51.147639344, -22.261098402, 0.0 ], [ -51.147609962374446, -22.261132450460256, 0.0 ] ] ] } },
{ "type": "Feature", "properties": { "Field": "010", "Length": 331.14165974437674, "id": null }, "geometry": { "type": "MultiLineString", "coordinates": [ [ [ -51.147675915614371, -22.26103847697194, 0.0 ], [ -51.14766963, -22.261045392, 0.0 ], [ -51.147654143, -22.261062772, 0.0 ], [ -51.147643722, -22.261075253, 0.0 ], [ -51.147634151, -22.261085463, 0.0 ], [ -51.147627902000011, -22.261092374, 0.0 ], [ -51.14759390017467, -22.261132500139873, 0.0 ] ] ] } },
{ "type": "Feature", "properties": { "Field": "010", "Length": 331.15584631332922, "id": null }, "geometry": { "type": "MultiLineString", "coordinates": [ [ [ -51.147579243535056, -22.261132545472158, 0.0 ], [ -51.147613785, -22.261092513, 0.0 ], [ -51.147627758, -22.261076892, 0.0 ], [ -51.147640712, -22.26106344, 0.0 ], [ -51.147665288, -22.261035466, 0.0 ], [ -51.147675841773804, -22.261023662315189, 0.0 ] ] ] } },
{ "type": "Feature", "properties": { "Field": "010", "Length": 331.16244126646296, "id": null }, "geometry": { "type": "MultiLineString", "coordinates": [ [ [ -51.147666955997167, -22.261015571521114, 0.0 ], [ -51.147629031, -22.261057726, 0.0 ], [ -51.14757054, -22.261124068, 0.0 ], [ -51.14756314434976, -22.261132595266169, 0.0 ] ] ] } },
{ "type": "Feature", "properties": { "Field": "010", "Length": 331.19673067132254, "id": null }, "geometry": { "type": "MultiLineString", "coordinates": [ [ [ -51.147550412673816, -22.261132634644635, 0.0 ], [ -51.147554171, -22.261128315, 0.0 ], [ -51.147621082, -22.261050878, 0.0 ], [ -51.147653254861488, -22.261015643929074, 0.0 ] ] ] } },
{ "type": "Feature", "properties": { "Field": "010", "Length": 331.18744398265846, "id": null }, "geometry": { "type": "MultiLineString", "coordinates": [ [ [ -51.147635881033665, -22.261015735746525, 0.0 ], [ -51.147608114, -22.261047102, 0.0 ], [ -51.14759307, -22.261064821, 0.0 ], [ -51.147577799, -22.261082371, 0.0 ], [ -51.147562302, -22.26109975, 0.0 ], [ -51.147533569769465, -22.261132686738932, 0.0 ] ] ] } },
{ "type": "Feature", "properties": { "Field": "010", "Length": 331.23549843052029, "id": null }, "geometry": { "type": "MultiLineString", "coordinates": [ [ [ -51.147621233467852, -22.261015813156192, 0.0 ], [ -51.147592257, -22.261049363, 0.0 ], [ -51.147558558, -22.261087898, 0.0 ], [ -51.147521568, -22.261129764, 0.0 ], [ -51.147518991719465, -22.261132731828145, 0.0 ] ] ] } },
{ "type": "Feature", "properties": { "Field": "010", "Length": 331.2504042452187, "id": null }, "geometry": { "type": "MultiLineString", "coordinates": [ [ [ -51.147604168496215, -22.261015903341399, 0.0 ], [ -51.147603495, -22.261016669, 0.0 ], [ -51.147579299, -22.26104493, 0.0 ], [ -51.147557901, -22.261069487, 0.0 ], [ -51.147539302, -22.261090338, 0.0 ], [ -51.147524082, -22.261107924, 0.0 ], [ -51.147512242, -22.261122243, 0.0 ], [ -51.147503219327696, -22.261132780611398, 0.0 ] ] ] } },
{ "type": "Feature", "properties": { "Field": "010", "Length": 331.28854251630281, "id": null }, "geometry": { "type": "MultiLineString", "coordinates": [ [ [ -51.147591124743499, -22.26101597227521, 0.0 ], [ -51.147570207, -22.261039697, 0.0 ], [ -51.147524449, -22.261092391, 0.0 ], [ -51.147489906170343, -22.261132821788358, 0.0 ] ] ] } },
{ "type": "Feature", "properties": { "Field": "010", "Length": 331.34769222860916, "id": null }, "geometry": { "type": "MultiLineString", "coordinates": [ [ [ -51.147575308048857, -22.261016055863507, 0.0 ], [ -51.147543468, -22.261051991, 0.0 ], [ -51.147502296, -22.261099423, 0.0 ], [ -51.147473573577848, -22.261132872304287, 0.0 ] ] ] } },
{ "type": "Feature", "properties": { "Field": "010", "Length": 331.4060971703687, "id": null }, "geometry": { "type": "MultiLineString", "coordinates": [ [ [ -51.147460393747075, -22.261132913068874, 0.0 ], [ -51.14750598, -22.261079996, 0.0 ], [ -51.147538381, -22.261043393, 0.0 ], [ -51.147557121, -22.261022649, 0.0 ], [ -51.147562790673611, -22.261016122015512, 0.0 ] ] ] } },
{ "type": "Feature", "properties": { "Field": "010", "Length": 259.02424299564666, "id": null }, "geometry": { "type": "MultiLineString", "coordinates": [ [ [ -51.147545912407402, -22.261016211214013, 0.0 ], [ -51.147500287, -22.261068531, 0.0 ], [ -51.147448064, -22.261127978, 0.0 ], [ -51.147443740466919, -22.261132964576671, 0.0 ] ] ] } },
{ "type": "Feature", "properties": { "Field": "010", "Length": 259.38836433191585, "id": null }, "geometry": { "type": "MultiLineString", "coordinates": [ [ [ -51.14753063599693, -22.261016291947008, 0.0 ], [ -51.1475126, -22.261036966, 0.0 ], [ -51.147488367, -22.261065198, 0.0 ], [ -51.14745239, -22.261107821, 0.0 ], [ -51.147429970574279, -22.261133007166293, 0.0 ] ] ] } },
{ "type": "Feature", "properties": { "Field": "010", "Length": 259.73484326548714, "id": null }, "geometry": { "type": "MultiLineString", "coordinates": [ [ [ -51.147515051513501, -22.26101637430811, 0.0 ], [ -51.147500192, -22.261033309, 0.0 ], [ -51.147448435, -22.261093108, 0.0 ], [ -51.147414764, -22.261131663, 0.0 ], [ -51.147413508085954, -22.261133058083981, 0.0 ] ] ] } },
{ "type": "Feature", "properties": { "Field": "010", "Length": 260.06784494734984, "id": null }, "geometry": { "type": "MultiLineString", "coordinates": [ [ [ -51.147501438708844, -22.261016446249254, 0.0 ], [ -51.147499695, -22.261018412, 0.0 ], [ -51.147487639, -22.261032573, 0.0 ], [ -51.147430837, -22.261097286, 0.0 ], [ -51.147399794273575, -22.26113310050015, 0.0 ] ] ] } },
{ "type": "Feature", "properties": { "Field": "010", "Length": 260.44292650528934, "id": null }, "geometry": { "type": "MultiLineString", "coordinates": [ [ [ -51.147383082869325, -22.261133152187725, 0.0 ], [ -51.147384577, -22.261131387, 0.0 ], [ -51.147411997, -22.261099743, 0.0 ], [ -51.147435028, -22.261073511, 0.0 ], [ -51.147453668, -22.26105269, 0.0 ], [ -51.147468993, -22.261035182, 0.0 ], [ -51.147481003, -22.261020987, 0.0 ], [ -51.147484966996053, -22.261016533299198, 0.0 ] ] ] } },
{ "type": "Feature", "properties": { "Field": "010", "Length": 260.77063867447418, "id": null }, "geometry": { "type": "MultiLineString", "coordinates": [ [ [ -51.147470716878196, -22.261016608608426, 0.0 ], [ -51.147455811, -22.261034456, 0.0 ], [ -51.147432644, -22.261060583, 0.0 ], [ -51.147382855848477, -22.261117756616031, 0.0 ] ] ] } },
{ "type": "Feature", "properties": { "Field": "010", "Length": 161.39926490741959, "id": null }, "geometry": { "type": "MultiLineString", "coordinates": [ [ [ -51.147382835352488, -22.261098178857175, 0.0 ], [ -51.147402895, -22.261074945, 0.0 ], [ -51.147454767, -22.261018168, 0.0 ], [ -51.147456024256158, -22.261016686256205, 0.0 ] ] ] } },
{ "type": "Feature", "properties": { "Field": "010", "Length": 161.90401117697851, "id": null }, "geometry": { "type": "MultiLineString", "coordinates": [ [ [ -51.147382819222656, -22.261082771647686, 0.0 ], [ -51.147389532, -22.26107493, 0.0 ], [ -51.147441208790795, -22.26101676455319, 0.0 ] ] ] } },
{ "type": "Feature", "properties": { "Field": "010", "Length": 161.35862651311788, "id": null }, "geometry": { "type": "MultiLineString", "coordinates": [ [ [ -51.147382799091268, -22.261063542159377, 0.0 ], [ -51.14739160700001, -22.261053335, 0.0 ], [ -51.147424304170613, -22.261016853890968, 0.0 ] ] ] } },
{ "type": "Feature", "properties": { "Field": "010", "Length": 160.82053533042014, "id": null }, "geometry": { "type": "MultiLineString", "coordinates": [ [ [ -51.147410334252569, -22.261016927719393, 0.0 ], [ -51.147391116, -22.261038419, 0.0 ], [ -51.147382783234512, -22.261048395796649, 0.0 ] ] ] } },
{ "type": "Feature", "properties": { "Field": "010", "Length": 161.04216942632442, "id": null }, "geometry": { "type": "MultiLineString", "coordinates": [ [ [ -51.147382763687425, -22.261029724423253, 0.0 ], [ -51.147393833529193, -22.261017014922651, 0.0 ] ] ] } },
{ "type": "Feature", "properties": { "Field": "003", "Length": 328.83976514622225, "id": null }, "geometry": { "type": "MultiLineString", "coordinates": [ [ [ -51.146041934569134, -22.262121952185606, 0.0 ], [ -51.146031570064807, -22.26213737927328, 0.0 ] ] ] } },
{ "type": "Feature", "properties": { "Field": "003", "Length": 328.75538968933495, "id": null }, "geometry": { "type": "MultiLineString", "coordinates": [ [ [ -51.146019112861943, -22.262137363282648, 0.0 ], [ -51.146022652, -22.262131954, 0.0 ], [ -51.146041881417993, -22.262104159440337, 0.0 ] ] ] } },
{ "type": "Feature", "properties": { "Field": "003", "Length": 328.58833190302067, "id": null }, "geometry": { "type": "MultiLineString", "coordinates": [ [ [ -51.146041817078945, -22.262082621457179, 0.0 ], [ -51.14601226, -22.262124562, 0.0 ], [ -51.146004055367264, -22.262137343954162, 0.0 ] ] ] } },
{ "type": "Feature", "properties": { "Field": "003", "Length": 328.43906288339116, "id": null }, "geometry": { "type": "MultiLineString", "coordinates": [ [ [ -51.145991593656547, -22.262137327957745, 0.0 ], [ -51.146017178, -22.262099915, 0.0 ], [ -51.146041760065543, -22.262063535791881, 0.0 ] ] ] } },
{ "type": "Feature", "properties": { "Field": "003", "Length": 328.28815612209809, "id": null }, "geometry": { "type": "MultiLineString", "coordinates": [ [ [ -51.145976837388993, -22.26213730901593, 0.0 ], [ -51.145984561, -22.262125552, 0.0 ], [ -51.146036192, -22.262049053, 0.0 ], [ -51.146041692344298, -22.262040865593718, 0.0 ] ] ] } },
{ "type": "Feature", "properties": { "Field": "003", "Length": 328.20101613911328, "id": null }, "geometry": { "type": "MultiLineString", "coordinates": [ [ [ -51.145963455172307, -22.262137291837906, 0.0 ], [ -51.146011912, -22.262066127, 0.0 ], [ -51.146041509, -22.262022089, 0.0 ], [ -51.146041635683737, -22.262021898042796, 0.0 ] ] ] } },
{ "type": "Feature", "properties": { "Field": "003", "Length": 328.03132773894521, "id": null }, "geometry": { "type": "MultiLineString", "coordinates": [ [ [ -51.145949185934363, -22.262137273521262, 0.0 ], [ -51.145950298, -22.262135446, 0.0 ], [ -51.145978465, -22.262093248, 0.0 ], [ -51.146025231, -22.262024574, 0.0 ], [ -51.146028516348707, -22.262019700904347, 0.0 ] ] ] } },
{ "type": "Feature", "properties": { "Field": "003", "Length": 327.92071271826427, "id": null }, "geometry": { "type": "MultiLineString", "coordinates": [ [ [ -51.146015388692362, -22.262019798609195, 0.0 ], [ -51.145999858, -22.262043985, 0.0 ], [ -51.145955272, -22.262108595, 0.0 ], [ -51.145937535873408, -22.262137258566714, 0.0 ] ] ] } },
{ "type": "Feature", "properties": { "Field": "003", "Length": 327.72458672887535, "id": null }, "geometry": { "type": "MultiLineString", "coordinates": [ [ [ -51.145922170263205, -22.262137238842719, 0.0 ], [ -51.145954707, -22.262087638, 0.0 ], [ -51.145972689, -22.262060816999988, 0.0 ], [ -51.145983443, -22.262045774, 0.0 ], [ -51.145996273, -22.262026613, 0.0 ], [ -51.146000565954587, -22.262019908929979, 0.0 ] ] ] } },
{ "type": "Feature", "properties": { "Field": "003", "Length": 327.59691943980619, "id": null }, "geometry": { "type": "MultiLineString", "coordinates": [ [ [ -51.145908429803249, -22.262137221204839, 0.0 ], [ -51.145945839, -22.26207953, 0.0 ], [ -51.145983891, -22.262024435, 0.0 ], [ -51.145986892110223, -22.262020010699928, 0.0 ] ] ] } },
{ "type": "Feature", "properties": { "Field": "003", "Length": 327.45810439604702, "id": null }, "geometry": { "type": "MultiLineString", "coordinates": [ [ [ -51.145894634747563, -22.262137203496877, 0.0 ], [ -51.145934565, -22.262076591, 0.0 ], [ -51.14594936, -22.262053249, 0.0 ], [ -51.14596088, -22.262035984, 0.0 ], [ -51.145971703693519, -22.262020123742342, 0.0 ] ] ] } },
{ "type": "Feature", "properties": { "Field": "003", "Length": 327.3329446116868, "id": null }, "geometry": { "type": "MultiLineString", "coordinates": [ [ [ -51.145959361064527, -22.262020215604487, 0.0 ], [ -51.145958552, -22.262021379, 0.0 ], [ -51.145938638, -22.262052398, 0.0 ], [ -51.145920876, -22.262079349, 0.0 ], [ -51.145882198094881, -22.262137187532623, 0.0 ] ] ] } },
{ "type": "Feature", "properties": { "Field": "003", "Length": 327.22250511208523, "id": null }, "geometry": { "type": "MultiLineString", "coordinates": [ [ [ -51.145868233716868, -22.262137169607314, 0.0 ], [ -51.145880459, -22.262116931, 0.0 ], [ -51.145882988, -22.262113075, 0.0 ], [ -51.14589603, -22.262094031, 0.0 ], [ -51.14591594, -22.262063011, 0.0 ], [ -51.14593737500001, -22.262032884, 0.0 ], [ -51.145945287396543, -22.262020320350192, 0.0 ] ] ] } },
{ "type": "Feature", "properties": { "Field": "003", "Length": 327.13392111076865, "id": null }, "geometry": { "type": "MultiLineString", "coordinates": [ [ [ -51.145933763276773, -22.262020406120442, 0.0 ], [ -51.145928989, -22.262027621, 0.0 ], [ -51.145917294, -22.262044785, 0.0 ], [ -51.145893595, -22.262078934, 0.0 ], [ -51.145856560282176, -22.262137154622764, 0.0 ] ] ] } },
{ "type": "Feature", "properties": { "Field": "003", "Length": 327.04163251092677, "id": null }, "geometry": { "type": "MultiLineString", "coordinates": [ [ [ -51.145841118326459, -22.262137134800764, 0.0 ], [ -51.145881606, -22.262073311, 0.0 ], [ -51.145905342, -22.262039184, 0.0 ], [ -51.145918040147158, -22.262020523142549, 0.0 ] ] ] } },
{ "type": "Feature", "properties": { "Field": "003", "Length": 327.00492158285982, "id": null }, "geometry": { "type": "MultiLineString", "coordinates": [ [ [ -51.145828263404255, -22.262137118299602, 0.0 ], [ -51.145831828, -22.262131286, 0.0 ], [ -51.1458466, -22.262107933, 0.0 ], [ -51.145866549, -22.262076931, 0.0 ], [ -51.145886855, -22.262046134, 0.0 ], [ -51.145904084223382, -22.262020627011921, 0.0 ] ] ] } },
{ "type": "Feature", "properties": { "Field": "003", "Length": 326.86742880028487, "id": null }, "geometry": { "type": "MultiLineString", "coordinates": [ [ [ -51.145889471954618, -22.262020735766257, 0.0 ], [ -51.145880013, -22.262035423999986, 0.0 ], [ -51.145860986, -22.262064304, 0.0 ], [ -51.145837904, -22.262098817, 0.0 ], [ -51.145823994, -22.262120016, 0.0 ], [ -51.145819253, -22.2621279, 0.0 ], [ -51.145813298921681, -22.262137099090513, 0.0 ] ] ] } },
{ "type": "Feature", "properties": { "Field": "003", "Length": 326.79465244857528, "id": null }, "geometry": { "type": "MultiLineString", "coordinates": [ [ [ -51.145876419716636, -22.262020832909791, 0.0 ], [ -51.14585933, -22.262046419, 0.0 ], [ -51.145833192, -22.262087133, 0.0 ], [ -51.145819339, -22.262108368, 0.0 ], [ -51.145804032, -22.262131423, 0.0 ], [ -51.145800386307933, -22.262137082515292, 0.0 ] ] ] } },
{ "type": "Feature", "properties": { "Field": "003", "Length": 326.36323802859039, "id": null }, "geometry": { "type": "MultiLineString", "coordinates": [ [ [ -51.145806902788088, -22.262021350301531, 0.0 ], [ -51.145797076, -22.262035921, 0.0 ], [ -51.14576801, -22.262080263, 0.0 ], [ -51.145747928976661, -22.262111288105885, 0.0 ] ] ] } },
{ "type": "Feature", "properties": { "Field": "003", "Length": 326.30758864870711, "id": null }, "geometry": { "type": "MultiLineString", "coordinates": [ [ [ -51.145793369356376, -22.262021451026435, 0.0 ], [ -51.145792586, -22.262022613, 0.0 ], [ -51.145766876, -22.262063562, 0.0 ], [ -51.145749359, -22.262090651, 0.0 ], [ -51.145747873281188, -22.262092898010163, 0.0 ] ] ] } },
{ "type": "Feature", "properties": { "Field": "003", "Length": 326.23330810342031, "id": null }, "geometry": { "type": "MultiLineString", "coordinates": [ [ [ -51.145747802654263, -22.26206957769466, 0.0 ], [ -51.145775167, -22.262027761, 0.0 ], [ -51.145779401072204, -22.2620215549878, 0.0 ] ] ] } },
{ "type": "Feature", "properties": { "Field": "003", "Length": 326.13994069996909, "id": null }, "geometry": { "type": "MultiLineString", "coordinates": [ [ [ -51.145747750562599, -22.262052377540311, 0.0 ], [ -51.145766711301576, -22.26202164943361, 0.0 ] ] ] } },
{ "type": "Feature", "properties": { "Field": "003", "Length": 326.05872691256741, "id": null }, "geometry": { "type": "MultiLineString", "coordinates": [ [ [ -51.145751667887275, -22.262021761396817, 0.0 ], [ -51.145747798, -22.262028267, 0.0 ], [ -51.145747678114567, -22.262028455914308, 0.0 ] ] ] } },
{ "type": "Feature", "properties": { "Field": "003", "Length": 70.69889255669554, "id": null }, "geometry": { "type": "MultiLineString", "coordinates": [ [ [ -51.145786314553007, -22.262137064452148, 0.0 ], [ -51.145836556, -22.262059631, 0.0 ], [ -51.145862460724409, -22.262020936801999, 0.0 ] ] ] } },
{ "type": "Feature", "properties": { "Field": "003", "Length": 70.404891731151324, "id": null }, "geometry": { "type": "MultiLineString", "coordinates": [ [ [ -51.145850709628846, -22.262021024261557, 0.0 ], [ -51.14583975, -22.262037585, 0.0 ], [ -51.145829348, -22.26205284, 0.0 ], [ -51.145820421, -22.262066288, 0.0 ], [ -51.145812966, -22.262077928, 0.0 ], [ -51.145793917, -22.262106793, 0.0 ], [ -51.14577423497451, -22.262137048946251, 0.0 ] ] ] } },
{ "type": "Feature", "properties": { "Field": "003", "Length": 70.540016416085905, "id": null }, "geometry": { "type": "MultiLineString", "coordinates": [ [ [ -51.145759015402554, -22.262137029409718, 0.0 ], [ -51.145785726, -22.26209535, 0.0 ], [ -51.145805147, -22.262066698, 0.0 ], [ -51.145834971201126, -22.262021141397522, 0.0 ] ] ] } },
{ "type": "Feature", "properties": { "Field": "003", "Length": 70.790872309167256, "id": null }, "geometry": { "type": "MultiLineString", "coordinates": [ [ [ -51.145822681687719, -22.262021232864349, 0.0 ], [ -51.145818272, -22.262028015, 0.0 ], [ -51.145784588, -22.262077666, 0.0 ], [ -51.145748002769373, -22.262135653731587, 0.0 ] ] ] } },
{ "type": "Feature", "properties": { "Field": "012", "Length": 155.52628769908188, "id": null }, "geometry": { "type": "MultiLineString", "coordinates": [ [ [ -51.144467839824586, -22.257739824106142, 0.0 ], [ -51.144459243, -22.257754442, 0.0 ], [ -51.144459196107768, -22.257754527971944, 0.0 ] ] ] } },
{ "type": "Feature", "properties": { "Field": "012", "Length": 154.19862000996, "id": null }, "geometry": { "type": "MultiLineString", "coordinates": [ [ [ -51.144444582187262, -22.257754573033434, 0.0 ], [ -51.144445862, -22.257752265, 0.0 ], [ -51.144467863428645, -22.25771494644437, 0.0 ] ] ] } },
{ "type": "Feature", "properties": { "Field": "012", "Length": 153.1431198795367, "id": null }, "geometry": { "type": "MultiLineString", "coordinates": [ [ [ -51.144467881536386, -22.257695861663123, 0.0 ], [ -51.14444257, -22.257737251, 0.0 ], [ -51.14443323958762, -22.257754608007929, 0.0 ] ] ] } },
{ "type": "Feature", "properties": { "Field": "012", "Length": 164.6569717581736, "id": null }, "geometry": { "type": "MultiLineString", "coordinates": [ [ [ -51.144223341625406, -22.257755255220655, 0.0 ], [ -51.144233975, -22.257736337, 0.0 ], [ -51.14425434, -22.257700525, 0.0 ], [ -51.144280333, -22.257655259, 0.0 ], [ -51.144290145378328, -22.257638365898814, 0.0 ] ] ] } },
{ "type": "Feature", "properties": { "Field": "012", "Length": 151.93647778400276, "id": null }, "geometry": { "type": "MultiLineString", "coordinates": [ [ [ -51.144418789055038, -22.25775465256562, 0.0 ], [ -51.144426552, -22.257741727, 0.0 ], [ -51.144435777, -22.257725833, 0.0 ], [ -51.144446853, -22.25770574, 0.0 ], [ -51.144467905995107, -22.257670083215924, 0.0 ] ] ] } },
{ "type": "Feature", "properties": { "Field": "012", "Length": 162.35562767139211, "id": null }, "geometry": { "type": "MultiLineString", "coordinates": [ [ [ -51.144234399796545, -22.257755221123187, 0.0 ], [ -51.144244499, -22.257737566999989, 0.0 ], [ -51.144264799, -22.257701572, 0.0 ], [ -51.144292634, -22.257651404, 0.0 ], [ -51.144300518636989, -22.257638356684716, 0.0 ] ] ] } },
{ "type": "Feature", "properties": { "Field": "012", "Length": 151.06825488997416, "id": null }, "geometry": { "type": "MultiLineString", "coordinates": [ [ [ -51.144467926773459, -22.257648183730087, 0.0 ], [ -51.144459298, -22.257662751, 0.0 ], [ -51.144448849, -22.2576806, 0.0 ], [ -51.144435665, -22.257704762, 0.0 ], [ -51.144411704, -22.257744038, 0.0 ], [ -51.144405584635855, -22.257754693280965, 0.0 ] ] ] } },
{ "type": "Feature", "properties": { "Field": "012", "Length": 149.7761722475795, "id": null }, "geometry": { "type": "MultiLineString", "coordinates": [ [ [ -51.144391838320757, -22.257754735667227, 0.0 ], [ -51.144420592, -22.257705586, 0.0 ], [ -51.144439005, -22.257673775, 0.0 ], [ -51.144443343, -22.257665693, 0.0 ], [ -51.144453874, -22.257647892, 0.0 ], [ -51.144459754523453, -22.257638215242661, 0.0 ] ] ] } },
{ "type": "Feature", "properties": { "Field": "012", "Length": 158.65812861639665, "id": null }, "geometry": { "type": "MultiLineString", "coordinates": [ [ [ -51.144314874322262, -22.257638343933206, 0.0 ], [ -51.144307742, -22.257650147, 0.0 ], [ -51.144279538, -22.257700137, 0.0 ], [ -51.144267436, -22.257722275, 0.0 ], [ -51.144261271, -22.25773455, 0.0 ], [ -51.144253394, -22.257748545, 0.0 ], [ -51.144249349138889, -22.257755175027434, 0.0 ] ] ] } },
{ "type": "Feature", "properties": { "Field": "012", "Length": 148.8502357995657, "id": null }, "geometry": { "type": "MultiLineString", "coordinates": [ [ [ -51.144379308480886, -22.257754774302533, 0.0 ], [ -51.144384191, -22.257746085, 0.0 ], [ -51.144420053, -22.25768454, 0.0 ], [ -51.144430954, -22.257666929, 0.0 ], [ -51.144435586, -22.257658995, 0.0 ], [ -51.144439954, -22.257650927, 0.0 ], [ -51.144445645, -22.257640955, 0.0 ], [ -51.144447408682353, -22.257638226208915, 0.0 ] ] ] } },
{ "type": "Feature", "properties": { "Field": "012", "Length": 156.29544856426648, "id": null }, "geometry": { "type": "MultiLineString", "coordinates": [ [ [ -51.144326583055857, -22.257638333532867, 0.0 ], [ -51.144321084, -22.257647359, 0.0 ], [ -51.144305623, -22.257675511, 0.0 ], [ -51.144287171, -22.257707303, 0.0 ], [ -51.144267895, -22.257743781, 0.0 ], [ -51.144261185797816, -22.257755138529525, 0.0 ] ] ] } },
{ "type": "Feature", "properties": { "Field": "012", "Length": 147.58997207534222, "id": null }, "geometry": { "type": "MultiLineString", "coordinates": [ [ [ -51.144365465779117, -22.257754816986001, 0.0 ], [ -51.144369301, -22.257748396, 0.0 ], [ -51.144408266, -22.257680712, 0.0 ], [ -51.14443398807159, -22.257638238129836, 0.0 ] ] ] } },
{ "type": "Feature", "properties": { "Field": "012", "Length": 153.39752351351632, "id": null }, "geometry": { "type": "MultiLineString", "coordinates": [ [ [ -51.144341373213621, -22.257638320395436, 0.0 ], [ -51.144329385, -22.257657845, 0.0 ], [ -51.144294352, -22.257719802, 0.0 ], [ -51.144279807, -22.257745854, 0.0 ], [ -51.144274776238589, -22.257755096623896, 0.0 ] ] ] } },
{ "type": "Feature", "properties": { "Field": "012", "Length": 147.14189885963756, "id": null }, "geometry": { "type": "MultiLineString", "coordinates": [ [ [ -51.144422520445168, -22.257638248316013, 0.0 ], [ -51.144413997, -22.25765191, 0.0 ], [ -51.144381169, -22.257707277, 0.0 ], [ -51.144363818, -22.257737056, 0.0 ], [ -51.14435373768422, -22.257754853149152, 0.0 ] ] ] } },
{ "type": "Feature", "properties": { "Field": "012", "Length": 150.45324611061474, "id": null }, "geometry": { "type": "MultiLineString", "coordinates": [ [ [ -51.144353615577337, -22.257638309521099, 0.0 ], [ -51.144337911, -22.257664227, 0.0 ], [ -51.14432623, -22.257684023, 0.0 ], [ -51.14431365, -22.257705932000011, 0.0 ], [ -51.144286574589835, -22.257755060244111, 0.0 ] ] ] } },
{ "type": "Feature", "properties": { "Field": "012", "Length": 145.94633713423482, "id": null }, "geometry": { "type": "MultiLineString", "coordinates": [ [ [ -51.144339401973504, -22.257754897352797, 0.0 ], [ -51.144340119, -22.257753612, 0.0 ], [ -51.14435189400001, -22.257733865, 0.0 ], [ -51.144364531, -22.257711984, 0.0 ], [ -51.144378028, -22.257687969, 0.0 ], [ -51.144395516, -22.257658263, 0.0 ], [ -51.144407594557343, -22.257638261574005, 0.0 ] ] ] } },
{ "type": "Feature", "properties": { "Field": "012", "Length": 147.07556525988602, "id": null }, "geometry": { "type": "MultiLineString", "coordinates": [ [ [ -51.144301759852013, -22.257755013420908, 0.0 ], [ -51.144304566, -22.257750322, 0.0 ], [ -51.144306792, -22.257746311, 0.0 ], [ -51.144319038, -22.257721729, 0.0 ], [ -51.144321204, -22.257717688, 0.0 ], [ -51.144352067, -22.257663901, 0.0 ], [ -51.144356804, -22.257656016, 0.0 ], [ -51.144364123, -22.257644303, 0.0 ], [ -51.144367923757223, -22.257638296811788, 0.0 ] ] ] } },
{ "type": "Feature", "properties": { "Field": "012", "Length": 145.04170850746357, "id": null }, "geometry": { "type": "MultiLineString", "coordinates": [ [ [ -51.14432702455511, -22.257754935518115, 0.0 ], [ -51.144345176, -22.25772258, 0.0 ], [ -51.144362473, -22.257692774, 0.0 ], [ -51.144383523, -22.257657153, 0.0 ], [ -51.144394837542777, -22.257638272905485, 0.0 ] ] ] } },
{ "type": "Feature", "properties": { "Field": "012", "Length": 144.29492041989019, "id": null }, "geometry": { "type": "MultiLineString", "coordinates": [ [ [ -51.144312869759929, -22.257754979163909, 0.0 ], [ -51.144321151, -22.257740086, 0.0 ], [ -51.144344787, -22.25769807, 0.0 ], [ -51.144358676, -22.25767425, 0.0 ], [ -51.144371672, -22.257652551999985, 0.0 ], [ -51.144380491543679, -22.25763828564839, 0.0 ] ] ] } },
{ "type": "Feature", "properties": { "Field": "012", "Length": 126.63212260850987, "id": null }, "geometry": { "type": "MultiLineString", "coordinates": [ [ [ -51.144273984592509, -22.257638380253709, 0.0 ], [ -51.14420810140011, -22.257755302213337, 0.0 ] ] ] } },
{ "type": "Feature", "properties": { "Field": "012", "Length": 125.96237729312894, "id": null }, "geometry": { "type": "MultiLineString", "coordinates": [ [ [ -51.144195463244841, -22.257755341182627, 0.0 ], [ -51.144206658, -22.257736187, 0.0 ], [ -51.144262055065113, -22.257638390850168, 0.0 ] ] ] } },
{ "type": "Feature", "properties": { "Field": "012", "Length": 125.2419161165902, "id": null }, "geometry": { "type": "MultiLineString", "coordinates": [ [ [ -51.144181881882247, -22.257755383060264, 0.0 ], [ -51.14418296, -22.257753551, 0.0 ], [ -51.144208956, -22.257707588, 0.0 ], [ -51.14424696, -22.25763943, 0.0 ], [ -51.144247548472798, -22.257638403735722, 0.0 ] ] ] } },
{ "type": "Feature", "properties": { "Field": "012", "Length": 124.61760525961097, "id": null }, "geometry": { "type": "MultiLineString", "coordinates": [ [ [ -51.144183313690093, -22.257732076328043, 0.0 ], [ -51.144185965, -22.25772737, 0.0 ], [ -51.14420353, -22.257695146, 0.0 ], [ -51.144226996, -22.257655611, 0.0 ], [ -51.144233415, -22.257643451, 0.0 ], [ -51.144236266983548, -22.25763841375656, 0.0 ] ] ] } }
]
}
