{
"type": "FeatureCollection",
"name": "75531_LINHAS",
"crs": { "type": "name", "properties": { "name": "urn:ogc:def:crs:OGC:1.3:CRS84" } },
"xy_coordinate_resolution": 1e-15,
"features": [
{ "type": "Feature", "properties": { "Field": "000", "Length": 58.750966039601593, "id": null }, "geometry": { "type": "MultiLineString", "coordinates": [ [ [ -51.004849915415271, -22.041302475676808 ], [ -51.004849111, -22.041303669 ], [ -51.004844787, -22.0413107 ], [ -51.00484128894233, -22.041316952056057 ] ] ] } },
{ "type": "Feature", "properties": { "Field": "000", "Length": 61.972699634161764, "id": null }, "geometry": { "type": "MultiLineString", "coordinates": [ [ [ -51.004849866982141, -22.041278155036206 ], [ -51.004846035, -22.041282324 ], [ -51.004841824, -22.041287263 ], [ -51.00483783, -22.041292353 ], [ -51.004834099, -22.041297613 ], [ -51.00483115, -22.041302264 ], [ -51.004828465, -22.041307052 ], [ -51.004826062, -22.041311966 ], [ -51.004823920321058, -22.041316965244977 ] ] ] } },
{ "type": "Feature", "properties": { "Field": "000", "Length": 63.915234114786749, "id": null }, "geometry": { "type": "MultiLineString", "coordinates": [ [ [ -51.004849839123985, -22.041264166092574 ], [ -51.004846214, -22.041267644 ], [ -51.004840179, -22.041274706 ], [ -51.004834297, -22.041281885 ], [ -51.004829161, -22.041289539 ], [ -51.004824672, -22.041297543 ], [ -51.004820567, -22.041305726 ], [ -51.004816819, -22.041314056 ], [ -51.00481559462122, -22.041316971567127 ] ] ] } },
{ "type": "Feature", "properties": { "Field": "000", "Length": 66.504147178936137, "id": null }, "geometry": { "type": "MultiLineString", "coordinates": [ [ [ -51.004849802132078, -22.041245590646835 ], [ -51.004842241, -22.041252764 ], [ -51.004835868, -22.041259569 ], [ -51.004824044, -22.041273885 ], [ -51.00481846, -22.041281267 ], [ -51.004813573, -22.041289064 ], [ -51.004809692, -22.041297342 ], [ -51.004806214, -22.041305773 ], [ -51.004802404, -22.04131408 ], [ -51.004801261502173, -22.041316982451033 ] ] ] } },
{ "type": "Feature", "properties": { "Field": "000", "Length": 68.550495471901485, "id": null }, "geometry": { "type": "MultiLineString", "coordinates": [ [ [ -51.004790488113301, -22.041316990631842 ], [ -51.004791503, -22.041314265 ], [ -51.004798177, -22.041297301 ], [ -51.004802588, -22.041289256 ], [ -51.004811929, -22.041273425 ], [ -51.004817431, -22.041265987 ], [ -51.004823133, -22.041258682 ], [ -51.004829311, -22.041251722 ], [ -51.004835894, -22.041245092 ], [ -51.004849775538446, -22.041232236685829 ] ] ] } },
{ "type": "Feature", "properties": { "Field": "000", "Length": 71.226300097031057, "id": null }, "geometry": { "type": "MultiLineString", "coordinates": [ [ [ -51.004849738818727, -22.041213797919315 ], [ -51.004823113, -22.041239749 ], [ -51.004816739, -22.041246554 ], [ -51.004810631, -22.041253567 ], [ -51.004805126, -22.041261002 ], [ -51.004799854, -22.041268583 ], [ -51.004795154, -22.041276484 ], [ -51.004786224, -22.04129252 ], [ -51.004782498, -22.04130086 ], [ -51.004775979293775, -22.041317001649162 ] ] ] } },
{ "type": "Feature", "properties": { "Field": "000", "Length": 73.392676877787039, "id": null }, "geometry": { "type": "MultiLineString", "coordinates": [ [ [ -51.004848924533285, -22.041200372679945 ], [ -51.004847539, -22.041201512 ], [ -51.004840513, -22.041207734 ], [ -51.004820166, -22.041227093 ], [ -51.004813722, -22.041233841 ], [ -51.004807645, -22.041240878 ], [ -51.004801958, -22.041248193 ], [ -51.004791377, -22.041263332 ], [ -51.004786607, -22.041271196 ], [ -51.004778109, -22.041287436 ], [ -51.004774134, -22.041295675 ], [ -51.00476674, -22.041312377 ], [ -51.004765019119873, -22.041317009971809 ] ] ] } },
{ "type": "Feature", "properties": { "Field": "000", "Length": 75.920846226441981, "id": null }, "geometry": { "type": "MultiLineString", "coordinates": [ [ [ -51.004751534397123, -22.04131702021148 ], [ -51.004753076, -22.041312369 ], [ -51.004756158, -22.041303803 ], [ -51.004759673, -22.041295384 ], [ -51.004767625, -22.041278906 ], [ -51.00477194, -22.041270817 ], [ -51.004781283, -22.041254986 ], [ -51.004786672, -22.041247477 ], [ -51.004792473, -22.04124024 ], [ -51.004810779, -22.041219185 ], [ -51.004817268, -22.041212475 ], [ -51.00482401, -22.041205985 ], [ -51.004830625624763, -22.04120039998697 ] ] ] } },
{ "type": "Feature", "properties": { "Field": "000", "Length": 78.021470406177684, "id": null }, "geometry": { "type": "MultiLineString", "coordinates": [ [ [ -51.004817606986272, -22.04120041941437 ], [ -51.004815319, -22.041202348 ], [ -51.004801645, -22.041215153 ], [ -51.004794532, -22.041221286 ], [ -51.004789432, -22.041228968 ], [ -51.004784133, -22.041236532 ], [ -51.004778024, -22.041243546 ], [ -51.004772112, -22.041250703 ], [ -51.004767073, -22.04125842 ], [ -51.004762482, -22.041266377 ], [ -51.004754449, -22.041282821 ], [ -51.004750608, -22.041291115 ], [ -51.004741177, -22.041316753 ], [ -51.004741089294193, -22.041317028143006 ] ] ] } },
{ "type": "Feature", "properties": { "Field": "000", "Length": 80.366939467883014, "id": null }, "geometry": { "type": "MultiLineString", "coordinates": [ [ [ -51.004801324861859, -22.041200443711794 ], [ -51.004792031, -22.04120895 ], [ -51.004785474, -22.041215603 ], [ -51.004772787, -22.041229262 ], [ -51.004766834, -22.041236391 ], [ -51.00476112, -22.041243688 ], [ -51.004756023, -22.041251372 ], [ -51.004751302, -22.041259262 ], [ -51.004747113, -22.041267409 ], [ -51.004743241, -22.041275691 ], [ -51.004739802, -22.041284137 ], [ -51.004727519628524, -22.041317038447179 ] ] ] } },
{ "type": "Feature", "properties": { "Field": "000", "Length": 82.296342053943661, "id": null }, "geometry": { "type": "MultiLineString", "coordinates": [ [ [ -51.004787475987179, -22.041200464378139 ], [ -51.004768861, -22.041219047 ], [ -51.004762649, -22.041225981 ], [ -51.00475662, -22.041233054 ], [ -51.004751089, -22.041240473 ], [ -51.004745795, -22.04124804 ], [ -51.004741421, -22.041256102 ], [ -51.004733538, -22.041272609 ], [ -51.004730069, -22.041281045 ], [ -51.004720298, -22.041306571 ], [ -51.004717539, -22.041315232 ], [ -51.004717011069609, -22.041317046426887 ] ] ] } },
{ "type": "Feature", "properties": { "Field": "000", "Length": 84.929256446197087, "id": null }, "geometry": { "type": "MultiLineString", "coordinates": [ [ [ -51.004768847501801, -22.041200492176984 ], [ -51.004752687, -22.04121716 ], [ -51.004747038, -22.041224501 ], [ -51.004741583, -22.041231968 ], [ -51.004736408, -22.041239606 ], [ -51.004726479, -22.041255124 ], [ -51.004722339, -22.041263293 ], [ -51.004706425, -22.041305959 ], [ -51.004702962735657, -22.041317057094538 ] ] ] } },
{ "type": "Feature", "properties": { "Field": "000", "Length": 86.933385935203574, "id": null }, "geometry": { "type": "MultiLineString", "coordinates": [ [ [ -51.004756013713191, -22.041200511328537 ], [ -51.00475093, -22.04120626 ], [ -51.004744933, -22.041213357 ], [ -51.004733492, -22.041227939 ], [ -51.004728191, -22.041235496 ], [ -51.004717998, -22.041250865 ], [ -51.00471395200001, -22.041259035 ], [ -51.004700046, -22.041292768 ], [ -51.004697068, -22.041301358 ], [ -51.004692165808351, -22.041317065293224 ] ] ] } },
{ "type": "Feature", "properties": { "Field": "000", "Length": 89.437275040043858, "id": null }, "geometry": { "type": "MultiLineString", "coordinates": [ [ [ -51.004739104217592, -22.041200536562172 ], [ -51.004734627, -22.041205713 ], [ -51.00472867, -22.041212839 ], [ -51.004723217, -22.041220308 ], [ -51.004712558, -22.041235399 ], [ -51.004707453, -22.041243078 ], [ -51.004703185, -22.04125119 ], [ -51.004699109, -22.041259386 ], [ -51.004692361, -22.041276324 ], [ -51.004689164, -22.041284853 ], [ -51.004679176668432, -22.04131707515657 ] ] ] } },
{ "type": "Feature", "properties": { "Field": "000", "Length": 91.121416866629204, "id": null }, "geometry": { "type": "MultiLineString", "coordinates": [ [ [ -51.004668736533148, -22.041317083084323 ], [ -51.004673416, -22.041300511 ], [ -51.004688928, -22.041257718 ], [ -51.004697318, -22.041241437 ], [ -51.004711907, -22.041217996 ], [ -51.004723125, -22.041203265 ], [ -51.004725454931076, -22.041200556930676 ] ] ] } },
{ "type": "Feature", "properties": { "Field": "000", "Length": 93.496800658761785, "id": null }, "geometry": { "type": "MultiLineString", "coordinates": [ [ [ -51.004655173296108, -22.041317093383615 ], [ -51.004656001, -22.041313772 ], [ -51.004670203, -22.041270583 ], [ -51.004673712, -22.041262162 ], [ -51.004689508, -22.041229161 ], [ -51.004704532, -22.041205958 ], [ -51.004708748526419, -22.041200581861244 ] ] ] } },
{ "type": "Feature", "properties": { "Field": "000", "Length": 95.279543037667239, "id": null }, "geometry": { "type": "MultiLineString", "coordinates": [ [ [ -51.004696600192105, -22.04120059998991 ], [ -51.004691878, -22.041207233 ], [ -51.004686792, -22.041214923 ], [ -51.004677662, -22.041230862 ], [ -51.004673354, -22.041238954 ], [ -51.004665706, -22.041255557 ], [ -51.004662138, -22.041263957 ], [ -51.004653013, -22.04128969 ], [ -51.004647641, -22.041307051 ], [ -51.004645112, -22.041315773 ], [ -51.004644773658669, -22.041317101280615 ] ] ] } },
{ "type": "Feature", "properties": { "Field": "000", "Length": 97.730590368138891, "id": null }, "geometry": { "type": "MultiLineString", "coordinates": [ [ [ -51.004680768516067, -22.041200623615143 ], [ -51.004675592, -22.041208035 ], [ -51.004670518, -22.041215732 ], [ -51.004661728, -22.041231836 ], [ -51.004657544, -22.041239985 ], [ -51.004650512, -22.041256823 ], [ -51.004647203, -22.041265314 ], [ -51.004631317598964, -22.041317111498522 ] ] ] } },
{ "type": "Feature", "properties": { "Field": "000", "Length": 99.529618557905309, "id": null }, "geometry": { "type": "MultiLineString", "coordinates": [ [ [ -51.004668261231551, -22.041200642279463 ], [ -51.004665334, -22.041204788 ], [ -51.004660543, -22.041212634 ], [ -51.004651938, -22.041228821 ], [ -51.004644006, -22.041245307 ], [ -51.004640487, -22.041253709 ], [ -51.00462888, -22.041288189 ], [ -51.004626226, -22.041296874 ], [ -51.004620889180138, -22.041317119417378 ] ] ] } },
{ "type": "Feature", "properties": { "Field": "000", "Length": 101.8734136964908, "id": null }, "geometry": { "type": "MultiLineString", "coordinates": [ [ [ -51.004607393137405, -22.041317129665643 ], [ -51.004607719, -22.041315683 ], [ -51.004609958, -22.041306895 ], [ -51.004614764, -22.04128939 ], [ -51.004617416, -22.041280703 ], [ -51.00462304900001, -22.041263414 ], [ -51.004626309, -22.041254913 ], [ -51.004636969, -22.041229698 ], [ -51.004641008, -22.041221495 ], [ -51.004645367, -22.041213426 ], [ -51.004650032, -22.041205511 ], [ -51.0046530507624, -22.041200664977683 ] ] ] } },
{ "type": "Feature", "properties": { "Field": "000", "Length": 103.51686318070811, "id": null }, "geometry": { "type": "MultiLineString", "coordinates": [ [ [ -51.004641448402154, -22.041200682291606 ], [ -51.004639152, -22.041204284 ], [ -51.004634608, -22.041212263 ], [ -51.004626405, -22.041228634 ], [ -51.004622507, -22.041236905 ], [ -51.004618845, -22.04124527 ], [ -51.004615525, -22.041253757 ], [ -51.004609642, -22.041270974 ], [ -51.004606881, -22.041279634 ], [ -51.004601755, -22.041297059 ], [ -51.004599475, -22.04130584 ], [ -51.004596943491997, -22.041317137600618 ] ] ] } },
{ "type": "Feature", "properties": { "Field": "000", "Length": 105.8840919035032, "id": null }, "geometry": { "type": "MultiLineString", "coordinates": [ [ [ -51.004626628371483, -22.041200704407185 ], [ -51.004624331, -22.041204878 ], [ -51.004620115, -22.041213012 ], [ -51.004611966, -22.041229406 ], [ -51.004608194, -22.041237726999988 ], [ -51.004604679, -22.041246145 ], [ -51.004601436, -22.041254658 ], [ -51.004598499, -22.041263266 ], [ -51.004587937, -22.041298036 ], [ -51.004585726, -22.041306829 ], [ -51.004583410784377, -22.041317147876725 ] ] ] } },
{ "type": "Feature", "properties": { "Field": "000", "Length": 107.59034429772699, "id": null }, "geometry": { "type": "MultiLineString", "coordinates": [ [ [ -51.00461484458279, -22.041200721991849 ], [ -51.004613943, -22.041202382 ], [ -51.004601431, -22.041226846 ], [ -51.004597656, -22.041235166 ], [ -51.004590749, -22.041252048 ], [ -51.004587976, -22.041260699 ], [ -51.004582734, -22.041278095 ], [ -51.00458029, -22.041286837 ], [ -51.004578056, -22.041295628 ], [ -51.00457269576836, -22.041317156013211 ] ] ] } },
{ "type": "Feature", "properties": { "Field": "000", "Length": 109.86608030625155, "id": null }, "geometry": { "type": "MultiLineString", "coordinates": [ [ [ -51.004558926751329, -22.041317166468762 ], [ -51.004559592, -22.041314043 ], [ -51.004563501, -22.041296346 ], [ -51.004565798, -22.041287569 ], [ -51.004570974, -22.041270156 ], [ -51.004573704, -22.041261488 ], [ -51.004576719, -22.041252902 ], [ -51.004586953, -22.041227535 ], [ -51.004590846, -22.041219262 ], [ -51.0046003205318, -22.04120074366574 ] ] ] } },
{ "type": "Feature", "properties": { "Field": "000", "Length": 111.6620026153572, "id": null }, "geometry": { "type": "MultiLineString", "coordinates": [ [ [ -51.00455886655083, -22.041276794430797 ], [ -51.004561891, -22.041265949 ], [ -51.004564562, -22.041257264 ], [ -51.004577774, -22.041223292 ], [ -51.004581637, -22.041215006 ], [ -51.004589098682288, -22.04120076041184 ] ] ] } },
{ "type": "Feature", "properties": { "Field": "000", "Length": 114.01304117281286, "id": null }, "geometry": { "type": "MultiLineString", "coordinates": [ [ [ -51.004558945230066, -22.041236005120503 ], [ -51.004561959, -22.041227398 ], [ -51.004565232, -22.041218895 ], [ -51.004569061, -22.041210597 ], [ -51.004574106641741, -22.041200782784102 ] ] ] } },
{ "type": "Feature", "properties": { "Field": "000", "Length": 115.71735925074516, "id": null }, "geometry": { "type": "MultiLineString", "coordinates": [ [ [ -51.004558994523016, -22.041210450404709 ], [ -51.004561154, -22.041205427 ], [ -51.004563432905968, -22.041200798712264 ] ] ] } },
{ "type": "Feature", "properties": { "Field": "000", "Length": 272.65876009885585, "id": null }, "geometry": { "type": "MultiLineString", "coordinates": [ [ [ -51.003582186189718, -22.038522365609889 ], [ -51.003582286, -22.038516463 ], [ -51.003582088321217, -22.038405831107866 ] ] ] } },
{ "type": "Feature", "properties": { "Field": "000", "Length": 271.66058189837895, "id": null }, "geometry": { "type": "MultiLineString", "coordinates": [ [ [ -51.003571812148444, -22.038522334578946 ], [ -51.003572233, -22.038465104 ], [ -51.003571465, -22.038419938 ], [ -51.003571454, -22.038410903 ], [ -51.003571497088991, -22.038405847518248 ] ] ] } },
{ "type": "Feature", "properties": { "Field": "000", "Length": 268.66939758403896, "id": null }, "geometry": { "type": "MultiLineString", "coordinates": [ [ [ -51.003559646926931, -22.038522298190202 ], [ -51.00355994, -22.038499142 ], [ -51.003559294, -22.038408799 ], [ -51.003559328247526, -22.038405866373022 ] ] ] } },
{ "type": "Feature", "properties": { "Field": "000", "Length": 267.59626069617821, "id": null }, "geometry": { "type": "MultiLineString", "coordinates": [ [ [ -51.003548701825629, -22.038522265451096 ], [ -51.003549159, -22.038448972 ], [ -51.00354844, -22.038412842 ], [ -51.003548449243439, -22.038405883229284 ] ] ] } },
{ "type": "Feature", "properties": { "Field": "000", "Length": 265.54354604140406, "id": null }, "geometry": { "type": "MultiLineString", "coordinates": [ [ [ -51.003535679651435, -22.038522226499026 ], [ -51.003535575, -22.038495341 ], [ -51.003536103, -22.038459207 ], [ -51.003535917, -22.038450174 ], [ -51.003535061, -22.038432123 ], [ -51.003534961, -22.038423089 ], [ -51.003535097, -22.038414055 ], [ -51.003535254317377, -22.038405903673908 ] ] ] } },
{ "type": "Feature", "properties": { "Field": "000", "Length": 264.70473317919414, "id": null }, "geometry": { "type": "MultiLineString", "coordinates": [ [ [ -51.003524873620286, -22.038522194175908 ], [ -51.00352476, -22.038508416 ], [ -51.003524567, -22.038499384 ], [ -51.003523504, -22.038472297999988 ], [ -51.003522574, -22.038427135 ], [ -51.003522684, -22.038418101 ], [ -51.003523066225902, -22.03840592255851 ] ] ] } },
{ "type": "Feature", "properties": { "Field": "000", "Length": 262.98475298722195, "id": null }, "geometry": { "type": "MultiLineString", "coordinates": [ [ [ -51.003512164181082, -22.038522156159296 ], [ -51.003511478, -22.038472903 ], [ -51.003511513, -22.038463869 ], [ -51.00351253, -22.038427745 ], [ -51.00351193, -22.038418729 ], [ -51.003511806, -22.038409695 ], [ -51.003511886703293, -22.038405939880406 ] ] ] } },
{ "type": "Feature", "properties": { "Field": "000", "Length": 262.19815174287629, "id": null }, "geometry": { "type": "MultiLineString", "coordinates": [ [ [ -51.003502465003351, -22.038522127147012 ], [ -51.003502431, -22.038432214 ], [ -51.003501639143238, -22.038405955758289 ] ] ] } },
{ "type": "Feature", "properties": { "Field": "000", "Length": 260.36346670289316, "id": null }, "geometry": { "type": "MultiLineString", "coordinates": [ [ [ -51.003489255261194, -22.038405974946254 ], [ -51.003489709, -22.038486805 ], [ -51.003489590860639, -22.038522088637734 ] ] ] } },
{ "type": "Feature", "properties": { "Field": "000", "Length": 259.32527671823158, "id": null }, "geometry": { "type": "MultiLineString", "coordinates": [ [ [ -51.003478764309328, -22.038522056253235 ], [ -51.003479033453722, -22.038405990784234 ] ] ] } },
{ "type": "Feature", "properties": { "Field": "000", "Length": 258.37352838366985, "id": null }, "geometry": { "type": "MultiLineString", "coordinates": [ [ [ -51.003466020845138, -22.038522018134849 ], [ -51.003466176985185, -22.038406010704442 ] ] ] } },
{ "type": "Feature", "properties": { "Field": "000", "Length": 257.02634169398323, "id": null }, "geometry": { "type": "MultiLineString", "coordinates": [ [ [ -51.003455931094479, -22.038521987954276 ], [ -51.003455937, -22.038435289 ], [ -51.003455617, -22.038417222 ], [ -51.003455316113438, -22.038406027532609 ] ] ] } },
{ "type": "Feature", "properties": { "Field": "000", "Length": 256.14878509807613, "id": null }, "geometry": { "type": "MultiLineString", "coordinates": [ [ [ -51.003442559040849, -22.038521947955644 ], [ -51.003442614631808, -22.038406047212675 ] ] ] } },
{ "type": "Feature", "properties": { "Field": "000", "Length": 255.41883258403016, "id": null }, "geometry": { "type": "MultiLineString", "coordinates": [ [ [ -51.003431375891331, -22.038406064626322 ], [ -51.003431225, -22.038446456 ], [ -51.00343180550275, -22.038521915789541 ] ] ] } },
{ "type": "Feature", "properties": { "Field": "000", "Length": 254.30390683241154, "id": null }, "geometry": { "type": "MultiLineString", "coordinates": [ [ [ -51.00341858047689, -22.038406084451928 ], [ -51.00341853, -22.038418409 ], [ -51.003419394, -22.038481646 ], [ -51.003419493, -22.038499715 ], [ -51.003419131674164, -22.03852187787945 ] ] ] } },
{ "type": "Feature", "properties": { "Field": "000", "Length": 253.65733190369343, "id": null }, "geometry": { "type": "MultiLineString", "coordinates": [ [ [ -51.003408241441207, -22.038521845304466 ], [ -51.003408804, -22.038482723 ], [ -51.003408637, -22.038464655 ], [ -51.003407616, -22.038419493 ], [ -51.003407554486273, -22.038406101535937 ] ] ] } },
{ "type": "Feature", "properties": { "Field": "000", "Length": 252.94935833118916, "id": null }, "geometry": { "type": "MultiLineString", "coordinates": [ [ [ -51.003395791588346, -22.038406119761731 ], [ -51.003395160064635, -22.038521806175311 ] ] ] } },
{ "type": "Feature", "properties": { "Field": "000", "Length": 252.54933981222536, "id": null }, "geometry": { "type": "MultiLineString", "coordinates": [ [ [ -51.003385539954145, -22.038406135645928 ], [ -51.003386597, -22.038470763 ], [ -51.00338582984007, -22.038521778266642 ] ] ] } },
{ "type": "Feature", "properties": { "Field": "000", "Length": 251.84591251631571, "id": null }, "geometry": { "type": "MultiLineString", "coordinates": [ [ [ -51.003372023727501, -22.038406156588383 ], [ -51.003373353, -22.038488629 ], [ -51.003373358, -22.038497663 ], [ -51.00337301729904, -22.038521739941629 ] ] ] } },
{ "type": "Feature", "properties": { "Field": "000", "Length": 251.37281145965946, "id": null }, "geometry": { "type": "MultiLineString", "coordinates": [ [ [ -51.003362430682678, -22.038521708274825 ], [ -51.003362841, -22.038485778 ], [ -51.003362875, -22.038467709 ], [ -51.003361900875696, -22.038406172273039 ] ] ] } },
{ "type": "Feature", "properties": { "Field": "000", "Length": 250.60824862436965, "id": null }, "geometry": { "type": "MultiLineString", "coordinates": [ [ [ -51.00334949163873, -22.038521669571416 ], [ -51.00334913, -22.038415979 ], [ -51.003349187956282, -22.038406191970825 ] ] ] } },
{ "type": "Feature", "properties": { "Field": "000", "Length": 250.00118980658527, "id": null }, "geometry": { "type": "MultiLineString", "coordinates": [ [ [ -51.003339052820209, -22.038406207674516 ], [ -51.003339002, -22.038412132 ], [ -51.003339085691842, -22.038521638445037 ] ] ] } },
{ "type": "Feature", "properties": { "Field": "000", "Length": 249.45662980069204, "id": null }, "geometry": { "type": "MultiLineString", "coordinates": [ [ [ -51.003325884454867, -22.038521598957352 ], [ -51.003326358060747, -22.038406227344165 ] ] ] } },
{ "type": "Feature", "properties": { "Field": "000", "Length": 248.82658986893213, "id": null }, "geometry": { "type": "MultiLineString", "coordinates": [ [ [ -51.003317281077877, -22.038406241408321 ], [ -51.003316078, -22.038432302 ], [ -51.003315979, -22.038441336 ], [ -51.003316648, -22.038513609 ], [ -51.003316597512438, -22.038521571178148 ] ] ] } },
{ "type": "Feature", "properties": { "Field": "000", "Length": 48.651055159701926, "id": null }, "geometry": { "type": "MultiLineString", "coordinates": [ [ [ -51.003253261325824, -22.042080641828868 ], [ -51.003252908, -22.042081909 ], [ -51.003243881, -22.042117053 ], [ -51.00324185, -22.042125886 ], [ -51.003241518510002, -22.042127438074861 ] ] ] } },
{ "type": "Feature", "properties": { "Field": "000", "Length": 48.97009017359369, "id": null }, "geometry": { "type": "MultiLineString", "coordinates": [ [ [ -51.003253355249399, -22.042032090539667 ], [ -51.003245791, -22.04205686 ], [ -51.003229294, -22.042118203 ], [ -51.003227305344708, -22.042127396741513 ] ] ] } },
{ "type": "Feature", "properties": { "Field": "000", "Length": 49.076630348033198, "id": null }, "geometry": { "type": "MultiLineString", "coordinates": [ [ [ -51.003249618495438, -22.042010900991077 ], [ -51.003248126, -22.042016011 ], [ -51.003239706, -22.042041952 ], [ -51.003237082, -22.042050649 ], [ -51.003223259, -22.042103302 ], [ -51.003218342, -22.042120779 ], [ -51.003216738238457, -22.042127366011279 ] ] ] } },
{ "type": "Feature", "properties": { "Field": "000", "Length": 49.312805729317141, "id": null }, "geometry": { "type": "MultiLineString", "coordinates": [ [ [ -51.00323522291832, -22.042010912458245 ], [ -51.003222277, -22.042053436 ], [ -51.003219829, -22.042062177 ], [ -51.003202771560872, -22.042127325394741 ] ] ] } },
{ "type": "Feature", "properties": { "Field": "000", "Length": 49.681728476658861, "id": null }, "geometry": { "type": "MultiLineString", "coordinates": [ [ [ -51.003224880559863, -22.042010920696718 ], [ -51.003219324, -22.042030317 ], [ -51.003212645, -22.042054725 ], [ -51.003205561, -22.04208182 ], [ -51.003198545, -22.042109853 ], [ -51.003194350982746, -22.042127300906834 ] ] ] } },
{ "type": "Feature", "properties": { "Field": "000", "Length": 49.782860275359759, "id": null }, "geometry": { "type": "MultiLineString", "coordinates": [ [ [ -51.00318038925603, -22.042127260304692 ], [ -51.003186647, -22.042103924 ], [ -51.003192981, -22.042081291 ], [ -51.003213265978637, -22.042010929948614 ] ] ] } },
{ "type": "Feature", "properties": { "Field": "000", "Length": 18.111374882680774, "id": null }, "geometry": { "type": "MultiLineString", "coordinates": [ [ [ -51.003252016639593, -22.042127468604502 ], [ -51.003253179649072, -22.042122862450046 ] ] ] } },
{ "type": "Feature", "properties": { "Field": "000", "Length": 49.921109144823262, "id": null }, "geometry": { "type": "MultiLineString", "coordinates": [ [ [ -51.003171726375406, -22.042127235112144 ], [ -51.003175219, -22.042112009 ], [ -51.003177525, -22.042103234 ], [ -51.003204183676615, -22.04201093718336 ] ] ] } },
{ "type": "Feature", "properties": { "Field": "000", "Length": 50.221712129665207, "id": null }, "geometry": { "type": "MultiLineString", "coordinates": [ [ [ -51.003190902411916, -22.042010947762893 ], [ -51.003188926, -22.042018925 ], [ -51.003186463, -22.042027663 ], [ -51.003172783, -22.042070997 ], [ -51.003170107, -22.042079681 ], [ -51.003167665, -22.042088424 ], [ -51.003161062, -22.042114819 ], [ -51.003158189177569, -22.04212719574458 ] ] ] } },
{ "type": "Feature", "properties": { "Field": "000", "Length": 50.441766136083928, "id": null }, "geometry": { "type": "MultiLineString", "coordinates": [ [ [ -51.003179529841951, -22.042010956822008 ], [ -51.003150763, -22.042116156 ], [ -51.003148311818684, -22.042127167020201 ] ] ] } },
{ "type": "Feature", "properties": { "Field": "000", "Length": 50.525374888543475, "id": null }, "geometry": { "type": "MultiLineString", "coordinates": [ [ [ -51.003164852726997, -22.042010968513445 ], [ -51.003164041, -22.042013908 ], [ -51.003155423, -22.042049142 ], [ -51.003152837, -22.042057849 ], [ -51.0031497, -22.042066397 ], [ -51.003147046, -22.042075086 ], [ -51.003137006, -22.042119278 ], [ -51.003135079289478, -22.042127128538645 ] ] ] } },
{ "type": "Feature", "properties": { "Field": "000", "Length": 50.442100025327839, "id": null }, "geometry": { "type": "MultiLineString", "coordinates": [ [ [ -51.003155096335668, -22.042010976285152 ], [ -51.00315115, -22.042026276 ], [ -51.003140508, -22.042061022 ], [ -51.003138263, -22.04206981 ], [ -51.003127627, -22.042113881 ], [ -51.003124580420661, -22.042127098006851 ] ] ] } },
{ "type": "Feature", "properties": { "Field": "000", "Length": 50.616083638480923, "id": null }, "geometry": { "type": "MultiLineString", "coordinates": [ [ [ -51.00314062842817, -22.042010987809938 ], [ -51.003135984, -22.04202904 ], [ -51.00312605, -22.042063972 ], [ -51.003123737, -22.042072745 ], [ -51.003111163649415, -22.0421270589895 ] ] ] } },
{ "type": "Feature", "properties": { "Field": "000", "Length": 50.760850182208422, "id": null }, "geometry": { "type": "MultiLineString", "coordinates": [ [ [ -51.003100600636245, -22.042127028271167 ], [ -51.003113825, -22.042072876 ], [ -51.003116547, -22.042064205 ], [ -51.00313129, -22.042011769 ], [ -51.003131451346761, -22.042010995120179 ] ] ] } },
{ "type": "Feature", "properties": { "Field": "000", "Length": 50.740221484865941, "id": null }, "geometry": { "type": "MultiLineString", "coordinates": [ [ [ -51.003087951775591, -22.042126991486981 ], [ -51.003100249, -22.042076238 ], [ -51.003118110116951, -22.042011005747479 ] ] ] } },
{ "type": "Feature", "properties": { "Field": "000", "Length": 50.608962081367544, "id": null }, "geometry": { "type": "MultiLineString", "coordinates": [ [ [ -51.00307722106016, -22.042126960280953 ], [ -51.003077974, -22.042123788 ], [ -51.003083076, -22.042106356 ], [ -51.003085298, -22.04209757 ], [ -51.003087063, -22.042088687 ], [ -51.003089036, -22.042079845 ], [ -51.00310041, -22.042035934 ], [ -51.003102853, -22.042027194 ], [ -51.003107834950839, -22.042011013932431 ] ] ] } },
{ "type": "Feature", "properties": { "Field": "000", "Length": 50.729161302002169, "id": null }, "geometry": { "type": "MultiLineString", "coordinates": [ [ [ -51.00309331992068, -22.042011025494755 ], [ -51.003092098, -22.042015224 ], [ -51.003075585, -22.042076564 ], [ -51.003063799527737, -22.042126921249753 ] ] ] } },
{ "type": "Feature", "properties": { "Field": "000", "Length": 50.772407124110615, "id": null }, "geometry": { "type": "MultiLineString", "coordinates": [ [ [ -51.003082258059322, -22.042011034306366 ], [ -51.003077288, -22.042026822 ], [ -51.003074705, -22.04203553 ], [ -51.003067643, -22.042071063 ], [ -51.003061542, -22.042097563 ], [ -51.003059475, -22.04210639 ], [ -51.003054261366472, -22.042126893511799 ] ] ] } },
{ "type": "Feature", "properties": { "Field": "000", "Length": 50.756278005694725, "id": null }, "geometry": { "type": "MultiLineString", "coordinates": [ [ [ -51.003067022609287, -22.042011046442557 ], [ -51.003057849, -22.042039358 ], [ -51.003055775, -22.042048183 ], [ -51.003051978, -22.042065902 ], [ -51.003049154, -22.042083751 ], [ -51.003043703, -22.042110366 ], [ -51.003039268099293, -22.042126849909835 ] ] ] } },
{ "type": "Feature", "properties": { "Field": "000", "Length": 50.608930774839266, "id": null }, "geometry": { "type": "MultiLineString", "coordinates": [ [ [ -51.00302831752834, -22.042126818064446 ], [ -51.003031278, -22.042111097 ], [ -51.003032633, -22.042102153 ], [ -51.003034879, -22.042084206 ], [ -51.003035789, -22.042075213 ], [ -51.003037062, -22.042066271 ], [ -51.003039066, -22.042057433 ], [ -51.003043647, -22.042039878 ], [ -51.003046375, -22.042031211 ], [ -51.003049414, -22.042022633 ], [ -51.003052645, -22.042014116 ], [ -51.003053865126461, -22.042011056923492 ] ] ] } },
{ "type": "Feature", "properties": { "Field": "000", "Length": 50.452004331953979, "id": null }, "geometry": { "type": "MultiLineString", "coordinates": [ [ [ -51.003045838302327, -22.042011063317467 ], [ -51.003027141, -22.042078067 ], [ -51.003022741, -22.042095664 ], [ -51.003018616, -22.042113318 ], [ -51.003015868052309, -22.042126781860087 ] ] ] } },
{ "type": "Feature", "properties": { "Field": "001", "Length": 142.29565449889674, "id": null }, "geometry": { "type": "MultiLineString", "coordinates": [ [ [ -51.002941135270341, -22.035189469519356 ], [ -51.00294275, -22.035185645 ], [ -51.002963171810762, -22.035143540953289 ] ] ] } },
{ "type": "Feature", "properties": { "Field": "000", "Length": 50.467525006023813, "id": null }, "geometry": { "type": "MultiLineString", "coordinates": [ [ [ -51.003006602215741, -22.042126754914079 ], [ -51.00301293, -22.042101402 ], [ -51.003017, -22.042083736 ], [ -51.003023868, -22.0420574 ], [ -51.003034553, -22.042022663 ], [ -51.003036645, -22.042013844 ], [ -51.003037237206641, -22.04201107016889 ] ] ] } },
{ "type": "Feature", "properties": { "Field": "001", "Length": 143.5637760294656, "id": null }, "geometry": { "type": "MultiLineString", "coordinates": [ [ [ -51.002929371080093, -22.035189504475269 ], [ -51.002930226, -22.035187652 ], [ -51.002941161, -22.035162539 ], [ -51.002945004, -22.035154245 ], [ -51.002957144, -22.035129618 ], [ -51.002961406, -22.035121504 ], [ -51.002964066009, -22.035116748358252 ] ] ] } },
{ "type": "Feature", "properties": { "Field": "001", "Length": 145.23884032348917, "id": null }, "geometry": { "type": "MultiLineString", "coordinates": [ [ [ -51.002965052038419, -22.035087204252886 ], [ -51.002946705, -22.03512006 ], [ -51.002942578, -22.03512823 ], [ -51.002913796768986, -22.035189550752513 ] ] ] } },
{ "type": "Feature", "properties": { "Field": "001", "Length": 146.4808553815285, "id": null }, "geometry": { "type": "MultiLineString", "coordinates": [ [ [ -51.00290189819961, -22.035189586107716 ], [ -51.002903233, -22.035186581 ], [ -51.0029334, -22.035124508 ], [ -51.002937508, -22.035116326 ], [ -51.002941821, -22.035108237 ], [ -51.002950889, -22.035092268 ], [ -51.002965787842108, -22.035065157586416 ] ] ] } },
{ "type": "Feature", "properties": { "Field": "001", "Length": 147.85445618334541, "id": null }, "geometry": { "type": "MultiLineString", "coordinates": [ [ [ -51.002887739405729, -22.035189628178916 ], [ -51.002889986, -22.035184391 ], [ -51.002897821, -22.035166958 ], [ -51.002905627, -22.035150492 ], [ -51.002914134, -22.035133331 ], [ -51.002924563, -22.035113033 ], [ -51.00294333, -22.035077492 ], [ -51.002966401, -22.035037557 ], [ -51.002966725770563, -22.03503705471589 ] ] ] } },
{ "type": "Feature", "properties": { "Field": "000", "Length": 50.585200823081571, "id": null }, "geometry": { "type": "MultiLineString", "coordinates": [ [ [ -51.003022344538152, -22.042011082032033 ], [ -51.003022236, -22.042011535 ], [ -51.003019964, -22.042020318 ], [ -51.003009639, -22.04205515 ], [ -51.003007249, -22.042063904999988 ], [ -51.002999118, -22.042099239 ], [ -51.002992180619913, -22.042126712974593 ] ] ] } },
{ "type": "Feature", "properties": { "Field": "001", "Length": 148.94325000938647, "id": null }, "geometry": { "type": "MultiLineString", "coordinates": [ [ [ -51.00296735178334, -22.035018297681773 ], [ -51.002966294, -22.035019806 ], [ -51.00295762, -22.035032809 ], [ -51.002950753, -22.035043672 ], [ -51.002942758, -22.035057044 ], [ -51.002935989, -22.035068985 ], [ -51.002928178, -22.035083463 ], [ -51.002921893, -22.03509563 ], [ -51.002914175, -22.035111147 ], [ -51.002905116, -22.03513005 ], [ -51.002897424, -22.035146563 ], [ -51.002884451, -22.03517565 ], [ -51.002878526633118, -22.035189655553591 ] ] ] } },
{ "type": "Feature", "properties": { "Field": "001", "Length": 150.30187972039684, "id": null }, "geometry": { "type": "MultiLineString", "coordinates": [ [ [ -51.002968129944819, -22.034994981861619 ], [ -51.00296594, -22.034997926 ], [ -51.002955857, -22.03501223 ], [ -51.002948198, -22.035023699 ], [ -51.002940804, -22.035035318 ], [ -51.002934143, -22.03504629 ], [ -51.002927255, -22.035058173 ], [ -51.002918436, -22.035074194 ], [ -51.002909567, -22.035091196 ], [ -51.002902234, -22.035105888 ], [ -51.002892377, -22.03512643 ], [ -51.002883937, -22.035144602 ], [ -51.002871209, -22.035172811 ], [ -51.002863838929997, -22.03518969919638 ] ] ] } },
{ "type": "Feature", "properties": { "Field": "001", "Length": 151.31882580361, "id": null }, "geometry": { "type": "MultiLineString", "coordinates": [ [ [ -51.002968502165579, -22.034983829122009 ], [ -51.002966138, -22.034986858 ], [ -51.002948689, -22.035008536 ], [ -51.002943148, -22.035015948 ], [ -51.002938032, -22.035023621 ], [ -51.002933106, -22.035031401 ], [ -51.00292837, -22.035039283 ], [ -51.002919409, -22.035055305 ], [ -51.002915213, -22.035063448 ], [ -51.002911314, -22.035071719 ], [ -51.002898876, -22.035096216 ], [ -51.002878788, -22.035137323 ], [ -51.00286724, -22.035162196 ], [ -51.002859921, -22.035178927 ], [ -51.002855571145325, -22.035189723763132 ] ] ] } },
{ "type": "Feature", "properties": { "Field": "000", "Length": 50.55850475694529, "id": null }, "geometry": { "type": "MultiLineString", "coordinates": [ [ [ -51.003011951824917, -22.042011090310616 ], [ -51.003008044, -22.042023553 ], [ -51.003003155, -22.042041038 ], [ -51.002998923, -22.04205867 ], [ -51.002996307, -22.042067369 ], [ -51.002994003, -22.042076145 ], [ -51.002990346, -22.042093888 ], [ -51.002982065626625, -22.04212668355915 ] ] ] } },
{ "type": "Feature", "properties": { "Field": "001", "Length": 152.7819915977874, "id": null }, "geometry": { "type": "MultiLineString", "coordinates": [ [ [ -51.002969263843696, -22.034961007187839 ], [ -51.002938558, -22.035002071 ], [ -51.002933264, -22.035009638 ], [ -51.002928532, -22.035017522 ], [ -51.002919352, -22.035033436 ], [ -51.002900436, -22.035064978 ], [ -51.002896005, -22.035073013 ], [ -51.002891824, -22.035081163 ], [ -51.002867486, -22.035130392 ], [ -51.002859606, -22.0351469 ], [ -51.002848332, -22.035171882 ], [ -51.00284108708621, -22.035189766800819 ] ] ] } },
{ "type": "Feature", "properties": { "Field": "001", "Length": 153.99397559360449, "id": null }, "geometry": { "type": "MultiLineString", "coordinates": [ [ [ -51.00296038359501, -22.034957137728895 ], [ -51.002931027, -22.034996264 ], [ -51.002925608, -22.035003754 ], [ -51.002906811, -22.035035358 ], [ -51.002889419, -22.035067654 ], [ -51.002875588, -22.035091493 ], [ -51.002860001, -22.03512458 ], [ -51.00284367, -22.035157353 ], [ -51.002830699184948, -22.03518979766725 ] ] ] } },
{ "type": "Feature", "properties": { "Field": "001", "Length": 155.40975271770753, "id": null }, "geometry": { "type": "MultiLineString", "coordinates": [ [ [ -51.002816122149227, -22.035189840981204 ], [ -51.002827859, -22.035161754 ], [ -51.002846904, -22.035120218 ], [ -51.002859125, -22.035095627 ], [ -51.002893784, -22.035030977 ], [ -51.00289828, -22.035022973 ], [ -51.002903064, -22.035015116 ], [ -51.002917837, -22.034991773 ], [ -51.002922956, -22.034984102 ], [ -51.002934077, -22.034969305 ], [ -51.002943403090931, -22.034957187712436 ] ] ] } },
{ "type": "Feature", "properties": { "Field": "001", "Length": 156.46164061560634, "id": null }, "geometry": { "type": "MultiLineString", "coordinates": [ [ [ -51.002929620796834, -22.034957228281776 ], [ -51.002921037, -22.034968887 ], [ -51.002915704, -22.03497643 ], [ -51.002900471, -22.034999515 ], [ -51.002895534, -22.035007288 ], [ -51.002876605, -22.035038824 ], [ -51.002872094, -22.03504682 ], [ -51.002867865, -22.035054949 ], [ -51.002847106, -22.035095766 ], [ -51.002843079, -22.035103983 ], [ -51.002823948, -22.035145485 ], [ -51.002809399, -22.03517898 ], [ -51.002804278127257, -22.035189876174329 ] ] ] } },
{ "type": "Feature", "properties": { "Field": "001", "Length": 157.49364932089156, "id": null }, "geometry": { "type": "MultiLineString", "coordinates": [ [ [ -51.002913474853649, -22.034957275808718 ], [ -51.002898604, -22.034977679 ], [ -51.002893586, -22.034985408 ], [ -51.002864671, -22.035032436 ], [ -51.002860379, -22.035040536 ], [ -51.00284823, -22.03506516 ], [ -51.002831111, -22.035097582 ], [ -51.002827234, -22.035105862 ], [ -51.002790196613688, -22.035189918015899 ] ] ] } },
{ "type": "Feature", "properties": { "Field": "000", "Length": 50.204954876635227, "id": null }, "geometry": { "type": "MultiLineString", "coordinates": [ [ [ -51.002967807593436, -22.042126642095322 ], [ -51.002974329, -22.042100592 ], [ -51.002976679, -22.042091826999989 ], [ -51.00298440600001, -22.042056414 ], [ -51.002997109588726, -22.042011102133586 ] ] ] } },
{ "type": "Feature", "properties": { "Field": "001", "Length": 158.39507691521902, "id": null }, "geometry": { "type": "MultiLineString", "coordinates": [ [ [ -51.002899860574658, -22.034957315883492 ], [ -51.002869416, -22.035004668 ], [ -51.002859826, -22.03502037 ], [ -51.002855353, -22.035028384 ], [ -51.002834576, -22.035069193 ], [ -51.002830186, -22.035077247 ], [ -51.002825557, -22.035085184 ], [ -51.002821246, -22.035093276 ], [ -51.002817299, -22.035101526 ], [ -51.002806515, -22.035126694 ], [ -51.002798652, -22.035143209 ], [ -51.002794904, -22.035151541 ], [ -51.002778786534158, -22.035189951919612 ] ] ] } },
{ "type": "Feature", "properties": { "Field": "001", "Length": 159.58626366464702, "id": null }, "geometry": { "type": "MultiLineString", "coordinates": [ [ [ -51.002887164343129, -22.034957353255916 ], [ -51.002874903, -22.034974858 ], [ -51.002869747, -22.034982507 ], [ -51.002849973, -22.03501359 ], [ -51.00284529, -22.035021499 ], [ -51.002815252, -22.035078202 ], [ -51.002806334, -22.035094244 ], [ -51.002802652, -22.035102601 ], [ -51.002792276, -22.035127919 ], [ -51.002770171, -22.035178056 ], [ -51.002766635, -22.035186467 ], [ -51.002765250152713, -22.035189992141383 ] ] ] } },
{ "type": "Feature", "properties": { "Field": "001", "Length": 160.44259754298812, "id": null }, "geometry": { "type": "MultiLineString", "coordinates": [ [ [ -51.002754675900071, -22.035190023561537 ], [ -51.002770815, -22.035150953 ], [ -51.002774623, -22.035142645 ], [ -51.002782533, -22.03512615 ], [ -51.002793222, -22.035100945 ], [ -51.002797233, -22.035092721 ], [ -51.002801463, -22.035084593 ], [ -51.002805203, -22.035076258 ], [ -51.002809239, -22.035068045 ], [ -51.002826306, -22.035035599 ], [ -51.002835876, -22.035019886 ], [ -51.002844737, -22.035003816 ], [ -51.002849474, -22.034995935 ], [ -51.002859413, -22.034980422 ], [ -51.002864517, -22.034972742 ], [ -51.002875005088036, -22.034957389047705 ] ] ] } },
{ "type": "Feature", "properties": { "Field": "000", "Length": 50.012473889808483, "id": null }, "geometry": { "type": "MultiLineString", "coordinates": [ [ [ -51.002985574647333, -22.04201111132204 ], [ -51.002975197, -22.042048066 ], [ -51.002972964456426, -22.042056713536446 ] ] ] } },
{ "type": "Feature", "properties": { "Field": "001", "Length": 161.45187930846396, "id": null }, "geometry": { "type": "MultiLineString", "coordinates": [ [ [ -51.002859127886865, -22.034957435783582 ], [ -51.002849047, -22.034972317 ], [ -51.002820616, -22.035019601 ], [ -51.002795483, -22.035068481 ], [ -51.002786316, -22.0350844 ], [ -51.00275659, -22.03515115 ], [ -51.002740366659118, -22.035190066079771 ] ] ] } },
{ "type": "Feature", "properties": { "Field": "001", "Length": 162.21834332592215, "id": null }, "geometry": { "type": "MultiLineString", "coordinates": [ [ [ -51.002847717566461, -22.03495746937082 ], [ -51.002835235, -22.034976042 ], [ -51.002830419, -22.034983882 ], [ -51.002806935, -22.035023394 ], [ -51.002802768, -22.035031551 ], [ -51.00278287, -22.035072738 ], [ -51.002765976, -22.035105263 ], [ -51.002750657, -22.035138458 ], [ -51.002729027240704, -22.035190099773526 ] ] ] } },
{ "type": "Feature", "properties": { "Field": "001", "Length": 163.16751262181845, "id": null }, "geometry": { "type": "MultiLineString", "coordinates": [ [ [ -51.002832353086035, -22.034957514597458 ], [ -51.002828896, -22.034963019 ], [ -51.002818113, -22.034978033 ], [ -51.002794979, -22.035017724 ], [ -51.002746336, -22.035116197 ], [ -51.002721057, -22.035174883 ], [ -51.002715003081079, -22.035190141444673 ] ] ] } },
{ "type": "Feature", "properties": { "Field": "001", "Length": 163.8392267874585, "id": null }, "geometry": { "type": "MultiLineString", "coordinates": [ [ [ -51.002818942177925, -22.034957554073593 ], [ -51.002809202, -22.034972897 ], [ -51.002804439, -22.034980765 ], [ -51.002790973, -22.035004785 ], [ -51.002782527, -22.035021047 ], [ -51.002753969, -22.035078411 ], [ -51.00274517, -22.03509451 ], [ -51.002741094, -22.035102707 ], [ -51.002729549, -22.035127581 ], [ -51.002726026, -22.035135997 ], [ -51.002709122, -22.035178331 ], [ -51.002705588, -22.035186744 ], [ -51.00270398473463, -22.0351901741844 ] ] ] } },
{ "type": "Feature", "properties": { "Field": "001", "Length": 164.7674028349081, "id": null }, "geometry": { "type": "MultiLineString", "coordinates": [ [ [ -51.002805526014384, -22.034957593565199 ], [ -51.002798484, -22.03496824 ], [ -51.002793651, -22.034976071 ], [ -51.002779932, -22.034999966 ], [ -51.002775545, -22.035008022 ], [ -51.002733565, -22.035089449 ], [ -51.002725635, -22.035105936 ], [ -51.002721919, -22.03511428 ], [ -51.002689922386239, -22.03519021596902 ] ] ] } },
{ "type": "Feature", "properties": { "Field": "001", "Length": 165.33088654901147, "id": null }, "geometry": { "type": "MultiLineString", "coordinates": [ [ [ -51.002794312014757, -22.034957626574549 ], [ -51.002790033, -22.034963976 ], [ -51.002785109, -22.034971757 ], [ -51.002771177, -22.034995545 ], [ -51.002762151, -22.035011535 ], [ -51.002757792, -22.035019604 ], [ -51.002732708, -22.035068506 ], [ -51.002724729, -22.035084973 ], [ -51.002720928, -22.035093283 ], [ -51.002706476, -22.035126816 ], [ -51.002698614, -22.035143331 ], [ -51.002695042, -22.035151729 ], [ -51.002688182, -22.035168628 ], [ -51.002682116, -22.03518579 ], [ -51.002680174768102, -22.035190244932927 ] ] ] } },
{ "type": "Feature", "properties": { "Field": "001", "Length": 165.96772604581045, "id": null }, "geometry": { "type": "MultiLineString", "coordinates": [ [ [ -51.002779407597082, -22.034957670446957 ], [ -51.002769413, -22.034973504 ], [ -51.002764708, -22.034981402 ], [ -51.002746668, -22.035013388 ], [ -51.002742163, -22.035021387 ], [ -51.002737863, -22.035029483 ], [ -51.002725547, -22.035054034 ], [ -51.002721568, -22.035062272 ], [ -51.00269841, -22.035111993 ], [ -51.00269478, -22.03512037 ], [ -51.002684383, -22.03514568 ], [ -51.002665998, -22.035187474 ], [ -51.002664850538096, -22.035190290467082 ] ] ] } },
{ "type": "Feature", "properties": { "Field": "001", "Length": 166.63461441997487, "id": null }, "geometry": { "type": "MultiLineString", "coordinates": [ [ [ -51.002766995096991, -22.034957706984194 ], [ -51.002764735, -22.034961086 ], [ -51.002754997, -22.034976708 ], [ -51.002750352, -22.034984637 ], [ -51.002728444, -22.035024928 ], [ -51.002724301, -22.035033095 ], [ -51.0027089, -22.035066258 ], [ -51.002704875, -22.035074476 ], [ -51.002696381, -22.035090717 ], [ -51.002692401, -22.035098955 ], [ -51.00268514, -22.035115708 ], [ -51.002678455, -22.035132667 ], [ -51.002674944, -22.035141086999989 ], [ -51.00265945, -22.035174213 ], [ -51.002655807, -22.035182585 ], [ -51.002652751886401, -22.035190326416807 ] ] ] } },
{ "type": "Feature", "properties": { "Field": "001", "Length": 167.44424262430286, "id": null }, "geometry": { "type": "MultiLineString", "coordinates": [ [ [ -51.002751398776176, -22.034957752893273 ], [ -51.002743834, -22.034969579 ], [ -51.002739193, -22.03497751 ], [ -51.002730298, -22.034993563 ], [ -51.002725855, -22.035001592 ], [ -51.002721604, -22.035009711 ], [ -51.002709145, -22.035034199 ], [ -51.002685311, -22.035083643 ], [ -51.002674092, -22.035108646 ], [ -51.002667447, -22.035125619 ], [ -51.002663877, -22.035134018 ], [ -51.002648962, -22.035167374 ], [ -51.002645538, -22.035175826 ], [ -51.002639942529449, -22.035190364478311 ] ] ] } },
{ "type": "Feature", "properties": { "Field": "001", "Length": 168.14825254238187, "id": null }, "geometry": { "type": "MultiLineString", "coordinates": [ [ [ -51.00273894005079, -22.03495778956658 ], [ -51.002729253, -22.03497376 ], [ -51.002724703, -22.034981737 ], [ -51.002720345, -22.034989806 ], [ -51.002708636, -22.035014611 ], [ -51.002695345, -22.035038715 ], [ -51.002691043, -22.03504681 ], [ -51.002667984, -22.03509657 ], [ -51.002657292, -22.035121773 ], [ -51.0026536, -22.035130126 ], [ -51.002649545, -22.035138331 ], [ -51.002646282, -22.035146832 ], [ -51.002643296, -22.035155427 ], [ -51.002639967, -22.035163911 ], [ -51.002629128640109, -22.035190396610517 ] ] ] } },
{ "type": "Feature", "properties": { "Field": "001", "Length": 168.95472716629845, "id": null }, "geometry": { "type": "MultiLineString", "coordinates": [ [ [ -51.002615727607484, -22.035190436430117 ], [ -51.002632482, -22.035148145 ], [ -51.002636257, -22.035139824 ], [ -51.00265017800001, -22.035106098 ], [ -51.00268045, -22.03503956 ], [ -51.002705661, -22.034990714 ], [ -51.002709545, -22.034982437 ], [ -51.00271381, -22.034974325 ], [ -51.002718264, -22.034966301 ], [ -51.002723204606049, -22.034957835885184 ] ] ] } },
{ "type": "Feature", "properties": { "Field": "001", "Length": 169.39994143499953, "id": null }, "geometry": { "type": "MultiLineString", "coordinates": [ [ [ -51.00260501266542, -22.035190468268311 ], [ -51.002611407, -22.035174078 ], [ -51.002646849, -22.035089993 ], [ -51.002654239, -22.03507329 ], [ -51.002673396, -22.035031799 ], [ -51.002701759, -22.034974354 ], [ -51.002710631, -22.034958291 ], [ -51.002710879217538, -22.034957872166 ] ] ] } },
{ "type": "Feature", "properties": { "Field": "001", "Length": 170.00088862895893, "id": null }, "geometry": { "type": "MultiLineString", "coordinates": [ [ [ -51.002698415609977, -22.034957908853677 ], [ -51.002685204, -22.034981055 ], [ -51.002664247, -22.035021781 ], [ -51.002660228000011, -22.035030001 ], [ -51.002633735, -22.03508822 ], [ -51.00262651700001, -22.035104988 ], [ -51.002598394, -22.035172341 ], [ -51.00259507, -22.035180827 ], [ -51.002591623691487, -22.035190508052079 ] ] ] } },
{ "type": "Feature", "properties": { "Field": "001", "Length": 170.48732719466452, "id": null }, "geometry": { "type": "MultiLineString", "coordinates": [ [ [ -51.002687384849743, -22.034957941323647 ], [ -51.002676763, -22.034977643 ], [ -51.00266781, -22.034993667 ], [ -51.002654983, -22.035017989999989 ], [ -51.002650942, -22.035026201 ], [ -51.002627424, -22.035075776 ], [ -51.002623732, -22.035084129 ], [ -51.002598711, -22.035142911 ], [ -51.002581512, -22.035185142 ], [ -51.002579490987372, -22.035190544102988 ] ] ] } },
{ "type": "Feature", "properties": { "Field": "001", "Length": 132.85018435807697, "id": null }, "geometry": { "type": "MultiLineString", "coordinates": [ [ [ -51.002672685303025, -22.034957984592999 ], [ -51.002644023, -22.035011432 ], [ -51.002627561, -22.035044149 ], [ -51.002616111, -22.035069062 ], [ -51.002588122, -22.035136463 ], [ -51.002569826, -22.035178291 ], [ -51.002565463036227, -22.035190585785404 ] ] ] } },
{ "type": "Feature", "properties": { "Field": "001", "Length": 123.77530792160917, "id": null }, "geometry": { "type": "MultiLineString", "coordinates": [ [ [ -51.00255401209759, -22.035190619810525 ], [ -51.002562668, -22.035169084 ], [ -51.002594261, -22.035093296 ], [ -51.002601625, -22.035076583 ], [ -51.00262864, -22.035018573 ], [ -51.002636921, -22.035002237 ], [ -51.0026412, -22.034994131 ], [ -51.00265464, -22.034970098 ], [ -51.002658997, -22.034962028 ], [ -51.002661012058844, -22.034958018954175 ] ] ] } },
{ "type": "Feature", "properties": { "Field": "001", "Length": 114.00911784655776, "id": null }, "geometry": { "type": "MultiLineString", "coordinates": [ [ [ -51.002645975914085, -22.034958063214329 ], [ -51.00263639, -22.034976085 ], [ -51.00260396, -22.035041733 ], [ -51.002600047, -22.035049998 ], [ -51.0025895, -22.035075254 ], [ -51.002581563, -22.035091738 ], [ -51.002577872, -22.035100091 ], [ -51.002563942, -22.035133815 ], [ -51.00255769, -22.035150916 ], [ -51.002550468, -22.035167684 ], [ -51.002541713510837, -22.035190656354338 ] ] ] } },
{ "type": "Feature", "properties": { "Field": "001", "Length": 108.63011211703551, "id": null }, "geometry": { "type": "MultiLineString", "coordinates": [ [ [ -51.002634978814825, -22.034958095585218 ], [ -51.002631452, -22.034964615 ], [ -51.00262718, -22.034972724 ], [ -51.002602225, -22.035021684 ], [ -51.00259835, -22.03502996 ], [ -51.002587802, -22.035055216 ], [ -51.002584073, -22.035063552 ], [ -51.002572016, -22.035088214 ], [ -51.002568298, -22.035096551 ], [ -51.002551743, -22.035139005 ], [ -51.002548317, -22.035147455 ], [ -51.002541157, -22.035164246 ], [ -51.002537843, -22.035172731 ], [ -51.0025319, -22.03518993 ], [ -51.002531622755768, -22.035190686337835 ] ] ] } },
{ "type": "Feature", "properties": { "Field": "001", "Length": 101.63331794575952, "id": null }, "geometry": { "type": "MultiLineString", "coordinates": [ [ [ -51.002620223522563, -22.034958139018659 ], [ -51.002619945, -22.034958754 ], [ -51.002615924, -22.034966974 ], [ -51.002598663, -22.034999331 ], [ -51.002594578, -22.035007524 ], [ -51.002556298, -22.035090521 ], [ -51.002552693, -22.035098907 ], [ -51.002525809, -22.035166698 ], [ -51.002522797, -22.035175284 ], [ -51.002518007937155, -22.035190726792674 ] ] ] } },
{ "type": "Feature", "properties": { "Field": "001", "Length": 99.063968588730745, "id": null }, "geometry": { "type": "MultiLineString", "coordinates": [ [ [ -51.00260804690835, -22.034958174861547 ], [ -51.002596819, -22.034978773 ], [ -51.002592737, -22.034986967 ], [ -51.002569092, -22.035036489 ], [ -51.002546604, -22.035086476 ], [ -51.002525925, -22.035137138 ], [ -51.002506556581629, -22.035190760819034 ] ] ] } },
{ "type": "Feature", "properties": { "Field": "001", "Length": 94.906238643808905, "id": null }, "geometry": { "type": "MultiLineString", "coordinates": [ [ [ -51.00259371578931, -22.034958217046398 ], [ -51.00259062, -22.034964509 ], [ -51.002577588, -22.034988736 ], [ -51.002573512, -22.034996932 ], [ -51.00255773, -22.035029939 ], [ -51.002538771, -22.035071509 ], [ -51.002535259, -22.03507993 ], [ -51.00250802, -22.035147598 ], [ -51.002492637, -22.035190433 ], [ -51.002492494480492, -22.035190802602919 ] ] ] } },
{ "type": "Feature", "properties": { "Field": "001", "Length": 92.619897085084304, "id": null }, "geometry": { "type": "MultiLineString", "coordinates": [ [ [ -51.002582388333224, -22.034958250389717 ], [ -51.002564402, -22.034992698 ], [ -51.002556319, -22.03500912 ], [ -51.002548495, -22.035025651 ], [ -51.002533404, -22.035058938 ], [ -51.002526274, -22.035075739 ], [ -51.002501912, -22.035134762 ], [ -51.002498524, -22.035143226 ], [ -51.002491735, -22.03516193 ], [ -51.002482702, -22.035189393 ], [ -51.002482182121838, -22.035190833244886 ] ] ] } },
{ "type": "Feature", "properties": { "Field": "001", "Length": 85.744839426361807, "id": null }, "geometry": { "type": "MultiLineString", "coordinates": [ [ [ -51.002567568169582, -22.034958294014118 ], [ -51.002565611, -22.034962147 ], [ -51.002533589, -22.035027969 ], [ -51.002522239, -22.035052921 ], [ -51.002518625, -22.035061303 ], [ -51.00251191400001, -22.035078252 ], [ -51.002487625, -22.035137299999988 ], [ -51.002484631, -22.035145561 ] ] ] } },
{ "type": "Feature", "properties": { "Field": "001", "Length": 81.553776014328491, "id": null }, "geometry": { "type": "MultiLineString", "coordinates": [ [ [ -51.002557005649592, -22.03495832510578 ], [ -51.00254446, -22.034982613 ], [ -51.002536524, -22.034999098 ], [ -51.002513148, -22.03504873 ], [ -51.002505946, -22.035065504 ], [ -51.002482587, -22.035122325 ] ] ] } },
{ "type": "Feature", "properties": { "Field": "001", "Length": 76.445534792061892, "id": null }, "geometry": { "type": "MultiLineString", "coordinates": [ [ [ -51.002542158142944, -22.034958368810667 ], [ -51.002533159, -22.034975934 ], [ -51.00250205, -22.035042134 ], [ -51.002494787, -22.035058885 ], [ -51.002481113, -22.035092108 ] ] ] } },
{ "type": "Feature", "properties": { "Field": "001", "Length": 72.204820367357598, "id": null }, "geometry": { "type": "MultiLineString", "coordinates": [ [ [ -51.002481186, -22.035067367 ], [ -51.002491676, -22.035042498 ], [ -51.002507152, -22.035009367 ], [ -51.002521969, -22.034975974 ], [ -51.002525843, -22.034967694 ], [ -51.002530621490358, -22.034958402769771 ] ] ] } },
{ "type": "Feature", "properties": { "Field": "001", "Length": 62.614290694663829, "id": null }, "geometry": { "type": "MultiLineString", "coordinates": [ [ [ -51.002515365002871, -22.034958447678527 ], [ -51.002512162, -22.034964989 ], [ -51.002496253, -22.035000519 ] ] ] } },
{ "type": "Feature", "properties": { "Field": "001", "Length": 51.592734830279703, "id": null }, "geometry": { "type": "MultiLineString", "coordinates": [ [ [ -51.002493028, -22.034981987 ], [ -51.002504352397494, -22.034958480095053 ] ] ] } },
{ "type": "Feature", "properties": { "Field": "001", "Length": 148.72139062778012, "id": null }, "geometry": { "type": "MultiLineString", "coordinates": [ [ [ -51.002466217138704, -22.035190880682965 ], [ -51.002470915, -22.035131594 ], [ -51.002472573, -22.035108263 ], [ -51.002475033, -22.035068758 ], [ -51.002476237, -22.035051708 ], [ -51.002477615, -22.035035571 ], [ -51.002479229, -22.035019452 ], [ -51.002481717, -22.034997992 ], [ -51.002484297, -22.034978352 ], [ -51.002487185111079, -22.034958530628405 ] ] ] } },
{ "type": "Feature", "properties": { "Field": "001", "Length": 146.85175059199307, "id": null }, "geometry": { "type": "MultiLineString", "coordinates": [ [ [ -51.002455131648297, -22.035190913622202 ], [ -51.002456558, -22.035173165 ], [ -51.002457662, -22.035155125 ], [ -51.002458671, -22.03514614 ], [ -51.002459886, -22.035137177 ], [ -51.002460725, -22.035128176 ], [ -51.002470722, -22.035011098 ], [ -51.002478228337019, -22.034958556993423 ] ] ] } },
{ "type": "Feature", "properties": { "Field": "001", "Length": 144.66924438342392, "id": null }, "geometry": { "type": "MultiLineString", "coordinates": [ [ [ -51.002464920567078, -22.034958596165961 ], [ -51.002457513, -22.035010445 ], [ -51.002447516, -22.035127524 ], [ -51.002446677, -22.035136523 ], [ -51.002445462, -22.035145486 ], [ -51.002444453, -22.03515447 ], [ -51.002442349603093, -22.035190951602551 ] ] ] } },
{ "type": "Feature", "properties": { "Field": "001", "Length": 142.14718748933683, "id": null }, "geometry": { "type": "MultiLineString", "coordinates": [ [ [ -51.002453730932281, -22.034958629103592 ], [ -51.002449297, -22.034988264 ], [ -51.002444149, -22.035024082 ], [ -51.002443007, -22.03503305 ], [ -51.002441316, -22.035051047 ], [ -51.002436997, -22.03512321 ], [ -51.00243392, -22.035159233 ], [ -51.002431675201287, -22.035190983320287 ] ] ] } },
{ "type": "Feature", "properties": { "Field": "001", "Length": 138.29134785850326, "id": null }, "geometry": { "type": "MultiLineString", "coordinates": [ [ [ -51.002418339292859, -22.035191022946375 ], [ -51.002419715, -22.03517073 ], [ -51.002421092, -22.035152707 ], [ -51.00242342100001, -22.03512569 ], [ -51.00242519, -22.035098638 ], [ -51.002445560430864, -22.034958653154149 ] ] ] } },
{ "type": "Feature", "properties": { "Field": "001", "Length": 136.07991158417715, "id": null }, "geometry": { "type": "MultiLineString", "coordinates": [ [ [ -51.002437881213844, -22.03495867575857 ], [ -51.002419246, -22.035102035 ], [ -51.002414218, -22.035146964 ], [ -51.002411582, -22.035173955 ], [ -51.002410539, -22.035182937 ], [ -51.002409451459869, -22.035191049355532 ] ] ] } },
{ "type": "Feature", "properties": { "Field": "001", "Length": 133.25584956263273, "id": null }, "geometry": { "type": "MultiLineString", "coordinates": [ [ [ -51.002419290955601, -22.034958730480557 ], [ -51.002415773, -22.034983976 ], [ -51.002410736, -22.035025985 ], [ -51.00240585800001, -22.035073434 ], [ -51.002401126, -22.035126312 ], [ -51.00239679, -22.035179219 ], [ -51.002395853804018, -22.035191089759373 ] ] ] } },
{ "type": "Feature", "properties": { "Field": "001", "Length": 130.7398204798759, "id": null }, "geometry": { "type": "MultiLineString", "coordinates": [ [ [ -51.002409526258269, -22.034958759223766 ], [ -51.002407389, -22.034974215 ], [ -51.002404773, -22.034994757 ], [ -51.002401698, -22.035020681 ], [ -51.002397965, -22.035055583 ], [ -51.002393549, -22.035102168 ], [ -51.00238600822339, -22.035191119014364 ] ] ] } },
{ "type": "Feature", "properties": { "Field": "001", "Length": 127.45291560178988, "id": null }, "geometry": { "type": "MultiLineString", "coordinates": [ [ [ -51.002387394785124, -22.035022733300597 ], [ -51.002389695, -22.035002086 ], [ -51.002395561214705, -22.034958800331044 ] ] ] } },
{ "type": "Feature", "properties": { "Field": "002", "Length": 176.99626894737014, "id": null }, "geometry": { "type": "MultiLineString", "coordinates": [ [ [ -51.000135379222051, -22.041424263247329 ], [ -51.000149926909344, -22.041443259946426 ] ] ] } },
{ "type": "Feature", "properties": { "Field": "002", "Length": 176.48849520058019, "id": null }, "geometry": { "type": "MultiLineString", "coordinates": [ [ [ -51.000149926927065, -22.041460086716089 ], [ -51.000128282, -22.041432374 ], [ -51.000122135590544, -22.041424292367459 ] ] ] } },
{ "type": "Feature", "properties": { "Field": "002", "Length": 175.50179447760121, "id": null }, "geometry": { "type": "MultiLineString", "coordinates": [ [ [ -51.000106375039962, -22.041424327021801 ], [ -51.000149926949177, -22.041481077108273 ] ] ] } },
{ "type": "Feature", "properties": { "Field": "002", "Length": 174.57343524539189, "id": null }, "geometry": { "type": "MultiLineString", "coordinates": [ [ [ -51.000149926966891, -22.041497895054157 ], [ -51.000138454, -22.041482441 ], [ -51.000093190145769, -22.041424356012783 ] ] ] } },
{ "type": "Feature", "properties": { "Field": "002", "Length": 173.87268581938437, "id": null }, "geometry": { "type": "MultiLineString", "coordinates": [ [ [ -51.000149926990368, -22.041520182192617 ], [ -51.000145488, -22.041514498 ], [ -51.000123824, -22.04148453 ], [ -51.000084173, -22.041433217 ], [ -51.000077943775707, -22.041424389536544 ] ] ] } },
{ "type": "Feature", "properties": { "Field": "002", "Length": 173.43680931305369, "id": null }, "geometry": { "type": "MultiLineString", "coordinates": [ [ [ -51.000149927006717, -22.041535705894916 ], [ -51.000098696, -22.041469091 ], [ -51.000066512880451, -22.041424414670825 ] ] ] } },
{ "type": "Feature", "properties": { "Field": "002", "Length": 172.29130486512943, "id": null }, "geometry": { "type": "MultiLineString", "coordinates": [ [ [ -51.000138693905917, -22.041541639694984 ], [ -51.000119999, -22.041518065 ], [ -51.000109264, -22.041503022 ], [ -51.000053597, -22.04142907 ], [ -51.000049994913475, -22.041424450990576 ] ] ] } },
{ "type": "Feature", "properties": { "Field": "002", "Length": 172.45174519838824, "id": null }, "geometry": { "type": "MultiLineString", "coordinates": [ [ [ -51.000125588836674, -22.041541620500411 ], [ -51.000097306, -22.041504758 ], [ -51.000058646, -22.041452793 ], [ -51.000036500911719, -22.041424480661224 ] ] ] } },
{ "type": "Feature", "properties": { "Field": "002", "Length": 171.8881373242711, "id": null }, "geometry": { "type": "MultiLineString", "coordinates": [ [ [ -51.000110301025536, -22.04154159810885 ], [ -51.000108218, -22.041538869 ], [ -51.00009635, -22.041524584 ], [ -51.000069205, -22.041487166 ], [ -51.000020027953838, -22.04142451688201 ] ] ] } },
{ "type": "Feature", "properties": { "Field": "002", "Length": 171.6983122542496, "id": null }, "geometry": { "type": "MultiLineString", "coordinates": [ [ [ -51.00009744925552, -22.04154157928528 ], [ -51.000029137, -22.041452677 ], [ -51.000006788989921, -22.04142454599188 ] ] ] } },
{ "type": "Feature", "properties": { "Field": "002", "Length": 170.49630520000557, "id": null }, "geometry": { "type": "MultiLineString", "coordinates": [ [ [ -51.000081472550036, -22.041541555884717 ], [ -50.999991270395022, -22.041424580114207 ] ] ] } },
{ "type": "Feature", "properties": { "Field": "002", "Length": 168.25962310657027, "id": null }, "geometry": { "type": "MultiLineString", "coordinates": [ [ [ -50.999979740961479, -22.041424605465156 ], [ -51.000017518, -22.041474947 ], [ -51.000069149524926, -22.041541537835581 ] ] ] } },
{ "type": "Feature", "properties": { "Field": "002", "Length": 165.53332894408737, "id": null }, "geometry": { "type": "MultiLineString", "coordinates": [ [ [ -51.00005254302723, -22.041541513512581 ], [ -51.000051357, -22.041539976 ], [ -51.000012579, -22.041488086 ], [ -51.000006461, -22.04148108 ], [ -50.999984962, -22.041451009 ], [ -50.999963818974621, -22.041424640474464 ] ] ] } },
{ "type": "Feature", "properties": { "Field": "002", "Length": 163.39159683674086, "id": null }, "geometry": { "type": "MultiLineString", "coordinates": [ [ [ -51.000039229380334, -22.041541494012513 ], [ -51.000035154, -22.041536267 ], [ -50.999980906, -22.041461405 ], [ -50.999951975857471, -22.041424666515145 ] ] ] } },
{ "type": "Feature", "properties": { "Field": "002", "Length": 160.89935970355236, "id": null }, "geometry": { "type": "MultiLineString", "coordinates": [ [ [ -51.000023535952351, -22.041541471026857 ], [ -51.000011301, -22.04152475 ], [ -50.999977237, -22.04148082 ], [ -50.999955557, -22.041450863 ], [ -50.999935321436709, -22.041424703134929 ] ] ] } },
{ "type": "Feature", "properties": { "Field": "002", "Length": 158.59550576357069, "id": null }, "geometry": { "type": "MultiLineString", "coordinates": [ [ [ -51.000010722390044, -22.041541452259249 ], [ -51.000005717, -22.041535082999989 ], [ -50.999983488, -22.041505478 ], [ -50.999971691, -22.041491143 ], [ -50.999921840512044, -22.041424732776822 ] ] ] } },
{ "type": "Feature", "properties": { "Field": "002", "Length": 155.89571208647675, "id": null }, "geometry": { "type": "MultiLineString", "coordinates": [ [ [ -50.99999561415413, -22.041541430130707 ], [ -50.999925219, -22.04145067 ], [ -50.999906248322354, -22.04142476706097 ] ] ] } },
{ "type": "Feature", "properties": { "Field": "002", "Length": 153.64811858100609, "id": null }, "geometry": { "type": "MultiLineString", "coordinates": [ [ [ -50.999893869341847, -22.041424794279905 ], [ -50.999910939, -22.041447847 ], [ -50.999916527, -22.041455228 ], [ -50.999983494966742, -22.041541412380123 ] ] ] } },
{ "type": "Feature", "properties": { "Field": "002", "Length": 151.06382615651339, "id": null }, "geometry": { "type": "MultiLineString", "coordinates": [ [ [ -50.999967041108846, -22.041541388280692 ], [ -50.999958789, -22.041530811 ], [ -50.999925636, -22.041486279 ], [ -50.999919437, -22.041479339 ], [ -50.999896402, -22.041450277 ], [ -50.999877817521551, -22.041424829574694 ] ] ] } },
{ "type": "Feature", "properties": { "Field": "002", "Length": 148.67521290071073, "id": null }, "geometry": { "type": "MultiLineString", "coordinates": [ [ [ -50.999955404088531, -22.041541371236324 ], [ -50.999915381, -22.041489506 ], [ -50.999891841, -22.041460795 ], [ -50.999865290503855, -22.041424857119132 ] ] ] } },
{ "type": "Feature", "properties": { "Field": "002", "Length": 146.18783187151109, "id": null }, "geometry": { "type": "MultiLineString", "coordinates": [ [ [ -50.999938153178753, -22.041541345969478 ], [ -50.999924089, -22.041523282 ], [ -50.999896226, -22.041486325 ], [ -50.999884316, -22.041472071 ], [ -50.999859656222327, -22.041438936353483 ] ] ] } },
{ "type": "Feature", "properties": { "Field": "002", "Length": 140.4351231811051, "id": null }, "geometry": { "type": "MultiLineString", "coordinates": [ [ [ -51.00043745867, -22.039108093662879 ], [ -51.00043450662055, -22.039099553710955 ] ] ] } },
{ "type": "Feature", "properties": { "Field": "002", "Length": 180.81465386431429, "id": null }, "geometry": { "type": "MultiLineString", "coordinates": [ [ [ -51.000158126968259, -22.039214423647653 ], [ -51.000156557, -22.039209361 ], [ -51.000153773, -22.039200707 ], [ -51.00015075, -22.039192123 ], [ -51.000148151933672, -22.03918530007072 ] ] ] } },
{ "type": "Feature", "properties": { "Field": "002", "Length": 142.02909220838993, "id": null }, "geometry": { "type": "MultiLineString", "coordinates": [ [ [ -51.00043757042377, -22.039136150518278 ], [ -51.000424297817055, -22.03909953877611 ] ] ] } },
{ "type": "Feature", "properties": { "Field": "002", "Length": 144.12466707602428, "id": null }, "geometry": { "type": "MultiLineString", "coordinates": [ [ [ -50.999924845577418, -22.041541326478264 ], [ -50.99987358, -22.04147532 ], [ -50.999859621642585, -22.041456561660709 ] ] ] } },
{ "type": "Feature", "properties": { "Field": "002", "Length": 144.91797055635101, "id": null }, "geometry": { "type": "MultiLineString", "coordinates": [ [ [ -51.000437729073525, -22.039175981057035 ], [ -51.000437131, -22.039173895 ], [ -51.000434207, -22.039165284 ], [ -51.000412673, -22.039105314 ], [ -51.000410338310616, -22.03909951835422 ] ] ] } },
{ "type": "Feature", "properties": { "Field": "002", "Length": 176.63615732866873, "id": null }, "geometry": { "type": "MultiLineString", "coordinates": [ [ [ -51.000172299414096, -22.039214413202014 ], [ -51.000167787, -22.0392002 ], [ -51.000164814, -22.039191602 ], [ -51.000161626, -22.039183071 ], [ -51.000154578, -22.039166241 ], [ -51.000147671368232, -22.039150612442004 ] ] ] } },
{ "type": "Feature", "properties": { "Field": "002", "Length": 146.79617787498029, "id": null }, "geometry": { "type": "MultiLineString", "coordinates": [ [ [ -51.000437778508008, -22.039214217533711 ], [ -51.000432958, -22.039196032 ], [ -51.000419265, -22.039152702 ], [ -51.000407083, -22.039118396 ], [ -51.000399433240126, -22.039099502400781 ] ] ] } },
{ "type": "Feature", "properties": { "Field": "002", "Length": 148.97556871300122, "id": null }, "geometry": { "type": "MultiLineString", "coordinates": [ [ [ -51.000423658655336, -22.039214227940587 ], [ -51.000414667, -22.039181152 ], [ -51.000411855, -22.039172509 ], [ -51.000397169, -22.039129461 ], [ -51.000385255825776, -22.039099481660106 ] ] ] } },
{ "type": "Feature", "properties": { "Field": "002", "Length": 173.2075867180219, "id": null }, "geometry": { "type": "MultiLineString", "coordinates": [ [ [ -51.000182324837077, -22.039214405812892 ], [ -51.000178322, -22.039201517 ], [ -51.000172415, -22.039184309 ], [ -51.000169131, -22.039175809 ], [ -51.00016562, -22.039167388 ], [ -51.000147327, -22.039125559 ], [ -51.000147324191687, -22.039125552939073 ] ] ] } },
{ "type": "Feature", "properties": { "Field": "002", "Length": 150.57091951604372, "id": null }, "geometry": { "type": "MultiLineString", "coordinates": [ [ [ -51.000374268756353, -22.039099465586709 ], [ -51.000383304, -22.039120916 ], [ -51.000394673, -22.039155461 ], [ -51.000403778, -22.0391812 ], [ -51.000408802, -22.039198649 ], [ -51.000413743454679, -22.039214235248473 ] ] ] } },
{ "type": "Feature", "properties": { "Field": "002", "Length": 154.67472900904096, "id": null }, "geometry": { "type": "MultiLineString", "coordinates": [ [ [ -51.000361064583771, -22.039099446269823 ], [ -51.000370828, -22.039124535 ], [ -51.000374005, -22.039133069 ], [ -51.000376905, -22.039141689 ], [ -51.000398729, -22.039211042 ], [ -51.000399635427776, -22.03921424564663 ] ] ] } },
{ "type": "Feature", "properties": { "Field": "002", "Length": 141.56944141960648, "id": null }, "geometry": { "type": "MultiLineString", "coordinates": [ [ [ -50.999909211622324, -22.041541303579717 ], [ -50.999888892, -22.041515823 ], [ -50.999859581960919, -22.041476787426557 ] ] ] } },
{ "type": "Feature", "properties": { "Field": "002", "Length": 169.23985001996641, "id": null }, "geometry": { "type": "MultiLineString", "coordinates": [ [ [ -51.000194088552142, -22.039214397142583 ], [ -51.000187045, -22.039192314 ], [ -51.000184036, -22.039183726 ], [ -51.000180823, -22.039175203 ], [ -51.000177411, -22.039166747 ], [ -51.000162871, -22.039133248 ], [ -51.000155354, -22.039116594 ], [ -51.000151356, -22.039108364 ], [ -51.000146968254867, -22.03909986111184 ] ] ] } },
{ "type": "Feature", "properties": { "Field": "002", "Length": 157.66663033534303, "id": null }, "geometry": { "type": "MultiLineString", "coordinates": [ [ [ -51.000388129578987, -22.039214254126883 ], [ -51.000367917, -22.039146844 ], [ -51.000355425, -22.039112637 ], [ -51.000349837400741, -22.039099429845155 ] ] ] } },
{ "type": "Feature", "properties": { "Field": "002", "Length": 127.2907283942601, "id": null }, "geometry": { "type": "MultiLineString", "coordinates": [ [ [ -51.0003745100407, -22.039214264165008 ], [ -51.000368469, -22.039194419 ], [ -51.000361045, -22.039168215 ], [ -51.000358172, -22.039159587 ], [ -51.000345961, -22.039125289 ], [ -51.000342784, -22.039116754 ], [ -51.000339375, -22.039108297 ], [ -51.000335633190055, -22.03909940906528 ] ] ] } },
{ "type": "Feature", "properties": { "Field": "002", "Length": 165.41407742687701, "id": null }, "geometry": { "type": "MultiLineString", "coordinates": [ [ [ -51.000204609298173, -22.039214389388388 ], [ -51.0001976, -22.039191815 ], [ -51.000191643, -22.039174622 ], [ -51.000188375, -22.039166118 ], [ -51.000181405, -22.039149258 ], [ -51.000174228, -22.039132473 ], [ -51.000166918, -22.039115739 ], [ -51.000163072, -22.039107447 ], [ -51.000158971333434, -22.039099150619975 ] ] ] } },
{ "type": "Feature", "properties": { "Field": "002", "Length": 129.27207604549082, "id": null }, "geometry": { "type": "MultiLineString", "coordinates": [ [ [ -51.000364158417987, -22.039214271794549 ], [ -51.000362867, -22.039210327 ], [ -51.000352639, -22.03917547 ], [ -51.000349862, -22.039166818 ], [ -51.000330628, -22.039115663 ], [ -51.000327278, -22.039107187 ], [ -51.000323925667807, -22.039099391937903 ] ] ] } },
{ "type": "Feature", "properties": { "Field": "002", "Length": 139.53618255663818, "id": null }, "geometry": { "type": "MultiLineString", "coordinates": [ [ [ -50.999897015949209, -22.041541285717109 ], [ -50.999859549829708, -22.041493164719675 ] ] ] } },
{ "type": "Feature", "properties": { "Field": "002", "Length": 161.05115103294963, "id": null }, "geometry": { "type": "MultiLineString", "coordinates": [ [ [ -51.000218781533931, -22.039214378942905 ], [ -51.000218267, -22.039212615 ], [ -51.000215366, -22.039203995 ], [ -51.000208411, -22.039187131 ], [ -51.000205268, -22.039178585 ], [ -51.000199778, -22.039161257 ], [ -51.000196785, -22.039152664 ], [ -51.000190222, -22.039135663 ], [ -51.000186658, -22.039127262 ], [ -51.000173528681167, -22.039099171916469 ] ] ] } },
{ "type": "Feature", "properties": { "Field": "002", "Length": 132.69355507261838, "id": null }, "geometry": { "type": "MultiLineString", "coordinates": [ [ [ -51.000310154409249, -22.039099371791409 ], [ -51.000322224, -22.039128952 ], [ -51.000337909, -22.039171692 ], [ -51.000341014, -22.03918025 ], [ -51.00034363, -22.039188949 ], [ -51.000346046, -22.039197698 ], [ -51.000349401, -22.039206174 ], [ -51.000353045385609, -22.039214279985284 ] ] ] } },
{ "type": "Feature", "properties": { "Field": "002", "Length": 159.31787285959962, "id": null }, "geometry": { "type": "MultiLineString", "coordinates": [ [ [ -51.00022875874339, -22.039214371589317 ], [ -51.000222315, -22.039192775 ], [ -51.000219486, -22.039184136 ], [ -51.00021043, -22.039158381 ], [ -51.000207084, -22.039149908 ], [ -51.000189004, -22.039107998 ], [ -51.000185178, -22.039099699 ], [ -51.000184930017149, -22.039099188595912 ] ] ] } },
{ "type": "Feature", "properties": { "Field": "002", "Length": 135.07785588933325, "id": null }, "geometry": { "type": "MultiLineString", "coordinates": [ [ [ -51.000341299372977, -22.039214288642544 ], [ -51.000338006, -22.039205186 ], [ -51.000330015, -22.039179129 ], [ -51.000314793, -22.039136245 ], [ -51.000311619, -22.039127709 ], [ -51.000300419211378, -22.039099357549418 ] ] ] } },
{ "type": "Feature", "properties": { "Field": "002", "Length": 156.51255854623096, "id": null }, "geometry": { "type": "MultiLineString", "coordinates": [ [ [ -51.000243113481304, -22.039214361009325 ], [ -51.00023817000001, -22.039200477 ], [ -51.00023422, -22.039182787 ], [ -51.000225313, -22.039156987 ], [ -51.000210949, -22.039123421 ], [ -51.000199651618118, -22.039099210132701 ] ] ] } },
{ "type": "Feature", "properties": { "Field": "002", "Length": 137.6769381207657, "id": null }, "geometry": { "type": "MultiLineString", "coordinates": [ [ [ -51.000328281002972, -22.039214298237585 ], [ -51.000321072, -22.039191543 ], [ -51.000299272, -22.039131656 ], [ -51.00028605078122, -22.039099336529301 ] ] ] } },
{ "type": "Feature", "properties": { "Field": "002", "Length": 153.58757840134868, "id": null }, "geometry": { "type": "MultiLineString", "coordinates": [ [ [ -51.000254108735383, -22.0392143529054 ], [ -51.000243655, -22.039184059 ], [ -51.000235685, -22.039157996 ], [ -51.000232375, -22.039149505 ], [ -51.00021492, -22.039107366 ], [ -51.000211009803138, -22.039099226749016 ] ] ] } },
{ "type": "Feature", "properties": { "Field": "002", "Length": 138.03859696345248, "id": null }, "geometry": { "type": "MultiLineString", "coordinates": [ [ [ -51.000317429843783, -22.039214306235305 ], [ -51.000310819, -22.039194596 ], [ -51.000292198, -22.039143244 ], [ -51.000278803, -22.039109332 ], [ -51.000275309, -22.039100906 ], [ -51.000274593054719, -22.039099319767359 ] ] ] } },
{ "type": "Feature", "properties": { "Field": "002", "Length": 150.0407054057095, "id": null }, "geometry": { "type": "MultiLineString", "coordinates": [ [ [ -51.000267783053658, -22.039214342826902 ], [ -51.00026706, -22.039211694 ], [ -51.000249504, -22.039160018 ], [ -51.000236328, -22.039126031 ], [ -51.000224863970011, -22.0390992470168 ] ] ] } },
{ "type": "Feature", "properties": { "Field": "002", "Length": 147.22587239143169, "id": null }, "geometry": { "type": "MultiLineString", "coordinates": [ [ [ -51.000279036348545, -22.03921433453279 ], [ -51.000278542, -22.039212695 ], [ -51.00027563, -22.039204081 ], [ -51.000269315, -22.039186999 ], [ -51.000260493, -22.039161176 ], [ -51.000254179, -22.039144092 ], [ -51.000250865, -22.039135603 ], [ -51.000236151908688, -22.039099263530353 ] ] ] } },
{ "type": "Feature", "properties": { "Field": "002", "Length": 142.18028911157333, "id": null }, "geometry": { "type": "MultiLineString", "coordinates": [ [ [ -51.00029340681747, -22.039214323941202 ], [ -51.000288006, -22.039198221 ], [ -51.000269261, -22.039146909 ], [ -51.000265991, -22.039138405 ], [ -51.000249992719951, -22.039099283778601 ] ] ] } },
{ "type": "Feature", "properties": { "Field": "002", "Length": 140.79642297398476, "id": null }, "geometry": { "type": "MultiLineString", "coordinates": [ [ [ -51.0003034665813, -22.039214316526767 ], [ -51.000297967, -22.03919805 ], [ -51.000273072, -22.039129602 ], [ -51.000269659, -22.039121147 ], [ -51.00026024404341, -22.039099298775646 ] ] ] } },
{ "type": "Feature", "properties": { "Field": "002", "Length": 136.94141583620464, "id": null }, "geometry": { "type": "MultiLineString", "coordinates": [ [ [ -50.999880500876138, -22.041541261528018 ], [ -50.999871524, -22.041529959 ], [ -50.999861025, -22.041514773 ], [ -50.999859511256282, -22.041512825611758 ] ] ] } },
{ "type": "Feature", "properties": { "Field": "002", "Length": 135.09372655604244, "id": null }, "geometry": { "type": "MultiLineString", "coordinates": [ [ [ -50.999868090606519, -22.041541243351098 ], [ -50.999859477428501, -22.041530067645997 ] ] ] } },
{ "type": "Feature", "properties": { "Field": "003", "Length": 89.090927210345356, "id": null }, "geometry": { "type": "MultiLineString", "coordinates": [ [ [ -50.999220558813853, -22.038498756580179 ], [ -50.999224143191682, -22.038497089538254 ] ] ] } },
{ "type": "Feature", "properties": { "Field": "003", "Length": 91.184133343072588, "id": null }, "geometry": { "type": "MultiLineString", "coordinates": [ [ [ -50.999220452718255, -22.03851212530477 ], [ -50.999235689, -22.038504609 ], [ -50.99925333, -22.038497126 ], [ -50.999253896287065, -22.038496870893365 ] ] ] } },
{ "type": "Feature", "properties": { "Field": "003", "Length": 93.486339326764039, "id": null }, "geometry": { "type": "MultiLineString", "coordinates": [ [ [ -50.999279639489714, -22.038496681715749 ], [ -50.99927106, -22.038500424 ], [ -50.999253103, -22.03850721 ], [ -50.99924439, -22.038511154 ], [ -50.999227104, -22.038519326 ], [ -50.999220369607549, -22.038522597785473 ] ] ] } },
{ "type": "Feature", "properties": { "Field": "003", "Length": 95.006102678889931, "id": null }, "geometry": { "type": "MultiLineString", "coordinates": [ [ [ -50.999220255367746, -22.038536992732009 ], [ -50.999227643, -22.038533228 ], [ -50.999244768, -22.038524771 ], [ -50.99927974, -22.038509186 ], [ -50.999297429, -22.038501805 ], [ -50.999311124995174, -22.038496450339998 ] ] ] } },
{ "type": "Feature", "properties": { "Field": "003", "Length": 96.17237114473005, "id": null }, "geometry": { "type": "MultiLineString", "coordinates": [ [ [ -50.999340448246485, -22.038496234853881 ], [ -50.999336012, -22.038497917 ], [ -50.999326974, -22.038501177 ], [ -50.999308747, -22.038507318 ], [ -50.99929985, -22.0385109 ], [ -50.999256003, -22.038530123 ], [ -50.999247313, -22.038534121 ], [ -50.999220171395272, -22.038547573800908 ] ] ] } },
{ "type": "Feature", "properties": { "Field": "003", "Length": 98.653959346536297, "id": null }, "geometry": { "type": "MultiLineString", "coordinates": [ [ [ -50.99922006030387, -22.038561572028314 ], [ -50.999240125, -22.038551862 ], [ -50.999257485, -22.03854383 ], [ -50.999292405, -22.038528142 ], [ -50.9993365, -22.038509421 ], [ -50.999345456, -22.038505969 ], [ -50.999354593, -22.03850296 ], [ -50.999376943156982, -22.038495966665796 ] ] ] } },
{ "type": "Feature", "properties": { "Field": "003", "Length": 97.623603175999008, "id": null }, "geometry": { "type": "MultiLineString", "coordinates": [ [ [ -50.999411386052529, -22.038495713557239 ], [ -50.999387185, -22.038502498 ], [ -50.999377951, -22.03850523 ], [ -50.99935064, -22.038514518 ], [ -50.999341625, -22.038517832 ], [ -50.999323727, -22.038524764 ], [ -50.999306146, -22.038532365 ], [ -50.999271234, -22.038548066 ], [ -50.999228044, -22.038568537 ], [ -50.999219971418597, -22.038572772141595 ] ] ] } },
{ "type": "Feature", "properties": { "Field": "003", "Length": 99.533123477832049, "id": null }, "geometry": { "type": "MultiLineString", "coordinates": [ [ [ -50.999219854136562, -22.038587550428069 ], [ -50.999228309, -22.03858277 ], [ -50.99923684, -22.038578484 ], [ -50.999297391, -22.038549976 ], [ -50.999306169, -22.03854615 ], [ -50.999350378, -22.038527661 ], [ -50.999359464, -22.03852452 ], [ -50.999423842, -22.038504591 ], [ -50.999433131, -22.038502018 ], [ -50.999458675721719, -22.038495366042326 ] ] ] } },
{ "type": "Feature", "properties": { "Field": "003", "Length": 99.174827534753916, "id": null }, "geometry": { "type": "MultiLineString", "coordinates": [ [ [ -50.999502742046083, -22.03849504221462 ], [ -50.999498185, -22.038496027 ], [ -50.99943267, -22.038512423 ], [ -50.999349977, -22.038538265 ], [ -50.999323312, -22.038549061 ], [ -50.999236742, -22.03858966 ], [ -50.999228574, -22.03859452 ], [ -50.999219806, -22.038598366 ], [ -50.999219768130772, -22.038598387707705 ] ] ] } },
{ "type": "Feature", "properties": { "Field": "003", "Length": 99.086474346175748, "id": null }, "geometry": { "type": "MultiLineString", "coordinates": [ [ [ -50.999509896206213, -22.038506872188329 ], [ -50.999507557, -22.03850727 ], [ -50.999498058, -22.038509056 ], [ -50.999479137, -22.03851297 ], [ -50.999469744, -22.038515193 ], [ -50.999413893, -22.038530262 ], [ -50.999386169, -22.038538418 ], [ -50.999377046, -22.038541464 ], [ -50.999368043, -22.038544806 ], [ -50.999341112, -22.038555014 ], [ -50.999332252, -22.038558675 ], [ -50.999323509, -22.038562571 ], [ -50.999297399, -22.038574488 ], [ -50.999237027, -22.038603324 ], [ -50.999228534, -22.038607675 ], [ -50.999220233985184, -22.038612199033892 ] ] ] } },
{ "type": "Feature", "properties": { "Field": "003", "Length": 103.26641999789469, "id": null }, "geometry": { "type": "MultiLineString", "coordinates": [ [ [ -50.999509896174708, -22.03851602260433 ], [ -50.999507461, -22.038516675 ], [ -50.999479131, -22.03852274 ], [ -50.999432549, -22.03853517 ], [ -50.999423271, -22.038537777 ], [ -50.999377317, -22.038552094 ], [ -50.999368206, -22.038555171 ], [ -50.999341457, -22.038565782 ], [ -50.999332616, -22.038569481999989 ], [ -50.99932392, -22.038573465 ], [ -50.999263228, -22.038601713 ], [ -50.99924194900197, -22.038612135454965 ] ] ] } },
{ "type": "Feature", "properties": { "Field": "003", "Length": 107.055291169726, "id": null }, "geometry": { "type": "MultiLineString", "coordinates": [ [ [ -50.999509896135791, -22.038527326851483 ], [ -50.999497563, -22.038530725 ], [ -50.999460071, -22.038539897 ], [ -50.999423021, -22.03855052 ], [ -50.999386298, -22.038562086 ], [ -50.999377163, -22.038565103 ], [ -50.999359126, -22.038571713 ], [ -50.999350184, -22.038575195 ], [ -50.999297879, -22.03859887 ], [ -50.999270944471462, -22.03861205055976 ] ] ] } },
{ "type": "Feature", "properties": { "Field": "003", "Length": 106.16672811492319, "id": null }, "geometry": { "type": "MultiLineString", "coordinates": [ [ [ -50.999509896100164, -22.038537673802558 ], [ -50.999469306, -22.038547634 ], [ -50.999422816, -22.038560359 ], [ -50.999413632, -22.038563241 ], [ -50.999359025, -22.038581858 ], [ -50.999349827, -22.038584702 ], [ -50.999340863, -22.038588134 ], [ -50.999332192, -22.038592168 ], [ -50.999323623, -22.038596387999988 ], [ -50.999315341, -22.038601079 ], [ -50.999293133234161, -22.038611985593764 ] ] ] } },
{ "type": "Feature", "properties": { "Field": "003", "Length": 110.68999156734564, "id": null }, "geometry": { "type": "MultiLineString", "coordinates": [ [ [ -50.999317852390483, -22.038611913219082 ], [ -50.999323469, -22.038609427 ], [ -50.999358778, -22.038594516 ], [ -50.999367819, -22.038591262 ], [ -50.99942256100001, -22.038572993 ], [ -50.999431795, -22.038570254 ], [ -50.99946891, -22.038559829 ], [ -50.999478325, -22.038557691 ], [ -50.999509896053453, -22.038551242380535 ] ] ] } },
{ "type": "Feature", "properties": { "Field": "003", "Length": 111.98588705669715, "id": null }, "geometry": { "type": "MultiLineString", "coordinates": [ [ [ -50.999341392818124, -22.038611844295573 ], [ -50.999349583, -22.038607932 ], [ -50.999358675, -22.038604806 ], [ -50.999367873, -22.038601962 ], [ -50.999376998, -22.038598922 ], [ -50.999413424, -22.038586565 ], [ -50.999450299, -22.038575429 ], [ -50.999459565, -22.038572782 ], [ -50.999478271, -22.038568057 ], [ -50.999497089, -22.038563734 ], [ -50.999509896019681, -22.038561052400439 ] ] ] } },
{ "type": "Feature", "properties": { "Field": "003", "Length": 113.41454882424181, "id": null }, "geometry": { "type": "MultiLineString", "coordinates": [ [ [ -50.999509895979003, -22.03857286801599 ], [ -50.999496936, -22.038575676 ], [ -50.999487562, -22.038577964 ], [ -50.999441007, -22.038590478 ], [ -50.999431798, -22.038593289 ], [ -50.999422664, -22.038596305 ], [ -50.999377263808995, -22.03861173926968 ] ] ] } },
{ "type": "Feature", "properties": { "Field": "003", "Length": 115.02513071740167, "id": null }, "geometry": { "type": "MultiLineString", "coordinates": [ [ [ -50.999509895943447, -22.038583194730947 ], [ -50.9995063, -22.038583936 ], [ -50.999496902, -22.038586141 ], [ -50.999441025, -22.038601128 ], [ -50.999431799, -22.03860389 ], [ -50.999408686047254, -22.038611647269189 ] ] ] } },
{ "type": "Feature", "properties": { "Field": "003", "Length": 117.1486189848097, "id": null }, "geometry": { "type": "MultiLineString", "coordinates": [ [ [ -50.99950989590284, -22.038594990996813 ], [ -50.999506502, -22.038595831 ], [ -50.999497019, -22.038597692 ], [ -50.999487616, -22.038599838 ], [ -50.99944847774595, -22.038611530763937 ] ] ] } },
{ "type": "Feature", "properties": { "Field": "003", "Length": 117.19001098242366, "id": null }, "geometry": { "type": "MultiLineString", "coordinates": [ [ [ -50.999509895868222, -22.038605044908348 ], [ -50.999496736, -22.038607615 ], [ -50.999487394, -22.038610014 ], [ -50.999482559351051, -22.038611430977145 ] ] ] } },
{ "type": "Feature", "properties": { "Field": "003", "Length": 362.09416264010844, "id": null }, "geometry": { "type": "MultiLineString", "coordinates": [ [ [ -50.997662260922255, -22.037623456778199 ], [ -50.99767120300001, -22.037612189 ], [ -50.997672707619451, -22.037610174190384 ] ] ] } },
{ "type": "Feature", "properties": { "Field": "003", "Length": 361.56596410356104, "id": null }, "geometry": { "type": "MultiLineString", "coordinates": [ [ [ -50.997672778386857, -22.037592368002748 ], [ -50.997648284269495, -22.037623487347958 ] ] ] } },
{ "type": "Feature", "properties": { "Field": "003", "Length": 361.19096381193611, "id": null }, "geometry": { "type": "MultiLineString", "coordinates": [ [ [ -50.997672862349319, -22.037571241732746 ], [ -50.997658589, -22.037588648 ], [ -50.997631611526977, -22.037623523814606 ] ] ] } },
{ "type": "Feature", "properties": { "Field": "003", "Length": 361.01785562125218, "id": null }, "geometry": { "type": "MultiLineString", "coordinates": [ [ [ -50.997672929073154, -22.037554452971602 ], [ -50.997650025, -22.037582085 ], [ -50.997644162, -22.037589278 ], [ -50.997632776, -22.0376039 ], [ -50.997621591, -22.037618654999989 ], [ -50.997618169917217, -22.037623553214118 ] ] ] } },
{ "type": "Feature", "properties": { "Field": "003", "Length": 360.76466788637265, "id": null }, "geometry": { "type": "MultiLineString", "coordinates": [ [ [ -50.997673012478828, -22.037533466799772 ], [ -50.997662955, -22.037545282 ], [ -50.997628103, -22.037588671 ], [ -50.997622436, -22.037595999 ], [ -50.997602651009842, -22.0376235871571 ] ] ] } },
{ "type": "Feature", "properties": { "Field": "003", "Length": 360.320908553393, "id": null }, "geometry": { "type": "MultiLineString", "coordinates": [ [ [ -50.99767307928537, -22.037516657228043 ], [ -50.997666893, -22.037523729 ], [ -50.997660893, -22.037530823 ], [ -50.997655125, -22.037538083 ], [ -50.997638158, -22.037560091 ], [ -50.997632181, -22.037567202 ], [ -50.997619921, -22.037581196 ], [ -50.997613983, -22.037588336 ], [ -50.99760847400001, -22.037595769 ], [ -50.99758933253657, -22.037623616287288 ] ] ] } },
{ "type": "Feature", "properties": { "Field": "003", "Length": 360.25256829874127, "id": null }, "geometry": { "type": "MultiLineString", "coordinates": [ [ [ -50.997663957037808, -22.037508183208754 ], [ -50.997663886, -22.037508259 ], [ -50.997651624, -22.037522251 ], [ -50.997645775, -22.037529454 ], [ -50.997623078, -22.037558749 ], [ -50.997599669, -22.037587553 ], [ -50.997593966, -22.037594857 ], [ -50.997577304, -22.037617067 ], [ -50.997572785325367, -22.037623652479375 ] ] ] } },
{ "type": "Feature", "properties": { "Field": "003", "Length": 360.28839522931304, "id": null }, "geometry": { "type": "MultiLineString", "coordinates": [ [ [ -50.997651170928854, -22.037508248616373 ], [ -50.997632346, -22.037529927 ], [ -50.997626455, -22.037537099 ], [ -50.997609563, -22.037559157 ], [ -50.99759099900001, -22.037582148 ], [ -50.99757846, -22.037599249 ], [ -50.99756504, -22.037617977 ], [ -50.997561028729834, -22.03762367819342 ] ] ] } },
{ "type": "Feature", "properties": { "Field": "003", "Length": 360.0708010737668, "id": null }, "geometry": { "type": "MultiLineString", "coordinates": [ [ [ -50.997634679212851, -22.037508332980106 ], [ -50.997629183, -22.037514736 ], [ -50.997623317, -22.037521927 ], [ -50.997594999, -22.037558581 ], [ -50.997589257, -22.037565859 ], [ -50.997578899, -22.037578556 ], [ -50.997572047, -22.037587275 ], [ -50.997554835, -22.037610137 ], [ -50.997544906230665, -22.037623713456579 ] ] ] } },
{ "type": "Feature", "properties": { "Field": "003", "Length": 360.45007948687896, "id": null }, "geometry": { "type": "MultiLineString", "coordinates": [ [ [ -50.997622815748251, -22.03750839366792 ], [ -50.997574009, -22.037570284 ], [ -50.997554778, -22.037595126 ], [ -50.997540995, -22.037613626 ], [ -50.997533831592591, -22.037623737679045 ] ] ] } },
{ "type": "Feature", "properties": { "Field": "003", "Length": 360.18791702747177, "id": null }, "geometry": { "type": "MultiLineString", "coordinates": [ [ [ -50.997605875402442, -22.037508480326629 ], [ -50.997577875, -22.037543275 ], [ -50.997572179, -22.037550584 ], [ -50.997555435, -22.03757274 ], [ -50.997544412, -22.037587601 ], [ -50.997518846268171, -22.037623770454971 ] ] ] } },
{ "type": "Feature", "properties": { "Field": "003", "Length": 359.92539488428662, "id": null }, "geometry": { "type": "MultiLineString", "coordinates": [ [ [ -50.997591821897117, -22.037508552217641 ], [ -50.99758119, -22.037522423 ], [ -50.997563763, -22.037544115 ], [ -50.997547042, -22.037566285 ], [ -50.997535409, -22.037580734 ], [ -50.997529939, -22.037588189 ], [ -50.997505796243189, -22.037623798998009 ] ] ] } },
{ "type": "Feature", "properties": { "Field": "003", "Length": 360.47288444573371, "id": null }, "geometry": { "type": "MultiLineString", "coordinates": [ [ [ -50.997575979725617, -22.037508633258614 ], [ -50.997521115, -22.037579176 ], [ -50.997515521, -22.037586553 ], [ -50.997490929969459, -22.037623831513546 ] ] ] } },
{ "type": "Feature", "properties": { "Field": "003", "Length": 360.6775126593671, "id": null }, "geometry": { "type": "MultiLineString", "coordinates": [ [ [ -50.997562774765107, -22.037508700808878 ], [ -50.997529293, -22.03755063 ], [ -50.997496935, -22.037595667 ], [ -50.997482413, -22.037619146 ], [ -50.997479303147706, -22.037623856943753 ] ] ] } },
{ "type": "Feature", "properties": { "Field": "003", "Length": 360.76923347400776, "id": null }, "geometry": { "type": "MultiLineString", "coordinates": [ [ [ -50.997463916831229, -22.037623890596731 ], [ -50.997473697, -22.037608551 ], [ -50.9975107, -22.037555547 ], [ -50.99753959800001, -22.037519288 ], [ -50.99754727370734, -22.037508780104879 ] ] ] } },
{ "type": "Feature", "properties": { "Field": "003", "Length": 361.11035720562228, "id": null }, "geometry": { "type": "MultiLineString", "coordinates": [ [ [ -50.997451617835466, -22.037623917497115 ], [ -50.997473999, -22.037588743 ], [ -50.997500879, -22.037551159 ], [ -50.997533639313701, -22.037508849851918 ] ] ] } },
{ "type": "Feature", "properties": { "Field": "003", "Length": 360.94133725705558, "id": null }, "geometry": { "type": "MultiLineString", "coordinates": [ [ [ -50.997517323921919, -22.03750893331366 ], [ -50.997486971, -22.037548617 ], [ -50.997459914, -22.03758609 ], [ -50.997445735, -22.037609751 ], [ -50.997436518406005, -22.037623950522612 ] ] ] } },
{ "type": "Feature", "properties": { "Field": "003", "Length": 361.19450849178094, "id": null }, "geometry": { "type": "MultiLineString", "coordinates": [ [ [ -50.9975040926698, -22.037509000998419 ], [ -50.997468562, -22.037555459 ], [ -50.997457555, -22.037570331 ], [ -50.997452438, -22.037578003 ], [ -50.99743279, -22.037609155 ], [ -50.997423029448001, -22.037623980025682 ] ] ] } },
{ "type": "Feature", "properties": { "Field": "003", "Length": 330.94421390738268, "id": null }, "geometry": { "type": "MultiLineString", "coordinates": [ [ [ -50.997407358997762, -22.037624014300118 ], [ -50.997414064, -22.037613565 ], [ -50.997429017, -22.037591474 ], [ -50.997447275, -22.037565574 ], [ -50.997452691, -22.037558082 ], [ -50.997469303, -22.037535839 ], [ -50.997479893, -22.037520706 ], [ -50.997488682694268, -22.037509079828485 ] ] ] } },
{ "type": "Feature", "properties": { "Field": "003", "Length": 328.09098677659017, "id": null }, "geometry": { "type": "MultiLineString", "coordinates": [ [ [ -50.997395554993702, -22.037624040117855 ], [ -50.997401506, -22.037614748 ], [ -50.997411759, -22.037599479 ], [ -50.997423288, -22.037582828 ], [ -50.997431442, -22.037571685 ], [ -50.997458108, -22.037533972 ], [ -50.997468094, -22.037518487 ], [ -50.997473362, -22.037510907 ], [ -50.997474753581614, -22.037509151083167 ] ] ] } },
{ "type": "Feature", "properties": { "Field": "003", "Length": 82.567654007332933, "id": null }, "geometry": { "type": "MultiLineString", "coordinates": [ [ [ -50.997384228706387, -22.037624064890732 ], [ -50.997390257, -22.037613955 ], [ -50.997399919, -22.037598292 ], [ -50.997424826, -22.037559545 ], [ -50.997429993, -22.037551901 ], [ -50.997456476, -22.037514074 ], [ -50.997460290581166, -22.037509225068963 ] ] ] } },
{ "type": "Feature", "properties": { "Field": "003", "Length": 72.759709967870251, "id": null }, "geometry": { "type": "MultiLineString", "coordinates": [ [ [ -50.997382876251663, -22.03760686920549 ], [ -50.997389098, -22.037596795 ], [ -50.99741895, -22.037550278 ], [ -50.99744482, -22.037512084 ], [ -50.997446849011311, -22.037509293829604 ] ] ] } },
{ "type": "Feature", "properties": { "Field": "003", "Length": 66.112927942587262, "id": null }, "geometry": { "type": "MultiLineString", "coordinates": [ [ [ -50.99743332178214, -22.037509363028441 ], [ -50.997431157, -22.037512098 ], [ -50.997425588, -22.03751949 ], [ -50.997404206, -22.037549633 ], [ -50.997399051, -22.037557282 ], [ -50.997382876696662, -22.037582662234147 ] ] ] } },
{ "type": "Feature", "properties": { "Field": "003", "Length": 57.746328087083526, "id": null }, "geometry": { "type": "MultiLineString", "coordinates": [ [ [ -50.997421202212941, -22.037509425026361 ], [ -50.997403465, -22.037532411 ], [ -50.997398184, -22.03753998 ], [ -50.997388594, -22.037555678 ], [ -50.997382877038888, -22.037564046146215 ] ] ] } },
{ "type": "Feature", "properties": { "Field": "003", "Length": 49.425482301501205, "id": null }, "geometry": { "type": "MultiLineString", "coordinates": [ [ [ -50.997404884984327, -22.0375095084975 ], [ -50.997401216, -22.037514508 ], [ -50.997385173, -22.037537112 ], [ -50.997382877473029, -22.037540430165325 ] ] ] } },
{ "type": "Feature", "properties": { "Field": "003", "Length": 43.197694584551222, "id": null }, "geometry": { "type": "MultiLineString", "coordinates": [ [ [ -50.997382877785178, -22.037523450091115 ], [ -50.997392948677337, -22.03750956955794 ] ] ] } }
]
}
