{
"type": "FeatureCollection",
"name": "linhas_10",
"crs": { "type": "name", "properties": { "name": "urn:ogc:def:crs:OGC:1.3:CRS84" } },
"xy_coordinate_resolution": 1e-15,
"features": [
{"type":"Feature","properties":{"FID_roi10":0,"Id":0,"FID_linhas":0,"Id_1":0},"geometry":{"type":"MultiLineString","coordinates":[[[-53.012095882258556,-22.922167838334438],[-53.012088263230929,-22.922161152248975]]]}},
{"type":"Feature","properties":{"FID_roi10":0,"Id":0,"FID_linhas":1,"Id_1":0},"geometry":{"type":"MultiLineString","coordinates":[[[-53.012095780736388,-22.92217873504455],[-53.012076206507842,-22.922161209281754]]]}},
{"type":"Feature","properties":{"FID_roi10":0,"Id":0,"FID_linhas":2,"Id_1":0},"geometry":{"type":"MultiLineString","coordinates":[[[-53.012095611610256,-22.922196887917355],[-53.01205455521837,-22.922161311700361]]]}},
{"type":"Feature","properties":{"FID_roi10":0,"Id":0,"FID_linhas":3,"Id_1":0},"geometry":{"type":"MultiLineString","coordinates":[[[-53.012095504338461,-22.922208401754617],[-53.01208250382173,-22.922196751018308],[-53.012068998408054,-22.922184993964223],[-53.012041482683756,-22.922161373538273]]]}},
{"type":"Feature","properties":{"FID_roi10":0,"Id":0,"FID_linhas":4,"Id_1":0},"geometry":{"type":"MultiLineString","coordinates":[[[-53.012095357061781,-22.922224209454654],[-53.012071545276569,-22.922204129367127],[-53.012052929067266,-22.922188444738154],[-53.012020892224555,-22.922161470938761]]]}},
{"type":"Feature","properties":{"FID_roi10":0,"Id":0,"FID_linhas":5,"Id_1":0},"geometry":{"type":"MultiLineString","coordinates":[[[-53.012095241028646,-22.92223666368297],[-53.012071195041045,-22.922215808983868],[-53.012049670683147,-22.922197024691659],[-53.012009143597062,-22.922161526514127]]]}},
{"type":"Feature","properties":{"FID_roi10":0,"Id":0,"FID_linhas":6,"Id_1":0},"geometry":{"type":"MultiLineString","coordinates":[[[-53.012095074771771,-22.92225450858799],[-53.012065906765287,-22.922229692875703],[-53.012042835320223,-22.922210035250689],[-53.012016137767745,-22.922187263808844],[-53.011998638301449,-22.922172317343666],[-53.011986186231276,-22.922161635110903]]]}},
{"type":"Feature","properties":{"FID_roi10":0,"Id":0,"FID_linhas":7,"Id_1":0},"geometry":{"type":"MultiLineString","coordinates":[[[-53.012094968637292,-22.922265900356852],[-53.012074339215523,-22.922246996043537],[-53.012055834315667,-22.922230622347318],[-53.012032577463799,-22.922210477830415],[-53.012013096816545,-22.922194195178744],[-53.011997392373907,-22.922181774392303],[-53.011985574410502,-22.922172096570137],[-53.01197367718423,-22.922161694283304]]]}},
{"type":"Feature","properties":{"FID_roi10":0,"Id":0,"FID_linhas":8,"Id_1":0},"geometry":{"type":"MultiLineString","coordinates":[[[-53.012094782748207,-22.922285852451495],[-53.012064966445848,-22.922257937478626],[-53.012042499816204,-22.922238103372713],[-53.012017444091825,-22.922217045142801],[-53.011991797981587,-22.922195335702799],[-53.011952443237455,-22.922161794727668]]]}},
{"type":"Feature","properties":{"FID_roi10":0,"Id":0,"FID_linhas":9,"Id_1":0},"geometry":{"type":"MultiLineString","coordinates":[[[-53.012094677892975,-22.922297106910904],[-53.012069651564829,-22.922273814334371],[-53.012047639451964,-22.922253772123412],[-53.012020299444991,-22.922229216085853],[-53.011996136018489,-22.922208586158931],[-53.01197514917245,-22.922191882342645],[-53.011958349428475,-22.922178111896596],[-53.011939430465617,-22.922161856282873]]]}},
{"type":"Feature","properties":{"FID_roi10":0,"Id":0,"FID_linhas":10,"Id_1":0},"geometry":{"type":"MultiLineString","coordinates":[[[-53.012094516548615,-22.922314424541877],[-53.012072502273874,-22.922294098028207],[-53.01205213663328,-22.922276115262306],[-53.012026081535247,-22.922253700739624],[-53.012001989492553,-22.922232928045037],[-53.0119798605052,-22.922213797178546],[-53.011955999743655,-22.922193663683299],[-53.011917610940053,-22.922161959497288]]]}},
{"type":"Feature","properties":{"FID_roi10":0,"Id":0,"FID_linhas":11,"Id_1":0},"geometry":{"type":"MultiLineString","coordinates":[[[-53.012094418833001,-22.9223249126821],[-53.012089181661239,-22.922319634272725],[-53.012067234313371,-22.922300171613042],[-53.012026831065455,-22.922264765233255],[-53.011992209907831,-22.922234962484165],[-53.011963370840476,-22.922210763365769],[-53.011938116379575,-22.922189501919565],[-53.011905611597911,-22.92216201625855]]]}},
{"type":"Feature","properties":{"FID_roi10":0,"Id":0,"FID_linhas":12,"Id_1":0},"geometry":{"type":"MultiLineString","coordinates":[[[-53.012094244501426,-22.922343624273843],[-53.01207210470676,-22.922323385370625],[-53.01205059672548,-22.922303861363943],[-53.012022340626018,-22.922278305952737],[-53.011988582022994,-22.922248753047036],[-53.011949320916408,-22.922215202646846],[-53.011918580220083,-22.922189348729415],[-53.011885249791,-22.922162112577414]]]}},
{"type":"Feature","properties":{"FID_roi10":0,"Id":0,"FID_linhas":13,"Id_1":0},"geometry":{"type":"MultiLineString","coordinates":[[[-53.011871621583197,-22.922162177043891],[-53.0119316628329,-22.922210565843589],[-53.011971200060344,-22.922243863254664],[-53.012010247015446,-22.922278198877009],[-53.012045866879433,-22.922309804832327],[-53.012094156038771,-22.92235311926477]]]}},
{"type":"Feature","properties":{"FID_roi10":0,"Id":0,"FID_linhas":14,"Id_1":0},"geometry":{"type":"MultiLineString","coordinates":[[[-53.012093969914588,-22.922373096598424],[-53.012053636877809,-22.922336000163298],[-53.012016564484433,-22.922302719222674],[-53.011969308388863,-22.922260888298172],[-53.011921979290619,-22.922220548421311],[-53.011850876139256,-22.922162275177481]]]}},
{"type":"Feature","properties":{"FID_roi10":0,"Id":0,"FID_linhas":15,"Id_1":0},"geometry":{"type":"MultiLineString","coordinates":[[[-53.01183719410917,-22.922162339898509],[-53.011894466740408,-22.922209107496837],[-53.011941004700176,-22.92224800351682],[-53.011995898865571,-22.922294617157899],[-53.01204097945206,-22.922334130823351],[-53.01209387996343,-22.922382751358082]]]}},
{"type":"Feature","properties":{"FID_roi10":0,"Id":0,"FID_linhas":16,"Id_1":0},"geometry":{"type":"MultiLineString","coordinates":[[[-53.012083859424806,-22.922390962356541],[-53.01202626768243,-22.922339717072592],[-53.011983335311442,-22.922302433687324],[-53.011935865064373,-22.92226203043942],[-53.011896068579041,-22.922228872650305],[-53.011863945855453,-22.922202960319982],[-53.011839803379502,-22.922183113675032],[-53.011815560037036,-22.92216244223567]]]}},
{"type":"Feature","properties":{"FID_roi10":0,"Id":0,"FID_linhas":17,"Id_1":0},"geometry":{"type":"MultiLineString","coordinates":[[[-53.011803074389938,-22.922162501297404],[-53.011883152841214,-22.922227350723233],[-53.011941504386982,-22.922276699816532],[-53.012004821844343,-22.922332165052584],[-53.012045356270427,-22.922367661009069],[-53.012071983362631,-22.92239095102445]]]}},
{"type":"Feature","properties":{"FID_roi10":0,"Id":0,"FID_linhas":18,"Id_1":0},"geometry":{"type":"MultiLineString","coordinates":[[[-53.012049983763774,-22.922390930032531],[-53.01200312939006,-22.922348382126934],[-53.011968951469655,-22.922318602124847],[-53.011931831877988,-22.922287407391071],[-53.011895069205458,-22.922256640960271],[-53.011858663452074,-22.922226302832438],[-53.011825606990058,-22.92219900170106],[-53.011781046234105,-22.922162605498674]]]}},
{"type":"Feature","properties":{"FID_roi10":0,"Id":0,"FID_linhas":19,"Id_1":0},"geometry":{"type":"MultiLineString","coordinates":[[[-53.011769415947683,-22.922162660514221],[-53.011819701297568,-22.922203405560492],[-53.011859056063102,-22.922235975341408],[-53.011904242027583,-22.922273951539061],[-53.011954610562682,-22.922317434362849],[-53.012037937221258,-22.922390918537726]]]}},
{"type":"Feature","properties":{"FID_roi10":0,"Id":0,"FID_linhas":20,"Id_1":0},"geometry":{"type":"MultiLineString","coordinates":[[[-53.012014416386997,-22.922390896094168],[-53.011984493653038,-22.922363578398198],[-53.011950891360605,-22.922333771188786],[-53.011903635265035,-22.922292368567273],[-53.011860555123512,-22.922255855738136],[-53.011821650936042,-22.922224232701371],[-53.011788037384676,-22.922197009235909],[-53.011745553011792,-22.922162773394682]]]}},
{"type":"Feature","properties":{"FID_roi10":0,"Id":0,"FID_linhas":21,"Id_1":0},"geometry":{"type":"MultiLineString","coordinates":[[[-53.011733300431153,-22.922162831353919],[-53.011794182753675,-22.922211478951336],[-53.011839711045141,-22.922248717355121],[-53.011890179413072,-22.922290762431071],[-53.011937736118263,-22.92233156043336],[-53.01200470368196,-22.922390886826292]]]}},
{"type":"Feature","properties":{"FID_roi10":0,"Id":0,"FID_linhas":22,"Id_1":0},"geometry":{"type":"MultiLineString","coordinates":[[[-53.011985264996895,-22.92239086827793],[-53.01195557650496,-22.92236592711053],[-53.011929190676213,-22.922343336622028],[-53.011896211346695,-22.922314783089959],[-53.011859520057996,-22.922283695431908],[-53.01181911681013,-22.922250073647888],[-53.011778862345437,-22.922216867156553],[-53.011718703823142,-22.922167680358584]]]}},
{"type":"Feature","properties":{"FID_roi10":0,"Id":0,"FID_linhas":23,"Id_1":0},"geometry":{"type":"MultiLineString","coordinates":[[[-53.011718762942962,-22.922180253174439],[-53.01179686585057,-22.922242175039806],[-53.011860486208398,-22.922294825948175],[-53.011973244374268,-22.922390856807905]]]}},
{"type":"Feature","properties":{"FID_roi10":0,"Id":0,"FID_linhas":24,"Id_1":0},"geometry":{"type":"MultiLineString","coordinates":[[[-53.011950458867808,-22.922390835066007],[-53.011902866841417,-22.92234910791554],[-53.011864231390803,-22.922316246458472],[-53.011818688507162,-22.922278341644652],[-53.011788243303585,-22.922253214536436],[-53.011772895780062,-22.922240865133823],[-53.011753627986238,-22.922225491137546],[-53.01171884589003,-22.922197893252637]]]}},
{"type":"Feature","properties":{"FID_roi10":0,"Id":0,"FID_linhas":25,"Id_1":0},"geometry":{"type":"MultiLineString","coordinates":[[[-53.011718887482452,-22.922206738579419],[-53.011783512517312,-22.922259503965545],[-53.011828825011044,-22.922296901440461],[-53.011876366641943,-22.922336519466214],[-53.011909876194004,-22.922364952414341],[-53.011939092403857,-22.922390824220106]]]}},
{"type":"Feature","properties":{"FID_roi10":0,"Id":0,"FID_linhas":27,"Id_1":0},"geometry":{"type":"MultiLineString","coordinates":[[[-53.011917758719171,-22.9223908038635],[-53.011873169579459,-22.922353168993212],[-53.011838997206823,-22.922324277139349],[-53.011800378554668,-22.922291583345142],[-53.011765545189725,-22.922262662549386],[-53.011718973073094,-22.922224940853418]]]}},
{"type":"Feature","properties":{"FID_roi10":0,"Id":0,"FID_linhas":28,"Id_1":0},"geometry":{"type":"MultiLineString","coordinates":[[[-53.011719017693224,-22.922234430065945],[-53.011775300237581,-22.92228013253262],[-53.011821893486399,-22.922319223031614],[-53.011905390688483,-22.922390792061918]]]}},
{"type":"Feature","properties":{"FID_roi10":0,"Id":0,"FID_linhas":29,"Id_1":0},"geometry":{"type":"MultiLineString","coordinates":[[[-53.011883217217068,-22.922390770904087],[-53.011848258690662,-22.922360870207036],[-53.011819509421187,-22.92233655515815],[-53.011785316566503,-22.922307858858414],[-53.011755941544493,-22.922283422788247],[-53.01171910576047,-22.922253159027349]]]}},
{"type":"Feature","properties":{"FID_roi10":0,"Id":0,"FID_linhas":30,"Id_1":0},"geometry":{"type":"MultiLineString","coordinates":[[[-53.011719152700074,-22.92226314150788],[-53.011767517459937,-22.922303585906377],[-53.011805423567147,-22.922335490287846],[-53.011870777128912,-22.92239075903376]]]}},
{"type":"Feature","properties":{"FID_roi10":0,"Id":0,"FID_linhas":31,"Id_1":0},"geometry":{"type":"MultiLineString","coordinates":[[[-53.011849837192635,-22.922390739052855],[-53.011803186703901,-22.922350690048408],[-53.011770537295455,-22.922323408655885],[-53.011719239558865,-22.922281613482763]]]}},
{"type":"Feature","properties":{"FID_roi10":0,"Id":0,"FID_linhas":32,"Id_1":0},"geometry":{"type":"MultiLineString","coordinates":[[[-53.011719288168159,-22.922291951069461],[-53.011771941432507,-22.922334130809226],[-53.011801736681463,-22.922358825093244],[-53.011838469163983,-22.922390728205531]]]}},
{"type":"Feature","properties":{"FID_roi10":0,"Id":0,"FID_linhas":33,"Id_1":0},"geometry":{"type":"MultiLineString","coordinates":[[[-53.011816234982291,-22.922390706989702],[-53.011777546956374,-22.922357534880376],[-53.011753331250091,-22.922337311316419],[-53.011719372157152,-22.922309812733875]]]}},
{"type":"Feature","properties":{"FID_roi10":0,"Id":0,"FID_linhas":34,"Id_1":0},"geometry":{"type":"MultiLineString","coordinates":[[[-53.011719418510829,-22.922319670611056],[-53.011758696625726,-22.922352089496368],[-53.011779950438346,-22.922369845775858],[-53.011804433761313,-22.922390695729021]]]}},
{"type":"Feature","properties":{"FID_roi10":0,"Id":0,"FID_linhas":35,"Id_1":0},"geometry":{"type":"MultiLineString","coordinates":[[[-53.011783671861558,-22.922390675918024],[-53.011719504140643,-22.922337881207287]]]}},
{"type":"Feature","properties":{"FID_roi10":0,"Id":0,"FID_linhas":36,"Id_1":0},"geometry":{"type":"MultiLineString","coordinates":[[[-53.011770009523808,-22.92239066288143],[-53.011719547125459,-22.922347022652755]]]}},
{"type":"Feature","properties":{"FID_roi10":0,"Id":0,"FID_linhas":37,"Id_1":0},"geometry":{"type":"MultiLineString","coordinates":[[[-53.011747741123351,-22.922390641632916],[-53.011719639161349,-22.922366595624176]]]}},
{"type":"Feature","properties":{"FID_roi10":0,"Id":0,"FID_linhas":38,"Id_1":0},"geometry":{"type":"MultiLineString","coordinates":[[[-53.011736731294569,-22.922390631127364],[-53.011719686605794,-22.922376685472866]]]}}
]
}
