{
"type": "FeatureCollection",
"name": "2LINHAS_8",
"crs": { "type": "name", "properties": { "name": "urn:ogc:def:crs:OGC:1.3:CRS84" } },
"xy_coordinate_resolution": 1e-15,
"features": [
{"type":"Feature","properties":{"FID_roi_6":3,"id":0,"FID_c6_lin":1,"Shape_Leng":0.00044574519,"id_2":null},"geometry":{"type":"MultiLineString","coordinates":[[[-52.933147870638919,-22.928729180241824,0.0],[-52.933156709702068,-22.928698082224031,0.0],[-52.933162462120855,-22.928677186665755,0.0],[-52.933170880314059,-22.928645598008714,0.0]]]}},
{"type":"Feature","properties":{"FID_roi_6":3,"id":0,"FID_c6_lin":1,"Shape_Leng":0.00044574519,"id_2":null},"geometry":{"type":"MultiLineString","coordinates":[[[-52.933165466067152,-22.928729180241824,0.0],[-52.933171301848873,-22.928706931324019,0.0]]]}},
{"type":"Feature","properties":{"FID_roi_6":3,"id":0,"FID_c6_lin":1,"Shape_Leng":0.00044574519,"id_2":null},"geometry":{"type":"MultiLineString","coordinates":[[[-52.933102202400612,-22.928729180241824,0.0],[-52.933114616007046,-22.9286856935828,0.0],[-52.933125467901377,-22.928644257651232,0.0],[-52.933138895952439,-22.928590376894121,0.0],[-52.933151623560725,-22.92853974470545,0.0],[-52.93316966430902,-22.928468669275105,0.0]]]}},
{"type":"Feature","properties":{"FID_roi_6":3,"id":0,"FID_c6_lin":1,"Shape_Leng":0.00044574519,"id_2":null},"geometry":{"type":"MultiLineString","coordinates":[[[-52.933170655433578,-22.928612877898946,0.0],[-52.933152208447737,-22.928680468238365,0.0],[-52.933144540781328,-22.928709543824084,0.0],[-52.933139984767941,-22.928729180241824,0.0]]]}},
{"type":"Feature","properties":{"FID_roi_6":3,"id":0,"FID_c6_lin":1,"Shape_Leng":0.00044574519,"id_2":null},"geometry":{"type":"MultiLineString","coordinates":[[[-52.93312732544716,-22.928729180241824,0.0],[-52.933136487915817,-22.928693025635773,0.0],[-52.933142997407344,-22.928667040390557,0.0],[-52.933149908077958,-22.928639172970819,0.0],[-52.933157595338656,-22.928608896825668,0.0],[-52.93317029111482,-22.928559869519827,0.0]]]}},
{"type":"Feature","properties":{"FID_roi_6":3,"id":0,"FID_c6_lin":1,"Shape_Leng":0.00044574519,"id_2":null},"geometry":{"type":"MultiLineString","coordinates":[[[-52.933170077899966,-22.928528846758233,0.0],[-52.933157457758469,-22.92857889214693,0.0],[-52.933148222548532,-22.928615154176587,0.0],[-52.933138165556336,-22.928654314643438,0.0],[-52.933129422142137,-22.9286877162181,0.0],[-52.933118277387848,-22.928729180241824,0.0]]]}},
{"type":"Feature","properties":{"FID_roi_6":3,"id":0,"FID_c6_lin":1,"Shape_Leng":0.00044574519,"id_2":null},"geometry":{"type":"MultiLineString","coordinates":[[[-52.933161096674944,-22.928467613846198,0.0],[-52.933148554611023,-22.928518833112829,0.0],[-52.933138895952432,-22.928556553937096,0.0],[-52.933127940011211,-22.928597849407875,0.0],[-52.933115165641077,-22.928646167917904,0.0],[-52.93309327644252,-22.928729180241824,0.0]]]}},
{"type":"Feature","properties":{"FID_roi_6":3,"id":0,"FID_c6_lin":1,"Shape_Leng":0.00044574519,"id_2":null},"geometry":{"type":"MultiLineString","coordinates":[[[-52.933079716505389,-22.928729180241824,0.0],[-52.933092476344925,-22.928683333841605,0.0],[-52.933102713254215,-22.928644594757106,0.0],[-52.933114680513086,-22.928597680854928,0.0],[-52.933127026792476,-22.928547583540226,0.0],[-52.933146114742321,-22.928467662449389,0.0]]]}},
{"type":"Feature","properties":{"FID_roi_6":3,"id":0,"FID_c6_lin":1,"Shape_Leng":0.00044574519,"id_2":null},"geometry":{"type":"MultiLineString","coordinates":[[[-52.933137515156353,-22.928467690347478,0.0],[-52.933122854260674,-22.928527701267598,0.0],[-52.933113360181707,-22.928564981584188,0.0],[-52.933104145954218,-22.928599534937291,0.0],[-52.933092329584269,-22.928644903770838,0.0],[-52.933070701815666,-22.928729180241824,0.0]]]}},
{"type":"Feature","properties":{"FID_roi_6":3,"id":0,"FID_c6_lin":1,"Shape_Leng":0.00044574519,"id_2":null},"geometry":{"type":"MultiLineString","coordinates":[[[-52.933055554509252,-22.928729180241824,0.0],[-52.933072193122293,-22.928667995523881,0.0],[-52.933083442034508,-22.928626053933488,0.0],[-52.933094847450235,-22.928582960564661,0.0],[-52.93310639213982,-22.928537994024687,0.0],[-52.933123918084945,-22.928467734458007,0.0]]]}},
{"type":"Feature","properties":{"FID_roi_6":3,"id":0,"FID_c6_lin":1,"Shape_Leng":0.00044574519,"id_2":null},"geometry":{"type":"MultiLineString","coordinates":[[[-52.933114030549731,-22.928467766534361,0.0],[-52.933100380644234,-22.928524096426067,0.0],[-52.933089790861978,-22.92856607717831,0.0],[-52.933077711234468,-22.928612485421663,0.0],[-52.933065924041706,-22.92865906221796,0.0],[-52.933048681904694,-22.928729180241824,0.0]]]}},
{"type":"Feature","properties":{"FID_roi_6":3,"id":0,"FID_c6_lin":1,"Shape_Leng":0.00044574519,"id_2":null},"geometry":{"type":"MultiLineString","coordinates":[[[-52.933032296712575,-22.928729180241824,0.0],[-52.933037471843569,-22.928707774018193,0.0],[-52.933045208608824,-22.928678277253351,0.0],[-52.933057232052015,-22.928633554539417,0.0],[-52.933067317136377,-22.92859509637649,0.0],[-52.933075463861897,-22.928562902764575,0.0],[-52.933084573516766,-22.928527057739338,0.0],[-52.93309968239307,-22.9284678130815,0.0]]]}},
{"type":"Feature","properties":{"FID_roi_6":3,"id":0,"FID_c6_lin":1,"Shape_Leng":0.00044574519,"id_2":null},"geometry":{"type":"MultiLineString","coordinates":[[[-52.933022866578405,-22.928729180241824,0.0],[-52.933044721827706,-22.92864701068261,0.0],[-52.933058664752011,-22.928593972690205,0.0],[-52.933071980434427,-22.928542676411539,0.0],[-52.933081689143478,-22.928504731644555,0.0],[-52.93309084174701,-22.92846784176162,0.0]]]}},
{"type":"Feature","properties":{"FID_roi_6":3,"id":0,"FID_c6_lin":1,"Shape_Leng":0.00044574519,"id_2":null},"geometry":{"type":"MultiLineString","coordinates":[[[-52.93307438940527,-22.92846789513499,0.0],[-52.933060720763848,-22.92852463423505,0.0],[-52.933050152828443,-22.928567622246948,0.0],[-52.933038129385245,-22.928615772204036,0.0],[-52.933026122156313,-22.92866218044739,0.0],[-52.93300813563431,-22.928729180241824,0.0]]]}},
{"type":"Feature","properties":{"FID_roi_6":3,"id":0,"FID_c6_lin":1,"Shape_Leng":0.00044574519,"id_2":null},"geometry":{"type":"MultiLineString","coordinates":[[[-52.932999099186432,-22.928729180241824,0.0],[-52.933011727232511,-22.928680215612175,0.0],[-52.933022004487114,-22.928640409025714,0.0],[-52.933034140298936,-22.928593438939224,0.0],[-52.933045292885261,-22.928550514123337,0.0],[-52.933055462246088,-22.928511634578054,0.0],[-52.933061999469814,-22.928486126402248,0.0],[-52.933066357099747,-22.928467921192755,0.0]]]}},
{"type":"Feature","properties":{"FID_roi_6":3,"id":0,"FID_c6_lin":1,"Shape_Leng":0.00044574519,"id_2":null},"geometry":{"type":"MultiLineString","coordinates":[[[-52.933050956178455,-22.92846797115519,0.0],[-52.933036490186446,-22.92852541172833,0.0],[-52.933025937389083,-22.928568521195963,0.0],[-52.93301447578903,-22.928616446415795,0.0],[-52.933002867554094,-22.928662601829735,0.0],[-52.932985235249355,-22.928729180241824,0.0]]]}},
{"type":"Feature","properties":{"FID_roi_6":3,"id":0,"FID_c6_lin":1,"Shape_Leng":0.00044574519,"id_2":null},"geometry":{"type":"MultiLineString","coordinates":[[[-52.932975492713105,-22.928729180241824,0.0],[-52.932991330061164,-22.928672293623904,0.0],[-52.933002143332111,-22.928630632955077,0.0],[-52.933013211641963,-22.928585236029377,0.0],[-52.933024797178845,-22.92853890245587,0.0],[-52.933042951324701,-22.928467997123896,0.0]]]}},
{"type":"Feature","properties":{"FID_roi_6":3,"id":0,"FID_c6_lin":1,"Shape_Leng":0.00044574519,"id_2":null},"geometry":{"type":"MultiLineString","coordinates":[[[-52.933028040571415,-22.928468045496171,0.0],[-52.933013653161083,-22.928527874331238,0.0],[-52.933002901820352,-22.928571386595976,0.0],[-52.932990990745793,-22.928618525235414,0.0],[-52.932979229496063,-22.928663865976802,0.0],[-52.93296181235872,-22.928729180241824,0.0]]]}},
{"type":"Feature","properties":{"FID_roi_6":3,"id":0,"FID_c6_lin":1,"Shape_Leng":0.00044574519,"id_2":null},"geometry":{"type":"MultiLineString","coordinates":[[[-52.932954051091642,-22.928729180241824,0.0],[-52.932970294232206,-22.928664793017987,0.0],[-52.932985147577142,-22.928606586068689,0.0],[-52.933004025506634,-22.928533096985994,0.0],[-52.933015186560894,-22.928489281942515,0.0],[-52.933020352829431,-22.928468070436129,0.0]]]}},
{"type":"Feature","properties":{"FID_roi_6":3,"id":0,"FID_c6_lin":1,"Shape_Leng":0.00044574519,"id_2":null},"geometry":{"type":"MultiLineString","coordinates":[[[-52.933004820570851,-22.92846812082464,0.0],[-52.932993015502056,-22.928517105775072,0.0],[-52.932981411320263,-22.928563155593977,0.0],[-52.932966073002547,-22.928622598598178,0.0],[-52.932953525415009,-22.928671535135663,0.0],[-52.932938890128987,-22.928729180241824,0.0]]]}},
{"type":"Feature","properties":{"FID_roi_6":3,"id":0,"FID_c6_lin":1,"Shape_Leng":0.00044574519,"id_2":null},"geometry":{"type":"MultiLineString","coordinates":[[[-52.932930006446526,-22.928729180241824,0.0],[-52.932948439094382,-22.928656533923828,0.0],[-52.932960482663304,-22.928609226731449,0.0],[-52.932972281369238,-22.928563043225346,0.0],[-52.932982656399112,-22.928522000896468,0.0],[-52.932996083429835,-22.928468149168975,0.0]]]}},
{"type":"Feature","properties":{"FID_roi_6":3,"id":0,"FID_c6_lin":1,"Shape_Leng":0.00044574519,"id_2":null},"geometry":{"type":"MultiLineString","coordinates":[[[-52.932912475314993,-22.928729180241824,0.0],[-52.93297977403175,-22.928468202078619,0.0]]]}},
{"type":"Feature","properties":{"FID_roi_6":3,"id":0,"FID_c6_lin":1,"Shape_Leng":0.00044574519,"id_2":null},"geometry":{"type":"MultiLineString","coordinates":[[[-52.932971987676787,-22.928468227338488,0.0],[-52.932952613666636,-22.928546544891901,0.0],[-52.932939722559304,-22.928596360523542,0.0],[-52.932926856351393,-22.928643780084546,0.0],[-52.932916384558922,-22.928682912459244,0.0],[-52.932904268493346,-22.928729180241824,0.0]]]}},
{"type":"Feature","properties":{"FID_roi_6":3,"id":0,"FID_c6_lin":1,"Shape_Leng":0.00044574519,"id_2":null},"geometry":{"type":"MultiLineString","coordinates":[[[-52.932888491014729,-22.928729180241824,0.0],[-52.932910586106907,-22.928644482388471,0.0],[-52.932923878582756,-22.928592961372541,0.0],[-52.932935733473009,-22.928546384576251,0.0],[-52.932945313850325,-22.928509391713561,0.0],[-52.932956272646884,-22.928468278319933,0.0]]]}},
{"type":"Feature","properties":{"FID_roi_6":3,"id":0,"FID_c6_lin":1,"Shape_Leng":0.00044574519,"id_2":null},"geometry":{"type":"MultiLineString","coordinates":[[[-52.932945655097242,-22.928468312764537,0.0],[-52.932931787798168,-22.928527266936559,0.0],[-52.932922726804335,-22.928565992901831,0.0],[-52.93291384968272,-22.928604142051025,0.0],[-52.932902285982209,-22.928649707529672,0.0],[-52.932880910563085,-22.928729180241824,0.0]]]}},
{"type":"Feature","properties":{"FID_roi_6":3,"id":0,"FID_c6_lin":1,"Shape_Leng":0.00044574519,"id_2":null},"geometry":{"type":"MultiLineString","coordinates":[[[-52.932867056495674,-22.928729180241824,0.0],[-52.932879691706447,-22.928679794229815,0.0],[-52.932889662335555,-22.928640886592369,0.0],[-52.93290118011992,-22.928595995325491,0.0],[-52.932913676742203,-22.928547250002076,0.0],[-52.932933889932514,-22.928468350932146,0.0]]]}},
{"type":"Feature","properties":{"FID_roi_6":3,"id":0,"FID_c6_lin":1,"Shape_Leng":0.00044574519,"id_2":null},"geometry":{"type":"MultiLineString","coordinates":[[[-52.932927070140614,-22.928468373056369,0.0],[-52.932915090023663,-22.92851447198592,0.0],[-52.932906658090545,-22.928547199248797,0.0],[-52.932897780968943,-22.928581921154841,0.0],[-52.932885010669231,-22.928631756641352,0.0],[-52.932860015452512,-22.928729180241824,0.0]]]}},
{"type":"Feature","properties":{"FID_roi_6":3,"id":0,"FID_c6_lin":1,"Shape_Leng":0.00044574519,"id_2":null},"geometry":{"type":"MultiLineString","coordinates":[[[-52.932843976020315,-22.928729180241824,0.0],[-52.932860142384598,-22.928668164076818,0.0],[-52.932870643945265,-22.928628188937413,0.0],[-52.932880869490418,-22.928588916101937,0.0],[-52.932892122952445,-22.928544066429609,0.0],[-52.93291054502081,-22.928468426665841,0.0]]]}},
{"type":"Feature","properties":{"FID_roi_6":3,"id":0,"FID_c6_lin":1,"Shape_Leng":0.00044574519,"id_2":null},"geometry":{"type":"MultiLineString","coordinates":[[[-52.932902412337889,-22.928468453049241,0.0],[-52.932889752675827,-22.928521234101822,0.0],[-52.932880082910017,-22.928559672166507,0.0],[-52.932869183153102,-22.928601360927487,0.0],[-52.932859069976587,-22.928639819090414,0.0],[-52.932849743380466,-22.928675046655275,0.0],[-52.932842845479009,-22.928701790388736,0.0],[-52.932836141668808,-22.928729180241824,0.0]]]}},
{"type":"Feature","properties":{"FID_roi_6":3,"id":0,"FID_c6_lin":1,"Shape_Leng":0.00044574519,"id_2":null},"geometry":{"type":"MultiLineString","coordinates":[[[-52.932820506639793,-22.928729180241824,0.0],[-52.932832447433476,-22.928683249565118,0.0],[-52.932842046129437,-22.928647684894358,0.0],[-52.932853282992248,-22.928607176003979,0.0],[-52.932863873735435,-22.928566835666537,0.0],[-52.932873818359013,-22.928526663882032,0.0],[-52.932881044733477,-22.92849705860008,0.0],[-52.932887806921507,-22.928468500430963,0.0]]]}},
{"type":"Feature","properties":{"FID_roi_6":3,"id":0,"FID_c6_lin":1,"Shape_Leng":0.00044574519,"id_2":null},"geometry":{"type":"MultiLineString","coordinates":[[[-52.932812779939169,-22.928729180241824,0.0],[-52.932827566081841,-22.928673642047428,0.0],[-52.932840753890218,-22.928623385178557,0.0],[-52.932857272078529,-22.928559896903753,0.0],[-52.932869473039666,-22.928513244960918,0.0],[-52.932881298640609,-22.928468521544609,0.0]]]}},
{"type":"Feature","properties":{"FID_roi_6":3,"id":0,"FID_c6_lin":1,"Shape_Leng":0.00044574519,"id_2":null},"geometry":{"type":"MultiLineString","coordinates":[[[-52.932864175321328,-22.928468577094712,0.0],[-52.932851455145091,-22.928517304119048,0.0],[-52.932841034811801,-22.928557396701777,0.0],[-52.932828674262723,-22.928605097184352,0.0],[-52.932815647484347,-22.928654005629689,0.0],[-52.932795107972822,-22.928729180241824,0.0]]]}},
{"type":"Feature","properties":{"FID_roi_6":3,"id":0,"FID_c6_lin":1,"Shape_Leng":0.00044574519,"id_2":null},"geometry":{"type":"MultiLineString","coordinates":[[[-52.932786861922004,-22.928729180241824,0.0],[-52.932802545753937,-22.928673810600365,0.0],[-52.932813982064609,-22.928631054337416,0.0],[-52.932826398797992,-22.928582454905818,0.0],[-52.932838121040426,-22.928535768381238,0.0],[-52.932854662667637,-22.928468607954901,0.0]]]}},
{"type":"Feature","properties":{"FID_roi_6":3,"id":0,"FID_c6_lin":1,"Shape_Leng":0.00044574519,"id_2":null},"geometry":{"type":"MultiLineString","coordinates":[[[-52.932840409287131,-22.928468654194578,0.0],[-52.932828658342331,-22.92851437371753,0.0],[-52.932817943058737,-22.928555964001774,0.0],[-52.932804346454752,-22.928608664888294,0.0],[-52.932790938859711,-22.928658556559121,0.0],[-52.932771110980539,-22.928729180241824,0.0]]]}},
{"type":"Feature","properties":{"FID_roi_6":3,"id":0,"FID_c6_lin":1,"Shape_Leng":0.00044574519,"id_2":null},"geometry":{"type":"MultiLineString","coordinates":[[[-52.932764809240041,-22.928729180241824,0.0],[-52.932777311889232,-22.928683418118055,0.0],[-52.932787575437033,-22.928644032913944,0.0],[-52.932799767433174,-22.928595770588231,0.0],[-52.932812564245502,-22.928545899397154,0.0],[-52.932832666688284,-22.928468679312498,0.0]]]}},
{"type":"Feature","properties":{"FID_roi_6":3,"id":0,"FID_c6_lin":1,"Shape_Leng":0.00044574519,"id_2":null},"geometry":{"type":"MultiLineString","coordinates":[[[-52.932747253296121,-22.928729180241824,0.0],[-52.932777221003292,-22.928621390635413,0.0],[-52.932794433963068,-22.928556278834996,0.0],[-52.932816105135238,-22.928468733040166,0.0]]]}},
{"type":"Feature","properties":{"FID_roi_6":3,"id":0,"FID_c6_lin":1,"Shape_Leng":0.00044574519,"id_2":null},"geometry":{"type":"MultiLineString","coordinates":[[[-52.932809498722825,-22.92846875447216,0.0],[-52.932784186159935,-22.928566228816578,0.0],[-52.932766740248198,-22.928631335258991,0.0],[-52.93273971507589,-22.928729180241824,0.0]]]}},
{"type":"Feature","properties":{"FID_roi_6":3,"id":0,"FID_c6_lin":1,"Shape_Leng":0.00044574519,"id_2":null},"geometry":{"type":"MultiLineString","coordinates":[[[-52.932725403413677,-22.928729180241824,0.0],[-52.93275018375612,-22.928635043423718,0.0],[-52.932767019357598,-22.928569950568409,0.0],[-52.932792745819611,-22.92846880882059,0.0]]]}},
{"type":"Feature","properties":{"FID_roi_6":3,"id":0,"FID_c6_lin":1,"Shape_Leng":0.00044574519,"id_2":null},"geometry":{"type":"MultiLineString","coordinates":[[[-52.93278514755211,-22.92846883347028,0.0],[-52.932759220437745,-22.928569282519064,0.0],[-52.932742562271095,-22.928634369211949,0.0],[-52.932718514885494,-22.928729180241824,0.0]]]}},
{"type":"Feature","properties":{"FID_roi_6":3,"id":0,"FID_c6_lin":1,"Shape_Leng":0.00044574519,"id_2":null},"geometry":{"type":"MultiLineString","coordinates":[[[-52.93270082792305,-22.928729180241824,0.0],[-52.932718082730389,-22.9286626861062,0.0],[-52.932731138293654,-22.928612260684389,0.0],[-52.932745746215296,-22.928555739264517,0.0],[-52.93275686947203,-22.928512830925186,0.0],[-52.932768327359781,-22.928468888037003,0.0]]]}},
{"type":"Feature","properties":{"FID_roi_6":3,"id":0,"FID_c6_lin":1,"Shape_Leng":0.00044574519,"id_2":null},"geometry":{"type":"MultiLineString","coordinates":[[[-52.932760531454022,-22.928468913327858,0.0],[-52.932733177166078,-22.928570988012879,0.0],[-52.932716205672108,-22.928636054741368,0.0],[-52.932692645478127,-22.928729180241824,0.0]]]}},
{"type":"Feature","properties":{"FID_roi_6":3,"id":0,"FID_c6_lin":1,"Shape_Leng":0.00044574519,"id_2":null},"geometry":{"type":"MultiLineString","coordinates":[[[-52.932678256201662,-22.928729180241824,0.0],[-52.932701146752933,-22.92864161698845,0.0],[-52.932717917469496,-22.928576562581441,0.0],[-52.932745339067907,-22.928468962613781,0.0]]]}},
{"type":"Feature","properties":{"FID_roi_6":3,"id":0,"FID_c6_lin":1,"Shape_Leng":0.00044574519,"id_2":null},"geometry":{"type":"MultiLineString","coordinates":[[[-52.932738202120483,-22.928468985766894,0.0],[-52.932716807444407,-22.928551791087251,0.0],[-52.932700301904788,-22.928616839705981,0.0],[-52.932672179962005,-22.928729180241824,0.0]]]}},
{"type":"Feature","properties":{"FID_roi_6":3,"id":0,"FID_c6_lin":1,"Shape_Leng":0.00044574519,"id_2":null},"geometry":{"type":"MultiLineString","coordinates":[[[-52.932657065527799,-22.928729180241824,0.0],[-52.932672588778473,-22.928663023212081,0.0],[-52.93268876005888,-22.928597987935984,0.0],[-52.932721750649407,-22.928469039137443,0.0]]]}},
{"type":"Feature","properties":{"FID_roi_6":3,"id":0,"FID_c6_lin":1,"Shape_Leng":0.00044574519,"id_2":null},"geometry":{"type":"MultiLineString","coordinates":[[[-52.932714344750792,-22.928469063163067,0.0],[-52.932687919901873,-22.928569508495197,0.0],[-52.932670627440132,-22.928634537764886,0.0],[-52.932645174903833,-22.928729180241824,0.0]]]}},
{"type":"Feature","properties":{"FID_roi_6":3,"id":0,"FID_c6_lin":1,"Shape_Leng":0.00044574519,"id_2":null},"geometry":{"type":"MultiLineString","coordinates":[[[-52.932631290067249,-22.928729180241824,0.0],[-52.932663363789814,-22.928606979358875,0.0],[-52.932680164558889,-22.928541962945317,0.0],[-52.932698493143569,-22.928469114587582,0.0]]]}},
{"type":"Feature","properties":{"FID_roi_6":3,"id":0,"FID_c6_lin":1,"Shape_Leng":0.00044574519,"id_2":null},"geometry":{"type":"MultiLineString","coordinates":[[[-52.93269152248601,-22.928469137201233,0.0],[-52.932674208070956,-22.928533878057515,0.0],[-52.932657054457948,-22.92859888881766,0.0],[-52.932622908033984,-22.928729180241824,0.0]]]}},
{"type":"Feature","properties":{"FID_roi_6":3,"id":0,"FID_c6_lin":1,"Shape_Leng":0.00044574519,"id_2":null},"geometry":{"type":"MultiLineString","coordinates":[[[-52.932615454791211,-22.928701115757555,0.0],[-52.932645415076621,-22.928585299131861,0.0],[-52.932660256965363,-22.928527318037091,0.0],[-52.932674822346172,-22.92846919137849,0.0]]]}},
{"type":"Feature","properties":{"FID_roi_6":3,"id":0,"FID_c6_lin":1,"Shape_Leng":0.00044574519,"id_2":null},"geometry":{"type":"MultiLineString","coordinates":[[[-52.932666626366839,-22.928469217967233,0.0],[-52.93264286965281,-22.928559686849141,0.0],[-52.932630076758905,-22.928608612277081,0.0],[-52.932615454791211,-22.928664919679001,0.0]]]}},
{"type":"Feature","properties":{"FID_roi_6":3,"id":0,"FID_c6_lin":1,"Shape_Leng":0.00044574519,"id_2":null},"geometry":{"type":"MultiLineString","coordinates":[[[-52.932615454791211,-22.928618834249029,0.0],[-52.932637155982469,-22.928532029483989,0.0],[-52.932646777758762,-22.928494635701025,0.0],[-52.932653941896383,-22.928469259117175,0.0]]]}},
{"type":"Feature","properties":{"FID_roi_6":3,"id":0,"FID_c6_lin":1,"Shape_Leng":0.00044574519,"id_2":null},"geometry":{"type":"MultiLineString","coordinates":[[[-52.932644469805204,-22.928469289845776,0.0],[-52.932615454791211,-22.928576926188047,0.0]]]}},
{"type":"Feature","properties":{"FID_roi_6":3,"id":0,"FID_c6_lin":1,"Shape_Leng":0.00044574519,"id_2":null},"geometry":{"type":"MultiLineString","coordinates":[[[-52.932615454791211,-22.928520584587371,0.0],[-52.93262844096558,-22.928469341845258,0.0]]]}},
{"type":"Feature","properties":{"FID_roi_6":3,"id":0,"FID_c6_lin":1,"Shape_Leng":0.00044574519,"id_2":null},"geometry":{"type":"MultiLineString","coordinates":[[[-52.932619918181373,-22.928469369494191,0.0],[-52.932615454791211,-22.928486630569424,0.0]]]}}
]
}
