{
"type": "FeatureCollection",
"name": "LINHAS_11",
"crs": { "type": "name", "properties": { "name": "urn:ogc:def:crs:OGC:1.3:CRS84" } },
"xy_coordinate_resolution": 1e-15,
"features": [
{"type":"Feature","properties":{"FID_roi":1,"Id":0,"FID_LINHAS":119,"Shape_Leng":0.00030183603},"geometry":{"type":"MultiLineString","coordinates":[[[-53.098177363789809,-22.820944122907264,0.0],[-53.098246471446338,-22.82093279854335,0.0],[-53.098302127866567,-22.820923497463266,0.0],[-53.098399989470721,-22.820906918586928,0.0]]]}},
{"type":"Feature","properties":{"FID_roi":1,"Id":0,"FID_LINHAS":120,"Shape_Leng":0.00039022746},"geometry":{"type":"MultiLineString","coordinates":[[[-53.098061364566334,-22.820944453389394,0.0],[-53.098214732530394,-22.82091779211374,0.0],[-53.09829936284067,-22.820902922897329,0.0],[-53.098399885807417,-22.82088497652374,0.0]]]}},
{"type":"Feature","properties":{"FID_roi":1,"Id":0,"FID_LINHAS":121,"Shape_Leng":0.00042294527},"geometry":{"type":"MultiLineString","coordinates":[[[-53.098024326374357,-22.820933099312782,0.0],[-53.098111558130043,-22.820917335898741,0.0],[-53.098205425328906,-22.820900508957699,0.0],[-53.09839979516979,-22.82086579154862,0.0]]]}},
{"type":"Feature","properties":{"FID_roi":1,"Id":0,"FID_LINHAS":122,"Shape_Leng":0.00024292001},"geometry":{"type":"MultiLineString","coordinates":[[[-53.098400074132151,-22.820924838588855,0.0],[-53.098374532090936,-22.820929119377912,0.0],[-53.098347674686906,-22.820933858348752,0.0],[-53.098292644516015,-22.820943794472207,0.0]]]}},
{"type":"Feature","properties":{"FID_roi":1,"Id":0,"FID_LINHAS":123,"Shape_Leng":0.00042114603},"geometry":{"type":"MultiLineString","coordinates":[[[-53.098024326374357,-22.820910927497199,0.0],[-53.098126127147239,-22.820891618228547,0.0],[-53.098188328678404,-22.820880565810434,0.0],[-53.098244864558829,-22.820871333819973,0.0],[-53.098304772652739,-22.820861085792746,0.0],[-53.098399693113826,-22.820844189696757,0.0]]]}},
{"type":"Feature","properties":{"FID_roi":1,"Id":0,"FID_LINHAS":124,"Shape_Leng":0.00029876965},"geometry":{"type":"MultiLineString","coordinates":[[[-53.098400034771728,-22.820916507291869,0.0],[-53.098359959978637,-22.82092332482674,0.0],[-53.098318806363039,-22.820930187379801,0.0],[-53.098235420309308,-22.820943957504106,0.0]]]}},
{"type":"Feature","properties":{"FID_roi":1,"Id":0,"FID_LINHAS":125,"Shape_Leng":0.00045882975},"geometry":{"type":"MultiLineString","coordinates":[[[-53.098024326374357,-22.820890608080649,0.0],[-53.098072874691596,-22.820882255353204,0.0],[-53.098116040722672,-22.820874093614542,0.0],[-53.098170007240014,-22.820863338622182,0.0],[-53.098224735033469,-22.820853249802624,0.0],[-53.098280224103029,-22.820843827155869,0.0],[-53.098330873581595,-22.820834843878703,0.0],[-53.098399588412953,-22.820822028017332,0.0]]]}},
{"type":"Feature","properties":{"FID_roi":1,"Id":0,"FID_LINHAS":126,"Shape_Leng":0.00033651331},"geometry":{"type":"MultiLineString","coordinates":[[[-53.098399951314484,-22.820898842183915,0.0],[-53.098319107420238,-22.82091291232004,0.0],[-53.098252028750593,-22.820924265070069,0.0],[-53.09813163663592,-22.820944253184031,0.0]]]}},
{"type":"Feature","properties":{"FID_roi":1,"Id":0,"FID_LINHAS":127,"Shape_Leng":0.0004320671},"geometry":{"type":"MultiLineString","coordinates":[[[-53.0983998557615,-22.820878616802812,0.0],[-53.098308777975916,-22.820894051831001,0.0],[-53.098214895629127,-22.820910462648747,0.0],[-53.098024326374357,-22.820944260073809,0.0]]]}},
{"type":"Feature","properties":{"FID_roi":1,"Id":0,"FID_LINHAS":128,"Shape_Leng":0.00042280961},"geometry":{"type":"MultiLineString","coordinates":[[[-53.098024326374357,-22.820867571197848,0.0],[-53.098119274313206,-22.820849799083071,0.0],[-53.098182951182181,-22.820838069021658,0.0],[-53.098247006294237,-22.820826456975354,0.0],[-53.098309145405828,-22.820815262200359,0.0],[-53.098399480072509,-22.820799095944825,0.0]]]}},
{"type":"Feature","properties":{"FID_roi":1,"Id":0,"FID_LINHAS":129,"Shape_Leng":0.00044216775},"geometry":{"type":"MultiLineString","coordinates":[[[-53.098399752775165,-22.820856818012839,0.0],[-53.098326624906008,-22.820871140222192,0.0],[-53.098232768305806,-22.820888121493692,0.0],[-53.098024326374357,-22.820924743098839,0.0]]]}},
{"type":"Feature","properties":{"FID_roi":1,"Id":0,"FID_LINHAS":130,"Shape_Leng":0.00042409048},"geometry":{"type":"MultiLineString","coordinates":[[[-53.098024326374357,-22.820844315284297,0.0],[-53.098136264080452,-22.820824996818935,0.0],[-53.098212123840369,-22.82081156172914,0.0],[-53.098289218222817,-22.820797570526455,0.0],[-53.09834567016447,-22.820787643345554,0.0],[-53.098399384415778,-22.820778848606885,0.0]]]}},
{"type":"Feature","properties":{"FID_roi":1,"Id":0,"FID_LINHAS":131,"Shape_Leng":0.00044646503},"geometry":{"type":"MultiLineString","coordinates":[[[-53.098399661311888,-22.820837458283197,0.0],[-53.098325752180799,-22.820850122610317,0.0],[-53.098252907870332,-22.820863005423313,0.0],[-53.09815649200344,-22.820880328164552,0.0],[-53.098087294646078,-22.820892417915132,0.0],[-53.098024326374357,-22.820902703055005,0.0]]]}},
{"type":"Feature","properties":{"FID_roi":1,"Id":0,"FID_LINHAS":132,"Shape_Leng":0.0004726359},"geometry":{"type":"MultiLineString","coordinates":[[[-53.098024326374357,-22.820823982051333,0.0],[-53.098131266772754,-22.820804494634253,0.0],[-53.098215549807776,-22.820789622992667,0.0],[-53.098312822278871,-22.820772871320884,0.0],[-53.098370915172993,-22.820762830885513,0.0],[-53.098399285148695,-22.820757837087072,0.0]]]}},
{"type":"Feature","properties":{"FID_roi":1,"Id":0,"FID_LINHAS":133,"Shape_Leng":0.00044565108},"geometry":{"type":"MultiLineString","coordinates":[[[-53.098399550906777,-22.82081408920639,0.0],[-53.098332434421337,-22.820825292055439,0.0],[-53.098270087394575,-22.820836497906019,0.0],[-53.098190137664673,-22.82085144104115,0.0],[-53.098139312254418,-22.820861149447449,0.0],[-53.098117611163808,-22.820865623124924,0.0],[-53.098086152057462,-22.820871656277546,0.0],[-53.098024326374357,-22.820883045219201,0.0]]]}},
{"type":"Feature","properties":{"FID_roi":1,"Id":0,"FID_LINHAS":134,"Shape_Leng":0.00044161231},"geometry":{"type":"MultiLineString","coordinates":[[[-53.098024326374357,-22.820801270325767,0.0],[-53.098128126340114,-22.820783111841919,0.0],[-53.098221839641987,-22.820766667284179,0.0],[-53.098399179581854,-22.820735492094816,0.0]]]}},
{"type":"Feature","properties":{"FID_roi":1,"Id":0,"FID_LINHAS":135,"Shape_Leng":0.00044163083},"geometry":{"type":"MultiLineString","coordinates":[[[-53.098024326374357,-22.820780436523528,0.0],[-53.098137548986841,-22.820759486400092,0.0],[-53.098226946098201,-22.820743567944049,0.0],[-53.09838191481979,-22.820716762699359,0.0]]]}},
{"type":"Feature","properties":{"FID_roi":1,"Id":0,"FID_LINHAS":136,"Shape_Leng":0.00045247703},"geometry":{"type":"MultiLineString","coordinates":[[[-53.098399447296678,-22.820792158398021,0.0],[-53.098338690058441,-22.820803105570523,0.0],[-53.098272085912953,-22.820814844929142,0.0],[-53.098179382447469,-22.820831025531376,0.0],[-53.098105854629637,-22.820844286701849,0.0],[-53.098024326374357,-22.820859799309915,0.0]]]}},
{"type":"Feature","properties":{"FID_roi":1,"Id":0,"FID_LINHAS":137,"Shape_Leng":0.00042859194},"geometry":{"type":"MultiLineString","coordinates":[[[-53.098399347835354,-22.820771105759988,0.0],[-53.098342234602342,-22.820780996310432,0.0],[-53.098287933316428,-22.820790574925066,0.0],[-53.098217406233275,-22.820803138454043,0.0],[-53.09814268861237,-22.82081621801359,0.0],[-53.098024326374357,-22.820836611398768,0.0]]]}},
{"type":"Feature","properties":{"FID_roi":1,"Id":0,"FID_LINHAS":138,"Shape_Leng":0.00028810532},"geometry":{"type":"MultiLineString","coordinates":[[[-53.098024326374357,-22.820757466189804,0.0],[-53.098261048014244,-22.820716187143134,0.0]]]}},
{"type":"Feature","properties":{"FID_roi":1,"Id":0,"FID_LINHAS":139,"Shape_Leng":0.00046521146},"geometry":{"type":"MultiLineString","coordinates":[[[-53.09839924853496,-22.82075008717365,0.0],[-53.098326933892949,-22.820762606615666,0.0],[-53.098261759447581,-22.820774060899122,0.0],[-53.09817962031817,-22.820788623171353,0.0],[-53.098109994658685,-22.820800948019119,0.0],[-53.098024326374357,-22.820816079154064,0.0]]]}},
{"type":"Feature","properties":{"FID_roi":1,"Id":0,"FID_LINHAS":140,"Shape_Leng":0.00016585109},"geometry":{"type":"MultiLineString","coordinates":[[[-53.098024326374357,-22.82073766464984,0.0],[-53.098144589835854,-22.820715632580427,0.0]]]}},
{"type":"Feature","properties":{"FID_roi":1,"Id":0,"FID_LINHAS":141,"Shape_Leng":0.00045020384},"geometry":{"type":"MultiLineString","coordinates":[[[-53.098399140537531,-22.820727227725271,0.0],[-53.09834703709344,-22.820735762631788,0.0],[-53.098299354931221,-22.820744080200111,0.0],[-53.098238726236175,-22.82075502539908,0.0],[-53.098162390510083,-22.820768861666586,0.0],[-53.098024326374357,-22.820793952670662,0.0]]]}},
{"type":"Feature","properties":{"FID_roi":1,"Id":0,"FID_LINHAS":142,"Shape_Leng":0.0001323751},"geometry":{"type":"MultiLineString","coordinates":[[[-53.098099783717664,-22.820715419217944,0.0],[-53.098024326374357,-22.820727958805268,0.0]]]}},
{"type":"Feature","properties":{"FID_roi":1,"Id":0,"FID_LINHAS":143,"Shape_Leng":0.00041182895},"geometry":{"type":"MultiLineString","coordinates":[[[-53.098336162406106,-22.820716544830702,0.0],[-53.098256482006491,-22.82073080740529,0.0],[-53.098178522998552,-22.820744671809337,0.0],[-53.098024326374357,-22.820772002446891,0.0]]]}},
{"type":"Feature","properties":{"FID_roi":1,"Id":0,"FID_LINHAS":144,"Shape_Leng":0.0003252149},"geometry":{"type":"MultiLineString","coordinates":[[[-53.098210301398716,-22.820715945492612,0.0],[-53.098148778976558,-22.820727231153818,0.0],[-53.098102285220463,-22.820735639877558,0.0],[-53.098024326374357,-22.82074958038757,0.0]]]}},
{"type":"Feature","properties":{"FID_roi":2,"Id":0,"FID_LINHAS":145,"Shape_Leng":0.00035064906},"geometry":{"type":"MultiLineString","coordinates":[[[-53.099711404602054,-22.817460063532128,0.0],[-53.099691668421833,-22.817433882393004,0.0],[-53.099671847852449,-22.81740952220667,0.0],[-53.099645364167145,-22.817378255926748,0.0],[-53.099628624636232,-22.817358554029013,0.0],[-53.099621629259687,-22.817350416513463,0.0],[-53.099605568042449,-22.817334034013395,0.0],[-53.099580440984504,-22.81730940652881,0.0],[-53.099558419060727,-22.817288419724715,0.0],[-53.099539502271128,-22.817271073601113,0.0],[-53.09952103747311,-22.817254754196618,0.0],[-53.099494018263435,-22.81723181516854,0.0]]]}},
{"type":"Feature","properties":{"FID_roi":2,"Id":0,"FID_LINHAS":146,"Shape_Leng":0.00028608097},"geometry":{"type":"MultiLineString","coordinates":[[[-53.099739968806034,-22.8174601182528,0.0],[-53.099727799118973,-22.817442403434853,0.0],[-53.099717835584599,-22.817428789057317,0.0],[-53.09970602164055,-22.817413370180876,0.0],[-53.099687800926233,-22.817391348257125,0.0],[-53.099663173441655,-22.817362723286063,0.0],[-53.099643935369272,-22.817340915400923,0.0],[-53.099630086709098,-22.817325924601697,0.0],[-53.099609706722561,-22.817304045445276,0.0],[-53.099569339753188,-22.817260894174854,0.0]]]}},
{"type":"Feature","properties":{"FID_roi":2,"Id":0,"FID_LINHAS":147,"Shape_Leng":0.00032364134},"geometry":{"type":"MultiLineString","coordinates":[[[-53.099665907159263,-22.817459976372248,0.0],[-53.099649207420796,-22.817438082245538,0.0],[-53.099637216084609,-22.817423396047857,0.0],[-53.099624366571206,-22.81740861973697,0.0],[-53.099610767922556,-22.817393522143284,0.0],[-53.09959642013866,-22.817378103266797,0.0],[-53.099583963853831,-22.817364790152897,0.0],[-53.099573399068078,-22.817353582801584,0.0],[-53.099557301877937,-22.817337664126896,0.0],[-53.099535672283423,-22.81731703412883,0.0],[-53.099517612098097,-22.817299866295809,0.0],[-53.099503121321966,-22.81728616062783,0.0],[-53.099487446287206,-22.817272510602386,0.0],[-53.099462157347126,-22.817252119028023,0.0]]]}},
{"type":"Feature","properties":{"FID_roi":2,"Id":0,"FID_LINHAS":148,"Shape_Leng":7.396054e-05},"geometry":{"type":"MultiLineString","coordinates":[[[-53.099480757562631,-22.81745962167944,0.0],[-53.099477319580529,-22.817455768447708,0.0],[-53.099473190257669,-22.81745135369885,0.0],[-53.099464240271182,-22.817441962684018,0.0]]]}},
{"type":"Feature","properties":{"FID_roi":2,"Id":0,"FID_LINHAS":149,"Shape_Leng":0.00012591687},"geometry":{"type":"MultiLineString","coordinates":[[[-53.099522736153546,-22.817459702098223,0.0],[-53.099509979369046,-22.817445509301418,0.0],[-53.099499588110433,-22.817434103825768,0.0],[-53.099487310116217,-22.817420754738993,0.0],[-53.099476817623611,-22.817410042262956,0.0],[-53.099463757137116,-22.817397928464992,0.0]]]}},
{"type":"Feature","properties":{"FID_roi":2,"Id":0,"FID_LINHAS":150,"Shape_Leng":0.00022313457},"geometry":{"type":"MultiLineString","coordinates":[[[-53.099766096270137,-22.817460168305384,0.0],[-53.09976316145115,-22.81745596783195,0.0],[-53.099753081589384,-22.817441682862341,0.0],[-53.099734878411837,-22.817415913238751,0.0],[-53.099715247785404,-22.817390643188588,0.0],[-53.099694189710078,-22.81736587271185,0.0],[-53.099672631836498,-22.817340602886507,0.0],[-53.099639545328763,-22.817301949125582,0.0]]]}},
{"type":"Feature","properties":{"FID_roi":2,"Id":0,"FID_LINHAS":151,"Shape_Leng":0.0002621787},"geometry":{"type":"MultiLineString","coordinates":[[[-53.099750289292452,-22.817460138023829,0.0],[-53.099736509019664,-22.81744096968718,0.0],[-53.099723563816383,-22.817423444386392,0.0],[-53.099706860258323,-22.817401172675911,0.0],[-53.099690941808461,-22.817381327785981,0.0],[-53.09967580846677,-22.817363909716597,0.0],[-53.099660960659783,-22.817347312953075,0.0],[-53.099646398387506,-22.817331537495427,0.0],[-53.099627802880732,-22.817311300276259,0.0],[-53.09959385976881,-22.817274251805234,0.0]]]}},
{"type":"Feature","properties":{"FID_roi":2,"Id":0,"FID_LINHAS":152,"Shape_Leng":0.00010052951},"geometry":{"type":"MultiLineString","coordinates":[[[-53.099511604936353,-22.817459680774036,0.0],[-53.099503662903658,-22.817450643595897,0.0],[-53.099491733124687,-22.817438137661654,0.0],[-53.099463885820491,-22.817409657037061,0.0]]]}},
{"type":"Feature","properties":{"FID_roi":2,"Id":0,"FID_LINHAS":153,"Shape_Leng":0.00022042577},"geometry":{"type":"MultiLineString","coordinates":[[[-53.099775564289658,-22.81746018644332,0.0],[-53.099768526570912,-22.817449119532469,0.0],[-53.099758756536332,-22.817435258330505,0.0],[-53.099743908279677,-22.81741491386714,0.0],[-53.099729238763295,-22.817395675794739,0.0],[-53.099714747987193,-22.817377544113299,0.0],[-53.099696973561464,-22.817356343045731,0.0],[-53.099675915486095,-22.817332072592034,0.0],[-53.099661424709957,-22.817315261789862,0.0],[-53.099649539494614,-22.817301235063884,0.0]]]}},
{"type":"Feature","properties":{"FID_roi":2,"Id":0,"FID_LINHAS":154,"Shape_Leng":0.00015251938},"geometry":{"type":"MultiLineString","coordinates":[[[-53.099819856487571,-22.817460271294291,0.0],[-53.099811079489243,-22.817445642832048,0.0],[-53.099802871430278,-22.817433295110401,0.0],[-53.099792306644559,-22.817418351975277,0.0],[-53.099783740602085,-22.81740650228318,0.0],[-53.099777173302847,-22.817397746034121,0.0],[-53.099765371274806,-22.817382517589106,0.0],[-53.099739816139532,-22.817349966627646,0.0]]]}},
{"type":"Feature","properties":{"FID_roi":2,"Id":0,"FID_LINHAS":155,"Shape_Leng":7.845426e-05},"geometry":{"type":"MultiLineString","coordinates":[[[-53.099492184161498,-22.817459643569485,0.0],[-53.09948863570304,-22.817455452862241,0.0],[-53.099481614540011,-22.817447825282606,0.0],[-53.099464099509383,-22.817429133250947,0.0]]]}},
{"type":"Feature","properties":{"FID_roi":2,"Id":0,"FID_LINHAS":156,"Shape_Leng":0.00016346763},"geometry":{"type":"MultiLineString","coordinates":[[[-53.09955438183642,-22.817459762722173,0.0],[-53.099528276610435,-22.817430854941072,0.0],[-53.099509188598134,-22.817411118278478,0.0],[-53.099488416057511,-22.817390916807359,0.0],[-53.09947437784767,-22.817377458493894,0.0],[-53.099463422029089,-22.817367385760182,0.0]]]}},
{"type":"Feature","properties":{"FID_roi":2,"Id":0,"FID_LINHAS":157,"Shape_Leng":0.00019384078},"geometry":{"type":"MultiLineString","coordinates":[[[-53.099582580458254,-22.817459816742517,0.0],[-53.099566806809271,-22.817441254941286,0.0],[-53.09955505312314,-22.817427786538072,0.0],[-53.099542061516857,-22.817413224265795,0.0],[-53.099525179218581,-22.817395806646047,0.0],[-53.099504406228327,-22.817375533678831,0.0],[-53.099486289864807,-22.817358562589853,0.0],[-53.099463100259634,-22.817338058773743,0.0]]]}},
{"type":"Feature","properties":{"FID_roi":2,"Id":0,"FID_LINHAS":158,"Shape_Leng":0.00024374447},"geometry":{"type":"MultiLineString","coordinates":[[[-53.09961062179169,-22.817459870461501,0.0],[-53.099593411796192,-22.817439234104548,0.0],[-53.099579109088552,-22.817422932447322,0.0],[-53.099561977003603,-22.81740408670418,0.0],[-53.099541882551812,-22.817383456706089,0.0],[-53.099518825733178,-22.817361042453058,0.0],[-53.099500230226397,-22.817343375046633,0.0],[-53.099486096031477,-22.817330454486807,0.0],[-53.099474967519143,-22.817320287616262,0.0],[-53.099462783274525,-22.81730916784436,0.0]]]}},
{"type":"Feature","properties":{"FID_roi":2,"Id":0,"FID_LINHAS":159,"Shape_Leng":0.00035322878},"geometry":{"type":"MultiLineString","coordinates":[[[-53.099695492838677,-22.817460033049755,0.0],[-53.099686281468152,-22.817447751086707,0.0],[-53.09967538848332,-22.817433479021776,0.0],[-53.09965974342736,-22.817413122867286,0.0],[-53.099638786300901,-22.817388989335356,0.0],[-53.099612517103949,-22.817361078425993,0.0],[-53.099588282398287,-22.817336165406658,0.0],[-53.099566082183912,-22.817314250277345,0.0],[-53.099542204284248,-22.817291942818819,0.0],[-53.099516648699307,-22.817269243031085,0.0],[-53.099496225175237,-22.817251383469831,0.0],[-53.09947328798043,-22.817231854467682,0.0]]]}},
{"type":"Feature","properties":{"FID_roi":2,"Id":0,"FID_LINHAS":160,"Shape_Leng":0.00017331582},"geometry":{"type":"MultiLineString","coordinates":[[[-53.099794620556537,-22.817460222949585,0.0],[-53.099786210523,-22.817447200962164,0.0],[-53.099776030939047,-22.817432723816079,0.0],[-53.099761278460157,-22.817412450848867,0.0],[-53.099740101449434,-22.817384373340104,0.0],[-53.099698699135594,-22.817330550264639,0.0]]]}},
{"type":"Feature","properties":{"FID_roi":2,"Id":0,"FID_LINHAS":161,"Shape_Leng":0.00027654442},"geometry":{"type":"MultiLineString","coordinates":[[[-53.099640626137983,-22.817459927941123,0.0],[-53.099623078023626,-22.817438391870198,0.0],[-53.099606628118366,-22.817419399011001,0.0],[-53.099585427050748,-22.817395770673226,0.0],[-53.099565296850884,-22.817374640876935,0.0],[-53.099546237518773,-22.817356009622131,0.0],[-53.099527463496592,-22.817338199448326,0.0],[-53.099508974784342,-22.817321210355527,0.0],[-53.099490414418725,-22.817304608383107,0.0],[-53.099462466390229,-22.817280286105049,0.0]]]}},
{"type":"Feature","properties":{"FID_roi":2,"Id":0,"FID_LINHAS":162,"Shape_Leng":0.00033366021},"geometry":{"type":"MultiLineString","coordinates":[[[-53.099722252187995,-22.817460084312927,0.0],[-53.099709503767478,-22.81744357261212,0.0],[-53.099695082062311,-22.817425183900077,0.0],[-53.099674737599003,-22.817399414276533,0.0],[-53.099658533389558,-22.81737935534797,0.0],[-53.099646469433985,-22.81736500711439,0.0],[-53.099635583365455,-22.817352764868197,0.0],[-53.099625875183953,-22.817342628609385,0.0],[-53.099612098244698,-22.817328637406632,0.0],[-53.099594252547689,-22.817310791259942,0.0],[-53.099576442373881,-22.817294051729046,0.0],[-53.099558667723286,-22.817278418813949,0.0],[-53.099545069074637,-22.817266212315825,0.0],[-53.099535646427924,-22.817257432234676,0.0],[-53.099524814009477,-22.817247729545556,0.0],[-53.099506450724185,-22.817231791599927,0.0]]]}},
{"type":"Feature","properties":{"FID_roi":2,"Id":0,"FID_LINHAS":163,"Shape_Leng":0.00015816217},"geometry":{"type":"MultiLineString","coordinates":[[[-53.099804166136508,-22.817460241236112,0.0],[-53.099797448944898,-22.817450346640904,0.0],[-53.099788214279648,-22.81743662642414,0.0],[-53.099774223076878,-22.817415782387421,0.0],[-53.09976351552374,-22.817400315846861,0.0],[-53.09975609162025,-22.817390226802463,0.0],[-53.099743337659831,-22.817373903657671,0.0],[-53.099716211633805,-22.817340067789896,0.0]]]}},
{"type":"Feature","properties":{"FID_roi":2,"Id":0,"FID_LINHAS":164,"Shape_Leng":0.00012722854},"geometry":{"type":"MultiLineString","coordinates":[[[-53.099830872894643,-22.817460292398476,0.0],[-53.099817688310154,-22.817438509289694,0.0],[-53.099806155079939,-22.817421825606701,0.0],[-53.099791878342501,-22.81740298031324,0.0],[-53.099778886511402,-22.817386181427093,0.0],[-53.099761326124259,-22.817364052708836,0.0]]]}},
{"type":"Feature","properties":{"FID_roi":2,"Id":0,"FID_LINHAS":165,"Shape_Leng":8.188624e-05},"geometry":{"type":"MultiLineString","coordinates":[[[-53.099837170383928,-22.817442149837422,0.0],[-53.099796923089542,-22.817381184793831,0.0]]]}},
{"type":"Feature","properties":{"FID_roi":2,"Id":0,"FID_LINHAS":166,"Shape_Leng":4.247459e-05},"geometry":{"type":"MultiLineString","coordinates":[[[-53.099837404138455,-22.817404632242436,0.0],[-53.099833280881164,-22.817397936465525,0.0]]]}},
{"type":"Feature","properties":{"FID_roi":2,"Id":0,"FID_LINHAS":167,"Shape_Leng":5.423806e-05},"geometry":{"type":"MultiLineString","coordinates":[[[-53.099837256265452,-22.817428365852802,0.0],[-53.099811580240235,-22.817387657214564,0.0]]]}},
{"type":"Feature","properties":{"FID_roi":2,"Id":0,"FID_LINHAS":168,"Shape_Leng":0.00037208338},"geometry":{"type":"MultiLineString","coordinates":[[[-53.099837546546766,-22.817381775712168,0.0],[-53.099770872922747,-22.81734645456616,0.0],[-53.099711861837925,-22.817315359591142,0.0],[-53.099638288750967,-22.817276717071778,0.0],[-53.099588824877884,-22.817250973743821,0.0],[-53.099550792889055,-22.817231707538991,0.0]]]}},
{"type":"Feature","properties":{"FID_roi":2,"Id":0,"FID_LINHAS":169,"Shape_Leng":0.00035686169},"geometry":{"type":"MultiLineString","coordinates":[[[-53.099837640412744,-22.81736671021887,0.0],[-53.099801877134404,-22.817347684826075,0.0],[-53.099769159444136,-22.81733015950919,0.0],[-53.099727566249165,-22.817307792470611,0.0],[-53.099681975792535,-22.817283664784274,0.0],[-53.099632388074241,-22.817257776450177,0.0],[-53.099601114662931,-22.817241536460536,0.0],[-53.099581676006451,-22.817231648992756,0.0]]]}},
{"type":"Feature","properties":{"FID_roi":2,"Id":0,"FID_LINHAS":170,"Shape_Leng":0.00015462669},"geometry":{"type":"MultiLineString","coordinates":[[[-53.099463549273793,-22.817378983208339,0.0],[-53.099497859031558,-22.817411623911013,0.0],[-53.09951589866477,-22.817429571017879,0.0],[-53.099529104759341,-22.817443704763168,0.0],[-53.099537800289504,-22.817453014472481,0.0],[-53.09954407773813,-22.817459742982496,0.0]]]}},
{"type":"Feature","properties":{"FID_roi":2,"Id":0,"FID_LINHAS":171,"Shape_Leng":0.0002961439},"geometry":{"type":"MultiLineString","coordinates":[[[-53.099837703194169,-22.817356633794375,0.0],[-53.099795182313422,-22.817333886872564,0.0],[-53.099759641244376,-22.817314930839377,0.0],[-53.099716906360122,-22.817292183387544,0.0],[-53.099671305620603,-22.81726851147085,0.0],[-53.099598605728431,-22.817231616898518,0.0]]]}},
{"type":"Feature","properties":{"FID_roi":2,"Id":0,"FID_LINHAS":172,"Shape_Leng":0.00025409741},"geometry":{"type":"MultiLineString","coordinates":[[[-53.099837795616416,-22.817341800023986,0.0],[-53.099793492210544,-22.817318043652715,0.0],[-53.099760307417228,-22.817300511784115,0.0],[-53.099723473434523,-22.817281285627757,0.0],[-53.09968609968864,-22.817261644123203,0.0],[-53.099629229425076,-22.817231558844068,0.0]]]}},
{"type":"Feature","properties":{"FID_roi":0,"Id":0,"FID_LINHAS":173,"Shape_Leng":0.0003079059},"geometry":{"type":"MultiLineString","coordinates":[[[-53.097945459677007,-22.817310209828726,0.0],[-53.097943087069225,-22.817286846468349,0.0],[-53.097939202981799,-22.817256882074403,0.0],[-53.097933016545454,-22.8172125288601,0.0],[-53.097928733524206,-22.817176456153501,0.0],[-53.097926353918055,-22.817148663954605,0.0],[-53.097923811378543,-22.817127218713068,0.0],[-53.097919753169236,-22.817104571286798,0.0]]]}},
{"type":"Feature","properties":{"FID_roi":0,"Id":0,"FID_LINHAS":174,"Shape_Leng":0.00042235747},"geometry":{"type":"MultiLineString","coordinates":[[[-53.097990675865397,-22.817310209828726,0.0],[-53.097983141318011,-22.817227095961272,0.0],[-53.097978059989458,-22.817181830951686,0.0],[-53.097972920363922,-22.817146710177486,0.0],[-53.097967447539595,-22.817112255576092,0.0],[-53.097961641516477,-22.817078467147503,0.0],[-53.097955930821492,-22.817046296824095,0.0],[-53.097950315454646,-22.817015744605879,0.0],[-53.097943671960181,-22.81698214177689,0.0],[-53.097932164527045,-22.816927161617265,0.0]]]}},
{"type":"Feature","properties":{"FID_roi":2,"Id":0,"FID_LINHAS":175,"Shape_Leng":0.00019396712},"geometry":{"type":"MultiLineString","coordinates":[[[-53.099463218344461,-22.817348821360209,0.0],[-53.099495849276884,-22.817378706379468,0.0],[-53.099518682965808,-22.817400946046774,0.0],[-53.099542596388694,-22.817425502035221,0.0],[-53.099559007906194,-22.817443284318756,0.0],[-53.09957237232436,-22.817459797186693,0.0]]]}},
{"type":"Feature","properties":{"FID_roi":2,"Id":0,"FID_LINHAS":176,"Shape_Leng":0.00024653139},"geometry":{"type":"MultiLineString","coordinates":[[[-53.099837863526716,-22.81733090042534,0.0],[-53.09977038087338,-22.817297758365974,0.0],[-53.099722435705125,-22.817272914983249,0.0],[-53.099646082853688,-22.817231526894425,0.0]]]}},
{"type":"Feature","properties":{"FID_roi":0,"Id":0,"FID_LINHAS":177,"Shape_Leng":0.00022966707},"geometry":{"type":"MultiLineString","coordinates":[[[-53.097938111304337,-22.817310209828726,0.0],[-53.09793439714209,-22.8172801366266,0.0],[-53.097929768483368,-22.81724132522293,0.0],[-53.097919596669449,-22.817154964214051,0.0]]]}},
{"type":"Feature","properties":{"FID_roi":0,"Id":0,"FID_LINHAS":178,"Shape_Leng":0.00039793984},"geometry":{"type":"MultiLineString","coordinates":[[[-53.09796831220816,-22.817310209828726,0.0],[-53.097963844735709,-22.817270212158085,0.0],[-53.097960594705661,-22.817240556456412,0.0],[-53.09795707296054,-22.817207910166829,0.0],[-53.097954027181601,-22.817179784769174,0.0],[-53.097951457368836,-22.817156180263446,0.0],[-53.097947079244264,-22.817127103158235,0.0],[-53.097940892807877,-22.817092553453538,0.0],[-53.097933386317315,-22.81705093863004,0.0],[-53.097920146500208,-22.816977918716589,0.0]]]}},
{"type":"Feature","properties":{"FID_roi":0,"Id":0,"FID_LINHAS":179,"Shape_Leng":0.00040131019},"geometry":{"type":"MultiLineString","coordinates":[[[-53.098038025438015,-22.817310209828726,0.0],[-53.098032098003813,-22.81724465634835,0.0],[-53.098027409612271,-22.817202770091686,0.0],[-53.098021984451982,-22.81716269989861,0.0],[-53.098016369085123,-22.817125199518276,0.0],[-53.098010563511679,-22.817090268950682,0.0],[-53.098004567281947,-22.81705414880485,0.0],[-53.097998380395921,-22.817016839080786,0.0],[-53.09799176543261,-22.816981480435906,0.0],[-53.097981200871722,-22.816931369087371,0.0]]]}},
{"type":"Feature","properties":{"FID_roi":0,"Id":0,"FID_LINHAS":180,"Shape_Leng":0.00012265958},"geometry":{"type":"MultiLineString","coordinates":[[[-53.097923501227456,-22.817310209828726,0.0],[-53.097919216975569,-22.817277225625357,0.0]]]}},
{"type":"Feature","properties":{"FID_roi":0,"Id":0,"FID_LINHAS":181,"Shape_Leng":0.00035552102},"geometry":{"type":"MultiLineString","coordinates":[[[-53.097960322784196,-22.817310209828726,0.0],[-53.097955137537959,-22.817262073743272,0.0],[-53.097951505482591,-22.817230562065738,0.0],[-53.097947698202688,-22.81719962943431,0.0],[-53.097944033690169,-22.817169410414913,0.0],[-53.097940511945048,-22.817139905007544,0.0],[-53.0979366453099,-22.817113683249826,0.0],[-53.097932433784734,-22.817090745141748,0.0],[-53.097927749783594,-22.817064517043452,0.0],[-53.09792001506792,-22.817020239910693,0.0]]]}},
{"type":"Feature","properties":{"FID_roi":0,"Id":0,"FID_LINHAS":182,"Shape_Leng":0.0004121439},"geometry":{"type":"MultiLineString","coordinates":[[[-53.098014579244854,-22.817310209828726,0.0],[-53.098012816771885,-22.817287201250885,0.0],[-53.09801046840834,-22.817262018777086,0.0],[-53.098006946663219,-22.817226992881391,0.0],[-53.098002853848598,-22.817193918289682,0.0],[-53.097998189964478,-22.817162795001956,0.0],[-53.097992526933545,-22.817126389321377,0.0],[-53.097985864755799,-22.817084701247939,0.0],[-53.097977727015426,-22.817038872920605,0.0],[-53.097968113712433,-22.816988904339379,0.0],[-53.097961457994785,-22.816954752970556,0.0],[-53.097955910796351,-22.816927251735933,0.0]]]}},
{"type":"Feature","properties":{"FID_roi":0,"Id":0,"FID_LINHAS":183,"Shape_Leng":0.00032201293},"geometry":{"type":"MultiLineString","coordinates":[[[-53.098153421839427,-22.817310209828726,0.0],[-53.098147785865734,-22.817258150226031,0.0],[-53.098142575894151,-22.817214979962333,0.0],[-53.098135913266773,-22.817163345836736,0.0],[-53.098129310219463,-22.81711635153837,0.0],[-53.098122766752226,-22.817073997067244,0.0],[-53.09811806734487,-22.817040862895414,0.0],[-53.098113784323672,-22.817004992086623,0.0]]]}},
{"type":"Feature","properties":{"FID_roi":2,"Id":0,"FID_LINHAS":184,"Shape_Leng":0.00021860031},"geometry":{"type":"MultiLineString","coordinates":[[[-53.099837940243042,-22.817318587461447,0.0],[-53.099774112453858,-22.817284257881802,0.0],[-53.099733165077922,-22.817262479437733,0.0],[-53.099674150739304,-22.817231473685165,0.0]]]}},
{"type":"Feature","properties":{"FID_roi":0,"Id":0,"FID_LINHAS":185,"Shape_Leng":0.00030625549},"geometry":{"type":"MultiLineString","coordinates":[[[-53.098178538922774,-22.817310209828726,0.0],[-53.098173062865108,-22.817270165618247,0.0],[-53.098169524304062,-22.817242302939903,0.0],[-53.098166097887088,-22.817213273723539,0.0],[-53.098161909969136,-22.817180627658775,0.0],[-53.09815696055022,-22.817144364745616,0.0],[-53.098152344330146,-22.817111337817977,0.0],[-53.098148061308919,-22.817081546875862,0.0],[-53.098143635520316,-22.817055134911513,0.0],[-53.098136782686353,-22.817020585431639,0.0]]]}},
{"type":"Feature","properties":{"FID_roi":2,"Id":0,"FID_LINHAS":186,"Shape_Leng":0.00020764889},"geometry":{"type":"MultiLineString","coordinates":[[[-53.099838001362151,-22.817308777846904,0.0],[-53.099805964408525,-22.817291513434871,0.0],[-53.099770135482125,-22.817272177662243,0.0],[-53.099694685656537,-22.817231434756394,0.0]]]}},
{"type":"Feature","properties":{"FID_roi":0,"Id":0,"FID_LINHAS":187,"Shape_Leng":0.00035275359},"geometry":{"type":"MultiLineString","coordinates":[[[-53.098108153629269,-22.817310209828726,0.0],[-53.09810507190673,-22.817273229158801,0.0],[-53.098101284421688,-22.817239915464707,0.0],[-53.098095763933316,-22.817197941856474,0.0],[-53.098089577272134,-22.817155777816836,0.0],[-53.098082724438136,-22.817113423345795,0.0],[-53.098076204802972,-22.817074352524351,0.0],[-53.098070018366641,-22.817038565352501,0.0],[-53.098064593206381,-22.817008964841836,0.0],[-53.098057597380127,-22.816973844067615,0.0]]]}},
{"type":"Feature","properties":{"FID_roi":0,"Id":0,"FID_LINHAS":188,"Shape_Leng":0.00033796639},"geometry":{"type":"MultiLineString","coordinates":[[[-53.098130652520823,-22.817310209828726,0.0],[-53.098129398930922,-22.81728607822248,0.0],[-53.09812683955699,-22.81726351952075,0.0],[-53.098122556535714,-22.817234489854791,0.0],[-53.098118749480648,-22.817205983819058,0.0],[-53.098115418391778,-22.817178001413556,0.0],[-53.098111087706478,-22.817146449823724,0.0],[-53.098105757424747,-22.81711132904957,0.0],[-53.098098714159313,-22.817067166266696,0.0],[-53.09808557978559,-22.816987359079302,0.0]]]}},
{"type":"Feature","properties":{"FID_roi":0,"Id":0,"FID_LINHAS":189,"Shape_Leng":0.00029970114},"geometry":{"type":"MultiLineString","coordinates":[[[-53.098170144084349,-22.817310209828726,0.0],[-53.098162968732836,-22.817256644760946,0.0],[-53.098157900116931,-22.817219040176543,0.0],[-53.098152546452802,-22.817179541052926,0.0],[-53.09814808514097,-22.817147001782647,0.0],[-53.098144516181442,-22.817121422365709,0.0],[-53.09814029274029,-22.817094236984406,0.0],[-53.098135414817513,-22.817065445638743,0.0],[-53.098131548182366,-22.817042959889612,0.0],[-53.098127265161096,-22.817018689660721,0.0]]]}},
{"type":"Feature","properties":{"FID_roi":0,"Id":0,"FID_LINHAS":190,"Shape_Leng":0.00028212234},"geometry":{"type":"MultiLineString","coordinates":[[[-53.098202416636269,-22.817309145037449,0.0],[-53.098192809457551,-22.817238354125848,0.0],[-53.098187346393857,-22.817197922521096,0.0],[-53.098182825052298,-22.817164253252656,0.0],[-53.098175983909485,-22.817119459820162,0.0],[-53.098162242493416,-22.81703558342533,0.0]]]}},
{"type":"Feature","properties":{"FID_roi":0,"Id":0,"FID_LINHAS":191,"Shape_Leng":0.00028637276},"geometry":{"type":"MultiLineString","coordinates":[[[-53.098192858444342,-22.817310209828726,0.0],[-53.09818524453604,-22.817252004933621,0.0],[-53.098179315672837,-22.817207261980503,0.0],[-53.098172533885311,-22.817156579337663,0.0],[-53.098167298931685,-22.817119519175481,0.0],[-53.098163610811959,-22.817096081493951,0.0],[-53.098159446950881,-22.817071037623261,0.0],[-53.098152487547232,-22.817031062533491,0.0]]]}},
{"type":"Feature","properties":{"FID_roi":0,"Id":0,"FID_LINHAS":192,"Shape_Leng":0.00036292896},"geometry":{"type":"MultiLineString","coordinates":[[[-53.098083670440992,-22.817310209828726,0.0],[-53.098081104738142,-22.817267946541058,0.0],[-53.098077489484517,-22.817233395379837,0.0],[-53.098071969445819,-22.817192468582508,0.0],[-53.098066687052942,-22.817156062901926,0.0],[-53.098061642305879,-22.817124178338091,0.0],[-53.098055503308743,-22.817087582226062,0.0],[-53.098048270061547,-22.817046274565836,0.0],[-53.098041369788326,-22.817007869917198,0.0],[-53.09803151883947,-22.816954617461619,0.0]]]}},
{"type":"Feature","properties":{"FID_roi":0,"Id":0,"FID_LINHAS":193,"Shape_Leng":0.0003756052},"geometry":{"type":"MultiLineString","coordinates":[[[-53.098058739519132,-22.817310209768774,0.0],[-53.09805588439653,-22.817259237491378,0.0],[-53.098053314583794,-22.817228445960964,0.0],[-53.098050078373383,-22.817200844418394,0.0],[-53.098045509817382,-22.817167008550577,0.0],[-53.098039608915784,-22.817126938357504,0.0],[-53.098033422254602,-22.817089580744526,0.0],[-53.09802694983383,-22.817054935711635,0.0],[-53.09801890719676,-22.817012962103448,0.0],[-53.098004487916725,-22.816939008828211,0.0]]]}},
{"type":"Feature","properties":{"FID_roi":0,"Id":0,"FID_LINHAS":194,"Shape_Leng":0.00026716943},"geometry":{"type":"MultiLineString","coordinates":[[[-53.098211239491341,-22.81728480487654,0.0],[-53.098206793142516,-22.817242441092393,0.0],[-53.098202455678745,-22.817207321110914,0.0],[-53.098196744983774,-22.817165323670721,0.0],[-53.098189785130458,-22.817119578530694,0.0],[-53.098177471612978,-22.817045339270884,0.0]]]}},
{"type":"Feature","properties":{"FID_roi":2,"Id":0,"FID_LINHAS":195,"Shape_Leng":0.00023555161},"geometry":{"type":"MultiLineString","coordinates":[[[-53.099462904867572,-22.817320250181631,0.0],[-53.09950283755547,-22.817355823650402,0.0],[-53.099530032634831,-22.817382172249438,0.0],[-53.099557801001637,-22.817411153801661,0.0],[-53.099578827101283,-22.817434196082743,0.0],[-53.099600252849982,-22.817459850597658,0.0]]]}},
{"type":"Feature","properties":{"FID_roi":2,"Id":0,"FID_LINHAS":196,"Shape_Leng":0.0001629835},"geometry":{"type":"MultiLineString","coordinates":[[[-53.099838073507108,-22.817297198586154,0.0],[-53.099809694846215,-22.817280480879269,0.0],[-53.099780371587414,-22.817264027554632,0.0],[-53.099720780471912,-22.817231385287609,0.0]]]}},
{"type":"Feature","properties":{"FID_roi":2,"Id":0,"FID_LINHAS":197,"Shape_Leng":0.00015815381},"geometry":{"type":"MultiLineString","coordinates":[[[-53.099838134420956,-22.817287421908997,0.0],[-53.099803427860536,-22.817268900047686,0.0],[-53.099777350604271,-22.817254884709907,0.0],[-53.099733825395894,-22.81723136055788,0.0]]]}},
{"type":"Feature","properties":{"FID_roi":2,"Id":0,"FID_LINHAS":198,"Shape_Leng":0.00026207401},"geometry":{"type":"MultiLineString","coordinates":[[[-53.099462580020671,-22.817290642706137,0.0],[-53.099504897854374,-22.817328291581688,0.0],[-53.099530068382897,-22.817351691527335,0.0],[-53.099552197550821,-22.817373392168264,0.0],[-53.099570828805646,-22.817392272984954,0.0],[-53.099585962147387,-22.817408333977401,0.0],[-53.099602480240904,-22.817427249932624,0.0],[-53.09962933450884,-22.817459906309626,0.0]]]}},
{"type":"Feature","properties":{"FID_roi":2,"Id":0,"FID_LINHAS":199,"Shape_Leng":0.00012730194},"geometry":{"type":"MultiLineString","coordinates":[[[-53.099838233528615,-22.817271515122798,0.0],[-53.099762159605632,-22.817231306843691,0.0]]]}},
{"type":"Feature","properties":{"FID_roi":2,"Id":0,"FID_LINHAS":200,"Shape_Leng":0.00011365076},"geometry":{"type":"MultiLineString","coordinates":[[[-53.099838297875806,-22.817261187405006,0.0],[-53.099779302413339,-22.817231274345509,0.0]]]}},
{"type":"Feature","properties":{"FID_roi":0,"Id":0,"FID_LINHAS":201,"Shape_Leng":0.00022363605},"geometry":{"type":"MultiLineString","coordinates":[[[-53.098219969055165,-22.817260722083979,0.0],[-53.098210046626022,-22.817189663966658,0.0],[-53.098201980162209,-22.817137127001811,0.0],[-53.098187703199933,-22.817050574224599,0.0]]]}},
{"type":"Feature","properties":{"FID_roi":2,"Id":0,"FID_LINHAS":202,"Shape_Leng":6.33638e-05},"geometry":{"type":"MultiLineString","coordinates":[[[-53.099838418438303,-22.817241837127536,0.0],[-53.099818613166654,-22.817231199822722,0.0]]]}},
{"type":"Feature","properties":{"FID_roi":2,"Id":0,"FID_LINHAS":203,"Shape_Leng":0.00030790711},"geometry":{"type":"MultiLineString","coordinates":[[[-53.09946227825148,-22.817263138596392,0.0],[-53.099492937196729,-22.817288863918264,0.0],[-53.099519146791138,-22.817312501096012,0.0],[-53.099551126683117,-22.817342625236929,0.0],[-53.099577003326011,-22.817368252093122,0.0],[-53.099596776719821,-22.81738938166459,0.0],[-53.099614979672523,-22.817409369097078,0.0],[-53.099631612184112,-22.817428214390581,0.0],[-53.099643961970528,-22.81744321715621,0.0],[-53.099656062562389,-22.817459957512845,0.0]]]}},
{"type":"Feature","properties":{"FID_roi":0,"Id":0,"FID_LINHAS":204,"Shape_Leng":0.00019166626},"geometry":{"type":"MultiLineString","coordinates":[[[-53.098228927971441,-22.81723600656235,0.0],[-53.098222101555876,-22.817178488452942,0.0],[-53.098215780933472,-22.817135461682174,0.0],[-53.098203645481831,-22.817063899479276,0.0]]]}},
{"type":"Feature","properties":{"FID_roi":2,"Id":0,"FID_LINHAS":205,"Shape_Leng":5.204483e-05},"geometry":{"type":"MultiLineString","coordinates":[[[-53.099838464737623,-22.817234406087753,0.0],[-53.09983169394738,-22.817231175025046,0.0]]]}},
{"type":"Feature","properties":{"FID_roi":2,"Id":0,"FID_LINHAS":206,"Shape_Leng":0.00034306342},"geometry":{"type":"MultiLineString","coordinates":[[[-53.09946196786403,-22.817234848992843,0.0],[-53.099501211828581,-22.81726733648927,0.0],[-53.099522252375017,-22.817284554438579,0.0],[-53.099538170824864,-22.817297332006252,0.0],[-53.099557444420469,-22.817315070908798,0.0],[-53.099580073161839,-22.817337771146221,0.0],[-53.099599989323046,-22.817358294124961,0.0],[-53.099617192904105,-22.817376639845016,0.0],[-53.099634289241003,-22.817395913440599,0.0],[-53.099651278333752,-22.817416114911719,0.0],[-53.09966638917831,-22.817434665565532,0.0],[-53.099686238072834,-22.817460015320293,0.0]]]}},
{"type":"Feature","properties":{"FID_roi":0,"Id":0,"FID_LINHAS":207,"Shape_Leng":0.00016316824},"geometry":{"type":"MultiLineString","coordinates":[[[-53.098236669455964,-22.817214649645759,0.0],[-53.098225464151142,-22.817137813961278,0.0],[-53.098219171152799,-22.817100542805782,0.0],[-53.098211497462586,-22.817065565023778,0.0]]]}},
{"type":"Feature","properties":{"FID_roi":2,"Id":0,"FID_LINHAS":208,"Shape_Leng":0.00037852923},"geometry":{"type":"MultiLineString","coordinates":[[[-53.099535340711476,-22.817231736832181,0.0],[-53.099643068604678,-22.817288100359761,0.0],[-53.099718610240579,-22.817327186656961,0.0],[-53.099837507255081,-22.817388082020976,0.0]]]}},
{"type":"Feature","properties":{"FID_roi":0,"Id":0,"FID_LINHAS":209,"Shape_Leng":0.00014275681},"geometry":{"type":"MultiLineString","coordinates":[[[-53.098246011909175,-22.817188876036823,0.0],[-53.09824350462533,-22.817165634729012,0.0],[-53.098240765224112,-22.81714735858872,0.0],[-53.098236957944238,-22.817126300513348,0.0],[-53.098232912793669,-22.817105420728559,0.0],[-53.098226488261766,-22.817074368487248,0.0]]]}},
{"type":"Feature","properties":{"FID_roi":0,"Id":0,"FID_LINHAS":210,"Shape_Leng":0.00012676908},"geometry":{"type":"MultiLineString","coordinates":[[[-53.098252385388342,-22.817171293122055,0.0],[-53.098249737822378,-22.817152137411504,0.0],[-53.098246237823574,-22.817129036475784,0.0],[-53.098238385393131,-22.817078889379175,0.0]]]}},
{"type":"Feature","properties":{"FID_roi":0,"Id":0,"FID_LINHAS":211,"Shape_Leng":6.877024e-05},"geometry":{"type":"MultiLineString","coordinates":[[[-53.09826924548166,-22.817124780130108,0.0],[-53.098264321840965,-22.817095545722768,0.0]]]}},
{"type":"Feature","properties":{"FID_roi":0,"Id":0,"FID_LINHAS":212,"Shape_Leng":6.86918e-05},"geometry":{"type":"MultiLineString","coordinates":[[[-53.098261233111337,-22.817146884356291,0.0],[-53.098251948968283,-22.817089359286427,0.0]]]}},
{"type":"Feature","properties":{"FID_roi":0,"Id":0,"FID_LINHAS":213,"Shape_Leng":0.00036043315},"geometry":{"type":"MultiLineString","coordinates":[[[-53.098279754910543,-22.817095787112521,0.0],[-53.098215126627686,-22.817056553684882,0.0],[-53.098177917002218,-22.817033894723419,0.0],[-53.098146583273184,-22.817014732418919,0.0],[-53.098114498160555,-22.816994503068813,0.0],[-53.09808166166431,-22.816973206673101,0.0],[-53.098051068962853,-22.816953781728557,0.0],[-53.098008545602823,-22.816927451488503,0.0]]]}},
{"type":"Feature","properties":{"FID_roi":0,"Id":0,"FID_LINHAS":214,"Shape_Leng":0.00034617371},"geometry":{"type":"MultiLineString","coordinates":[[[-53.098283518799036,-22.817085403438245,0.0],[-53.098239802282428,-22.817060739778729,0.0],[-53.098202984255266,-22.817039034798604,0.0],[-53.098158492545352,-22.817012067278036,0.0],[-53.098124111463548,-22.816990874079529,0.0],[-53.098099841009855,-22.816975455203085,0.0],[-53.098072107009806,-22.81695768810194,0.0],[-53.098025310690183,-22.816927515113164,0.0]]]}},
{"type":"Feature","properties":{"FID_roi":0,"Id":0,"FID_LINHAS":215,"Shape_Leng":0.00031221767},"geometry":{"type":"MultiLineString","coordinates":[[[-53.098287473401548,-22.817074493629544,0.0],[-53.098229369767907,-22.817039809148991,0.0],[-53.098194120986861,-22.817018495856857,0.0],[-53.09816235918052,-22.816998992259631,0.0],[-53.098122363995223,-22.8169738325685,0.0],[-53.098050021148843,-22.81692760889095,0.0]]]}},
{"type":"Feature","properties":{"FID_roi":0,"Id":0,"FID_LINHAS":216,"Shape_Leng":0.00031361447},"geometry":{"type":"MultiLineString","coordinates":[[[-53.098290738658058,-22.817065179511978,0.0],[-53.098270517977859,-22.81705443396433,0.0],[-53.098236653973395,-22.817033843012428,0.0],[-53.098182406417919,-22.816999824807063,0.0],[-53.098132787514643,-22.816969028499116,0.0],[-53.098065302138025,-22.816927666883316,0.0]]]}},
{"type":"Feature","properties":{"FID_roi":0,"Id":0,"FID_LINHAS":217,"Shape_Leng":0.0002823947},"geometry":{"type":"MultiLineString","coordinates":[[[-53.098295226518452,-22.817051282348292,0.0],[-53.098255935756534,-22.817027760537059,0.0],[-53.0982300511509,-22.817012190485165,0.0],[-53.098204475780904,-22.816996731588869,0.0],[-53.098167177112416,-22.816973695216326,0.0],[-53.098093644161956,-22.816927774443144,0.0]]]}},
{"type":"Feature","properties":{"FID_roi":0,"Id":0,"FID_LINHAS":218,"Shape_Leng":0.00025755391},"geometry":{"type":"MultiLineString","coordinates":[[[-53.098297507294376,-22.817044219669672,0.0],[-53.098270425432354,-22.817028136378038,0.0],[-53.098246468949377,-22.81701373709425,0.0],[-53.098216610558111,-22.816995660721098,0.0],[-53.098178396264586,-22.81697192464528,0.0],[-53.098108540970898,-22.816927830977566,0.0]]]}},
{"type":"Feature","properties":{"FID_roi":0,"Id":0,"FID_LINHAS":219,"Shape_Leng":0.00023876938},"geometry":{"type":"MultiLineString","coordinates":[[[-53.098301700674504,-22.81703123439717,0.0],[-53.098273347514819,-22.817014429370666,0.0],[-53.098252863803559,-22.817002265342218,0.0],[-53.098230798487492,-22.816989140636316,0.0],[-53.098198396486097,-22.816968915885266,0.0],[-53.098134288456016,-22.816927928690959,0.0]]]}},
{"type":"Feature","properties":{"FID_roi":0,"Id":0,"FID_LINHAS":220,"Shape_Leng":0.00023146698},"geometry":{"type":"MultiLineString","coordinates":[[[-53.098304051257166,-22.817023955554042,0.0],[-53.098290353633466,-22.817015607774778,0.0],[-53.09826928227654,-22.81700288385095,0.0],[-53.098236271311819,-22.816983001189477,0.0],[-53.098201930638979,-22.816961790479134,0.0],[-53.098148425067542,-22.81692798234031,0.0]]]}},
{"type":"Feature","properties":{"FID_roi":0,"Id":0,"FID_LINHAS":221,"Shape_Leng":0.00020196307},"geometry":{"type":"MultiLineString","coordinates":[[[-53.098307950665784,-22.817011880597363,0.0],[-53.098272506799347,-22.816989546381286,0.0],[-53.098239024999522,-22.81696859610393,0.0],[-53.098174023466498,-22.816928079487933,0.0]]]}},
{"type":"Feature","properties":{"FID_roi":0,"Id":0,"FID_LINHAS":222,"Shape_Leng":0.00020467131},"geometry":{"type":"MultiLineString","coordinates":[[[-53.09831145641845,-22.817001024640607,0.0],[-53.09827962970359,-22.816981657018566,0.0],[-53.098249273343896,-22.816963435917785,0.0],[-53.09819003097968,-22.816928140237472,0.0]]]}},
{"type":"Feature","properties":{"FID_roi":0,"Id":0,"FID_LINHAS":223,"Shape_Leng":0.00017833815},"geometry":{"type":"MultiLineString","coordinates":[[[-53.098314465047267,-22.816991708083748,0.0],[-53.098284664882058,-22.816973795699774,0.0],[-53.098258619512443,-22.81695792295319,0.0],[-53.098210283568797,-22.816928217097413,0.0]]]}},
{"type":"Feature","properties":{"FID_roi":0,"Id":0,"FID_LINHAS":224,"Shape_Leng":0.00017130159},"geometry":{"type":"MultiLineString","coordinates":[[[-53.098316801053677,-22.816984474377492,0.0],[-53.098302737774603,-22.816976092228717,0.0],[-53.098280299529435,-22.816962043814307,0.0],[-53.098227048072985,-22.816928280719853,0.0]]]}},
{"type":"Feature","properties":{"FID_roi":0,"Id":0,"FID_LINHAS":225,"Shape_Leng":0.00032896914},"geometry":{"type":"MultiLineString","coordinates":[[[-53.09810212461332,-22.816996901785572,0.0],[-53.098111404942358,-22.817055972405168,0.0],[-53.098117615435591,-22.817096545993746,0.0],[-53.098123849536023,-22.817138312757837,0.0],[-53.098128013621917,-22.817169126678763,0.0],[-53.098130107693287,-22.817188987756523,0.0],[-53.098133712625703,-22.817215872089793,0.0],[-53.098138828419181,-22.817249779678576,0.0],[-53.098142588825894,-22.817277602561909,0.0],[-53.098146196355842,-22.817310209828726,0.0]]]}},
{"type":"Feature","properties":{"FID_roi":0,"Id":0,"FID_LINHAS":226,"Shape_Leng":0.00035389271},"geometry":{"type":"MultiLineString","coordinates":[[[-53.09807644267363,-22.816981648384363,0.0],[-53.098084865723891,-22.817035614452045,0.0],[-53.098089910246088,-22.817064929427936,0.0],[-53.098094383923652,-22.817087582001264,0.0],[-53.098098857376357,-22.817115136329416,0.0],[-53.098103330604175,-22.817147592412393,0.0],[-53.098108660436289,-22.817186234931732,0.0],[-53.098114846872676,-22.817231063887437,0.0],[-53.098118558824417,-22.817260997372081,0.0],[-53.098119796291527,-22.817276035385671,0.0],[-53.098120911589071,-22.817290218251529,0.0],[-53.098122401281039,-22.817310209828726,0.0]]]}},
{"type":"Feature","properties":{"FID_roi":0,"Id":0,"FID_LINHAS":227,"Shape_Leng":0.0001153176},"geometry":{"type":"MultiLineString","coordinates":[[[-53.098321992382374,-22.81696839884512,0.0],[-53.098253011809653,-22.816928379253923,0.0]]]}},
{"type":"Feature","properties":{"FID_roi":0,"Id":0,"FID_LINHAS":228,"Shape_Leng":0.00035638935},"geometry":{"type":"MultiLineString","coordinates":[[[-53.098048079854962,-22.816967562303084,0.0],[-53.098055360991054,-22.817005966502109,0.0],[-53.098059405916786,-22.817026572668148,0.0],[-53.098062641677508,-22.817042182200879,0.0],[-53.098067353000886,-22.817068641829277,0.0],[-53.098073539886911,-22.817105951553344,0.0],[-53.09807910781452,-22.817143594476235,0.0],[-53.098084056783705,-22.817181570597945,0.0],[-53.098087673407306,-22.817206697655912,0.0],[-53.098089957685318,-22.817218975650135,0.0],[-53.098091908989346,-22.817232919413637,0.0],[-53.098093527319399,-22.817248528946411,0.0],[-53.098095097760535,-22.817262662916541,0.0],[-53.098096620312752,-22.817275321324018,0.0],[-53.098097665866192,-22.817288790352997,0.0],[-53.098098518698194,-22.817310209828726,0.0]]]}},
{"type":"Feature","properties":{"FID_roi":0,"Id":0,"FID_LINHAS":229,"Shape_Leng":7.022297e-05},"geometry":{"type":"MultiLineString","coordinates":[[[-53.098329026901744,-22.816946615665948,0.0],[-53.098299396593049,-22.816928555287245,0.0]]]}},
{"type":"Feature","properties":{"FID_roi":0,"Id":0,"FID_LINHAS":230,"Shape_Leng":0.00038107285},"geometry":{"type":"MultiLineString","coordinates":[[[-53.098020477862711,-22.816947003801161,0.0],[-53.098027616006654,-22.816978840476057,0.0],[-53.09803370733971,-22.817009630564936,0.0],[-53.098041131243214,-22.817049986292762,0.0],[-53.098047317904395,-22.817085678361309,0.0],[-53.098052267323268,-22.817116706770573,0.0],[-53.098056407577118,-22.817145117703003,0.0],[-53.098059738665945,-22.817170911158591,0.0],[-53.098062927212261,-22.817193611171174,0.0],[-53.098065973216066,-22.817213217740743,0.0],[-53.098068543028823,-22.817232634103725,0.0],[-53.098070636650547,-22.817251860260125,0.0],[-53.098072730014366,-22.817273657460923,0.0],[-53.098075869673231,-22.817310209828726,0.0]]]}},
{"type":"Feature","properties":{"FID_roi":0,"Id":0,"FID_LINHAS":231,"Shape_Leng":0.00039621331},"geometry":{"type":"MultiLineString","coordinates":[[[-53.097995350804766,-22.816936153480608,0.0],[-53.098007200272036,-22.816994117259654,0.0],[-53.098012768199652,-22.817022861166063,0.0],[-53.098016004410013,-22.81704170645952,0.0],[-53.098020239992032,-22.817064263704726,0.0],[-53.0980254749457,-22.817090532901677,0.0],[-53.098030329036455,-22.817118182108334,0.0],[-53.098034802264287,-22.817147211324698,0.0],[-53.09803903762144,-22.817178572483101,0.0],[-53.098043035107921,-22.817212265583546,0.0],[-53.098046638512145,-22.817249386557506,0.0],[-53.098051452495085,-22.817310209828726,0.0]]]}},
{"type":"Feature","properties":{"FID_roi":0,"Id":0,"FID_LINHAS":232,"Shape_Leng":0.00041065241},"geometry":{"type":"MultiLineString","coordinates":[[[-53.097974157381394,-22.816932700983298,0.0],[-53.097981153207577,-22.816974675266014,0.0],[-53.097985864530955,-22.816999849988054,0.0],[-53.097990623293583,-22.817022216576991,0.0],[-53.097996096117882,-22.817051959855007,0.0],[-53.098002283003879,-22.817089079822111,0.0],[-53.098006253735534,-22.817113802185155,0.0],[-53.098008008312846,-22.817126126944146,0.0],[-53.098012204099874,-22.817157065646015,0.0],[-53.098018841096618,-22.817206618290754,0.0],[-53.098022627467273,-22.817238146498223,0.0],[-53.098023563211868,-22.817251650268414,0.0],[-53.098025039130704,-22.817271354072311,0.0],[-53.098028063270306,-22.817310209828726,0.0]]]}},
{"type":"Feature","properties":{"FID_roi":0,"Id":0,"FID_LINHAS":233,"Shape_Leng":0.00040434513},"geometry":{"type":"MultiLineString","coordinates":[[[-53.097948762332663,-22.816927224607056,0.0],[-53.097961955381656,-22.816993864673922,0.0],[-53.097969636714268,-22.817034542460128,0.0],[-53.097976204013506,-22.817071471321295,0.0],[-53.097981867044439,-22.817104973990311,0.0],[-53.097986625807067,-22.817135050467179,0.0],[-53.097990813725019,-22.817163413735535,0.0],[-53.097994430798266,-22.81719006379538,0.0],[-53.097997000611009,-22.81720967058979,0.0],[-53.097998523163227,-22.817222234118766,0.0],[-53.098001126021181,-22.81724893936962,0.0],[-53.098006650766713,-22.817310209828726,0.0]]]}},
{"type":"Feature","properties":{"FID_roi":0,"Id":0,"FID_LINHAS":234,"Shape_Leng":0.0004217476},"geometry":{"type":"MultiLineString","coordinates":[[[-53.097923789561705,-22.816927129833712,0.0],[-53.097937009887673,-22.816994697584839,0.0],[-53.097944985847363,-22.817034923323021,0.0],[-53.0979521242161,-22.817070329631978,0.0],[-53.097957834911085,-22.817102404627235,0.0],[-53.097962117932312,-22.817131148308803,0.0],[-53.097966305625413,-22.817159654119695,0.0],[-53.097970397990402,-22.817187922059901,0.0],[-53.097975334399479,-22.817229094479686,0.0],[-53.097984005079255,-22.817310209828726,0.0]]]}},
{"type":"Feature","properties":{"FID_roi":0,"Id":0,"FID_LINHAS":235,"Shape_Leng":0.00010257382},"geometry":{"type":"MultiLineString","coordinates":[[[-53.098270843516879,-22.816928446926457,0.0],[-53.098324422594494,-22.816960873420392,0.0]]]}},
{"type":"Feature","properties":{"FID_roi":0,"Id":0,"FID_LINHAS":236,"Shape_Leng":6.229109e-05},"geometry":{"type":"MultiLineString","coordinates":[[[-53.09831618471798,-22.816928618999302,0.0],[-53.09833175654412,-22.816938163021764,0.0]]]}}
]
}
