{
"type": "FeatureCollection",
"name": "sto_ant_LINHAS",
"crs": { "type": "name", "properties": { "name": "urn:ogc:def:crs:OGC:1.3:CRS84" } },
"features": [
{ "type": "Feature", "properties": { "FID_sto_an": 4, "id": 0, "FID_linhas": 1, "Shape_Leng": 0.00029076340951699999 }, "geometry": { "type": "LineString", "coordinates": [ [ -52.983060008895201, -22.838423854665745 ], [ -52.983087455821355, -22.838362330357164 ], [ -52.98310418321141, -22.838325278288906 ], [ -52.983122252390004, -22.838276891165531 ], [ -52.9831404307943, -22.838224368885584 ] ] } },
{ "type": "Feature", "properties": { "FID_sto_an": 4, "id": 0, "FID_linhas": 2, "Shape_Leng": 0.00028987858378800002 }, "geometry": { "type": "LineString", "coordinates": [ [ -52.983052732726648, -22.838421353367821 ], [ -52.983068641104907, -22.83838684137962 ], [ -52.983074154848325, -22.838374182522458 ], [ -52.98308019829247, -22.838359698940923 ], [ -52.983086066368806, -22.8383459474075 ], [ -52.983087229192243, -22.838343458983367 ], [ -52.983108311099571, -22.838292524080671 ], [ -52.983114865358665, -22.838274589800477 ], [ -52.983132883275957, -22.838224501159775 ], [ -52.983133336171811, -22.838223220605446 ] ] } },
{ "type": "Feature", "properties": { "FID_sto_an": 4, "id": 0, "FID_linhas": 3, "Shape_Leng": 0.00023214196538400001 }, "geometry": { "type": "LineString", "coordinates": [ [ -52.983039235271761, -22.838416713404385 ], [ -52.983062039181718, -22.838367513150203 ], [ -52.983080810730748, -22.838319852679078 ], [ -52.983117954406438, -22.838220731033253 ] ] } },
{ "type": "Feature", "properties": { "FID_sto_an": 4, "id": 0, "FID_linhas": 4, "Shape_Leng": 0.00023058453237399999 }, "geometry": { "type": "LineString", "coordinates": [ [ -52.982974523414285, -22.838394467680544 ], [ -52.98299518358084, -22.838350065403134 ], [ -52.983012834574573, -22.838307081406683 ], [ -52.983037026337655, -22.838248460897702 ], [ -52.983049924564497, -22.838209720255275 ] ] } },
{ "type": "Feature", "properties": { "FID_sto_an": 4, "id": 0, "FID_linhas": 5, "Shape_Leng": 0.000233622964625 }, "geometry": { "type": "LineString", "coordinates": [ [ -52.983016865132598, -22.838409023315464 ], [ -52.983044673273007, -22.838348024841459 ], [ -52.983062273904714, -22.83830359833232 ], [ -52.983094952514492, -22.838217008127003 ] ] } },
{ "type": "Feature", "properties": { "FID_sto_an": 4, "id": 0, "FID_linhas": 6, "Shape_Leng": 0.00023927285285500001 }, "geometry": { "type": "LineString", "coordinates": [ [ -52.982994245162168, -22.838401247343153 ], [ -52.983028060096842, -22.838328976301202 ], [ -52.983045283912723, -22.838287325099959 ], [ -52.983072485009124, -22.838213371712367 ] ] } },
{ "type": "Feature", "properties": { "FID_sto_an": 4, "id": 0, "FID_linhas": 7, "Shape_Leng": 0.000220607534666 }, "geometry": { "type": "LineString", "coordinates": [ [ -52.982952903101726, -22.838387035356366 ], [ -52.982989401839447, -22.838306547209374 ], [ -52.983019838494684, -22.838227923979403 ], [ -52.98302762894226, -22.838206111660252 ] ] } },
{ "type": "Feature", "properties": { "FID_sto_an": 4, "id": 0, "FID_linhas": 8, "Shape_Leng": 0.00025618801503100001 }, "geometry": { "type": "LineString", "coordinates": [ [ -52.982930528995958, -22.838379343903824 ], [ -52.982958962486094, -22.83832123313838 ], [ -52.982962657800371, -22.838311765975149 ], [ -52.982994216809644, -22.838230620146959 ], [ -52.983003516021803, -22.838202208931623 ] ] } },
{ "type": "Feature", "properties": { "FID_sto_an": 4, "id": 0, "FID_linhas": 9, "Shape_Leng": 0.000227106055455 }, "geometry": { "type": "LineString", "coordinates": [ [ -52.982923459253655, -22.838376913568158 ], [ -52.982953769800616, -22.838310493434498 ], [ -52.98297946163283, -22.838251048247237 ], [ -52.982984266710503, -22.838237672630445 ], [ -52.982996874811377, -22.838201134037227 ] ] } },
{ "type": "Feature", "properties": { "FID_sto_an": 4, "id": 0, "FID_linhas": 10, "Shape_Leng": 0.000212361491644 }, "geometry": { "type": "LineString", "coordinates": [ [ -52.982910077070379, -22.838372313231158 ], [ -52.982941306096322, -22.838302866284209 ], [ -52.982964276580063, -22.838246588509236 ], [ -52.982982088245535, -22.838198740799353 ] ] } },
{ "type": "Feature", "properties": { "FID_sto_an": 4, "id": 0, "FID_linhas": 11, "Shape_Leng": 0.00024012956282699999 }, "geometry": { "type": "LineString", "coordinates": [ [ -52.982902203013154, -22.83836960639951 ], [ -52.982932612350069, -22.838302821318134 ], [ -52.982956751952472, -22.838248015733353 ], [ -52.982967844190625, -22.838217208557253 ], [ -52.982974061390621, -22.838197441635465 ] ] } },
{ "type": "Feature", "properties": { "FID_sto_an": 4, "id": 0, "FID_linhas": 12, "Shape_Leng": 0.000269250145326 }, "geometry": { "type": "LineString", "coordinates": [ [ -52.982888033131708, -22.838364735278759 ], [ -52.98289713229677, -22.83834693935971 ], [ -52.982913754466189, -22.838308908829074 ], [ -52.982948819932098, -22.838220670947184 ], [ -52.982958496487569, -22.838194922422005 ] ] } },
{ "type": "Feature", "properties": { "FID_sto_an": 4, "id": 0, "FID_linhas": 13, "Shape_Leng": 0.00027854583423400002 }, "geometry": { "type": "LineString", "coordinates": [ [ -52.982880313594251, -22.838362081565776 ], [ -52.982900332084583, -22.838321303285468 ], [ -52.982915966798373, -22.838283676550319 ], [ -52.982944533763167, -22.838209495971395 ], [ -52.982949915672485, -22.83819353359846 ] ] } },
{ "type": "Feature", "properties": { "FID_sto_an": 4, "id": 0, "FID_linhas": 14, "Shape_Leng": 0.000216570622039 }, "geometry": { "type": "LineString", "coordinates": [ [ -52.98286751012148, -22.83835768016964 ], [ -52.982898887773423, -22.838289765859908 ], [ -52.982927364805981, -22.83821644683146 ], [ -52.982936779008377, -22.838191407400753 ] ] } },
{ "type": "Feature", "properties": { "FID_sto_an": 4, "id": 0, "FID_linhas": 15, "Shape_Leng": 0.00022349437573000001 }, "geometry": { "type": "LineString", "coordinates": [ [ -52.982836863217535, -22.838347144811987 ], [ -52.982869104925236, -22.83827833457741 ], [ -52.982898686325235, -22.838202947108343 ], [ -52.982904489709405, -22.838186181307506 ] ] } },
{ "type": "Feature", "properties": { "FID_sto_an": 5, "id": 0, "FID_linhas": 16, "Shape_Leng": 0.00042747123577100001 }, "geometry": { "type": "LineString", "coordinates": [ [ -52.978029084798067, -22.838352537431938 ], [ -52.977982423649877, -22.838262629716532 ], [ -52.97795864377634, -22.838219599854636 ], [ -52.97794168346185, -22.838191903433568 ], [ -52.977928340220672, -22.838170710909566 ], [ -52.977921659157147, -22.838160491913161 ], [ -52.977914945718098, -22.838150528324185 ], [ -52.977907925610225, -22.838140409152551 ], [ -52.977900374002978, -22.838129815138796 ], [ -52.977880650071867, -22.838102602553011 ], [ -52.977868520016152, -22.838086313132798 ], [ -52.97785814813502, -22.838073100293265 ], [ -52.977847640456204, -22.838060592522268 ], [ -52.977836397367611, -22.838047859703202 ] ] } },
{ "type": "Feature", "properties": { "FID_sto_an": 4, "id": 0, "FID_linhas": 17, "Shape_Leng": 0.00019465602731100001 }, "geometry": { "type": "LineString", "coordinates": [ [ -52.982845216778486, -22.838350016480579 ], [ -52.982873454945938, -22.83829151683998 ], [ -52.982887878272912, -22.838255785875749 ], [ -52.9829130277666, -22.838187563210631 ] ] } },
{ "type": "Feature", "properties": { "FID_sto_an": 5, "id": 0, "FID_linhas": 18, "Shape_Leng": 0.00042801872617000001 }, "geometry": { "type": "LineString", "coordinates": [ [ -52.978038506035723, -22.838349226803366 ], [ -52.977996595166722, -22.838269054473258 ], [ -52.97797330632298, -22.838228912334401 ], [ -52.977935038371328, -22.83816701829322 ], [ -52.977906859014261, -22.838125809558395 ], [ -52.977874879122368, -22.838082135781889 ], [ -52.977853731564444, -22.838056085120172 ], [ -52.977844885057451, -22.838046201099637 ] ] } },
{ "type": "Feature", "properties": { "FID_sto_an": 5, "id": 0, "FID_linhas": 19, "Shape_Leng": 0.000371343008436 }, "geometry": { "type": "LineString", "coordinates": [ [ -52.97805093784801, -22.83834485825713 ], [ -52.978042503758495, -22.838327156073412 ], [ -52.978035143706819, -22.838312310064989 ], [ -52.97803115611292, -22.838304803423902 ], [ -52.978021020753523, -22.838286578662647 ], [ -52.978013272194659, -22.83827234419331 ], [ -52.977992959207633, -22.838233693130427 ], [ -52.977988834916772, -22.838226119939463 ], [ -52.977984777175692, -22.838218984718338 ], [ -52.977979189687801, -22.838209626373128 ], [ -52.977972785615506, -22.838199383994361 ], [ -52.977965235806906, -22.83818773417654 ], [ -52.977956260572924, -22.838174252439746 ], [ -52.977941966748311, -22.838152786521814 ], [ -52.977922799497506, -22.838123368798357 ], [ -52.977916064474741, -22.838113849474539 ], [ -52.977905804109561, -22.838100082652634 ], [ -52.977879959392531, -22.838066052306448 ], [ -52.977861725702418, -22.838042910221489 ] ] } },
{ "type": "Feature", "properties": { "FID_sto_an": 4, "id": 0, "FID_linhas": 20, "Shape_Leng": 0.000191099765367 }, "geometry": { "type": "LineString", "coordinates": [ [ -52.982823780654236, -22.838342647474018 ], [ -52.982848581496768, -22.838290805476213 ], [ -52.982861618968492, -22.83825979235543 ], [ -52.982892625002854, -22.838184260978899 ] ] } },
{ "type": "Feature", "properties": { "FID_sto_an": 5, "id": 0, "FID_linhas": 21, "Shape_Leng": 0.00037290421004999998 }, "geometry": { "type": "LineString", "coordinates": [ [ -52.978058188692557, -22.838342310306036 ], [ -52.978042180901824, -22.838309206504647 ], [ -52.97802025453106, -22.838269135412247 ], [ -52.977991633606941, -22.838215552006091 ], [ -52.977962893072984, -22.838170459998718 ], [ -52.977929395125457, -22.838119519699983 ], [ -52.977912196490678, -22.838095951167169 ], [ -52.977869995851961, -22.838041294128097 ] ] } },
{ "type": "Feature", "properties": { "FID_sto_an": 5, "id": 0, "FID_linhas": 22, "Shape_Leng": 0.00044302438591199998 }, "geometry": { "type": "LineString", "coordinates": [ [ -52.978071444724478, -22.838337652128459 ], [ -52.978065458953751, -22.838326297220778 ], [ -52.978035996264133, -22.838270373778723 ], [ -52.978010888091966, -22.838221763623444 ], [ -52.977977793940013, -22.838167048870183 ], [ -52.977951291818627, -22.838125914779116 ], [ -52.977918962090399, -22.838080773308999 ], [ -52.977892340359183, -22.838045115189875 ], [ -52.977886652278507, -22.83803803924862 ] ] } },
{ "type": "Feature", "properties": { "FID_sto_an": 4, "id": 0, "FID_linhas": 23, "Shape_Leng": 0.00022992500898800001 }, "geometry": { "type": "LineString", "coordinates": [ [ -52.982815774623106, -22.838339895274306 ], [ -52.982849355813116, -22.838267303493275 ], [ -52.982874125840212, -22.838206789012116 ], [ -52.982882651835851, -22.838182646800153 ] ] } },
{ "type": "Feature", "properties": { "FID_sto_an": 5, "id": 0, "FID_linhas": 24, "Shape_Leng": 0.00044489325927000003 }, "geometry": { "type": "LineString", "coordinates": [ [ -52.978079002354022, -22.838334996372932 ], [ -52.978036805654021, -22.838250728987951 ], [ -52.978019675367676, -22.838220165528188 ], [ -52.977987389706243, -22.838164871611454 ], [ -52.977963590946921, -22.838129596603562 ], [ -52.977944755545948, -22.838101705928903 ], [ -52.977923134045362, -22.838071754907507 ], [ -52.977921219388747, -22.838069319543418 ], [ -52.977894954051557, -22.838036416975637 ] ] } },
{ "type": "Feature", "properties": { "FID_sto_an": 5, "id": 0, "FID_linhas": 25, "Shape_Leng": 0.0003825909783 }, "geometry": { "type": "LineString", "coordinates": [ [ -52.978089029757818, -22.838331472737238 ], [ -52.978052717358949, -22.838253851434075 ], [ -52.978032488908212, -22.838215279511441 ], [ -52.97801216962587, -22.838179121369272 ], [ -52.977972468154867, -22.838118117656968 ], [ -52.977931097542069, -22.838059284907985 ], [ -52.977910757285208, -22.838033328820927 ] ] } },
{ "type": "Feature", "properties": { "FID_sto_an": 5, "id": 0, "FID_linhas": 26, "Shape_Leng": 0.00038329629204099998 }, "geometry": { "type": "LineString", "coordinates": [ [ -52.978098388340257, -22.83832818412581 ], [ -52.978054893718308, -22.838240624205429 ], [ -52.978034110385835, -22.838199677173264 ], [ -52.978019936171052, -22.838176122130282 ], [ -52.978003180002688, -22.838146619870535 ], [ -52.977980381289548, -22.838114542851805 ], [ -52.977932243278374, -22.838047623399071 ], [ -52.977919264188216, -22.838031666462943 ] ] } },
{ "type": "Feature", "properties": { "FID_sto_an": 5, "id": 0, "FID_linhas": 27, "Shape_Leng": 0.00040529862472000002 }, "geometry": { "type": "LineString", "coordinates": [ [ -52.978114581363627, -22.838322493887663 ], [ -52.97811058153809, -22.838314100615186 ], [ -52.978102731355897, -22.838298376868615 ], [ -52.978095988239161, -22.83828551206668 ], [ -52.978081618871514, -22.838258946992806 ], [ -52.978073444933543, -22.838242879705128 ], [ -52.978064070400478, -22.838223891419428 ], [ -52.978058397477014, -22.838213024011832 ], [ -52.97805205545793, -22.838201802271318 ], [ -52.978038711317382, -22.838179091691678 ], [ -52.978023311326673, -22.838152737059158 ], [ -52.977986594705555, -22.838098206666867 ], [ -52.977976104113871, -22.838083759957527 ], [ -52.977959580869943, -22.838060552052774 ], [ -52.977935198714711, -22.838028552651956 ] ] } },
{ "type": "Feature", "properties": { "FID_sto_an": 5, "id": 0, "FID_linhas": 28, "Shape_Leng": 0.00040705093064400002 }, "geometry": { "type": "LineString", "coordinates": [ [ -52.978121606349461, -22.838320025303481 ], [ -52.978080512705418, -22.838239836399254 ], [ -52.978065358229699, -22.838209774761275 ], [ -52.978045559654745, -22.838175643690949 ], [ -52.978024927408434, -22.838140652868798 ], [ -52.978005454388168, -22.838111635343616 ], [ -52.97797294209753, -22.838063868752489 ], [ -52.977955984481063, -22.838041769711847 ], [ -52.977943980552816, -22.838026836568147 ] ] } },
{ "type": "Feature", "properties": { "FID_sto_an": 5, "id": 0, "FID_linhas": 29, "Shape_Leng": 0.000388959579227 }, "geometry": { "type": "LineString", "coordinates": [ [ -52.97813829619701, -22.838314160481076 ], [ -52.978121025364956, -22.838282854570057 ], [ -52.978092447608354, -22.838230410604886 ], [ -52.978068519346671, -22.838186527286396 ], [ -52.978060453327174, -22.838172087771568 ], [ -52.978053305515587, -22.838160166358556 ], [ -52.978044476871013, -22.838146220571542 ], [ -52.978013029377692, -22.83809895040616 ], [ -52.977998401005401, -22.838076626535052 ], [ -52.977974067149404, -22.838042662738655 ], [ -52.977965820366236, -22.838032091207982 ], [ -52.977959580698524, -22.83802378809947 ] ] } },
{ "type": "Feature", "properties": { "FID_sto_an": 5, "id": 0, "FID_linhas": 30, "Shape_Leng": 0.00039041754713200002 }, "geometry": { "type": "LineString", "coordinates": [ [ -52.978145654351806, -22.838311574821034 ], [ -52.97809940386437, -22.838227154159728 ], [ -52.978067320550316, -22.838168672146452 ], [ -52.978045729626693, -22.838133927738479 ], [ -52.97802883406343, -22.838106267290325 ], [ -52.978008160448169, -22.838075031137727 ], [ -52.977996316376846, -22.838059043889668 ], [ -52.977968124862301, -22.838022118460199 ] ] } },
{ "type": "Feature", "properties": { "FID_sto_an": 5, "id": 0, "FID_linhas": 31, "Shape_Leng": 0.00039669291346200003 }, "geometry": { "type": "LineString", "coordinates": [ [ -52.978158169558014, -22.838307176970062 ], [ -52.978147182146678, -22.838286142491459 ], [ -52.978123208019639, -22.838239635850432 ], [ -52.978114488193086, -22.838223448953009 ], [ -52.978102787113869, -22.838202370642801 ], [ -52.978102193561377, -22.838201295053672 ], [ -52.978072401719935, -22.8381494842113 ], [ -52.978040831019484, -22.83809850434244 ], [ -52.978036673453722, -22.838092341288462 ], [ -52.978014320804213, -22.838060526871761 ], [ -52.978001461398229, -22.838041655497964 ], [ -52.977992976294765, -22.838029587495456 ], [ -52.977984940941141, -22.838018832382566 ] ] } },
{ "type": "Feature", "properties": { "FID_sto_an": 5, "id": 0, "FID_linhas": 32, "Shape_Leng": 0.00039812773548999998 }, "geometry": { "type": "LineString", "coordinates": [ [ -52.978165447227148, -22.838304619592819 ], [ -52.978109720886891, -22.838199072828868 ], [ -52.978081465986783, -22.838147006579067 ], [ -52.978060416455065, -22.838113915125046 ], [ -52.978008020153993, -22.838037755138284 ], [ -52.977992357428029, -22.838017383105868 ] ] } },
{ "type": "Feature", "properties": { "FID_sto_an": 4, "id": 0, "FID_linhas": 33, "Shape_Leng": 0.00029299535606999998 }, "geometry": { "type": "LineString", "coordinates": [ [ -52.983110920755706, -22.838219592621577 ], [ -52.983098206317138, -22.838256022397484 ], [ -52.983082887265333, -22.838294143759729 ], [ -52.983059071418971, -22.838353865938132 ], [ -52.983045277617407, -22.838384683006673 ], [ -52.983031166989718, -22.838413939804902 ] ] } },
{ "type": "Feature", "properties": { "FID_sto_an": 4, "id": 0, "FID_linhas": 34, "Shape_Leng": 0.000252980198195 }, "geometry": { "type": "LineString", "coordinates": [ [ -52.98301992718001, -22.838204865113298 ], [ -52.982993115140133, -22.838278189786564 ], [ -52.982969667116343, -22.838332117633019 ], [ -52.982945347219491, -22.838384437902381 ] ] } },
{ "type": "Feature", "properties": { "FID_sto_an": 4, "id": 0, "FID_linhas": 35, "Shape_Leng": 0.00023282977079200001 }, "geometry": { "type": "LineString", "coordinates": [ [ -52.98292969401578, -22.83819026067928 ], [ -52.982918338310604, -22.838222369766491 ], [ -52.982906078752436, -22.838252406223546 ], [ -52.982888782091621, -22.838296660062806 ], [ -52.982876023409688, -22.838323450866515 ], [ -52.982860505645107, -22.83835527227016 ] ] } },
{ "type": "Feature", "properties": { "FID_sto_an": 4, "id": 0, "FID_linhas": 36, "Shape_Leng": 0.00025186574715699999 }, "geometry": { "type": "LineString", "coordinates": [ [ -52.983065085210391, -22.838212174038851 ], [ -52.983042737032598, -22.838271708372581 ], [ -52.983029694165012, -22.838305537270664 ], [ -52.983015340985119, -22.838337750986359 ], [ -52.982987379533654, -22.838398887174826 ] ] } },
{ "type": "Feature", "properties": { "FID_sto_an": 4, "id": 0, "FID_linhas": 37, "Shape_Leng": 0.00026118183579100003 }, "geometry": { "type": "LineString", "coordinates": [ [ -52.983086643471971, -22.838215663290406 ], [ -52.983074635086304, -22.838249450151981 ], [ -52.983041319701101, -22.838333963041912 ], [ -52.983010205481541, -22.838406733955207 ] ] } },
{ "type": "Feature", "properties": { "FID_sto_an": 4, "id": 0, "FID_linhas": 38, "Shape_Leng": 0.00027339044662099999 }, "geometry": { "type": "LineString", "coordinates": [ [ -52.983041159746385, -22.838208301650397 ], [ -52.983031354313475, -22.838237371357572 ], [ -52.983019729676755, -22.838267096649133 ], [ -52.983003403384345, -22.838310470951416 ], [ -52.982986122011837, -22.838349224537001 ], [ -52.982966251605006, -22.838391624115339 ] ] } },
{ "type": "Feature", "properties": { "FID_sto_an": 2, "id": 0, "FID_linhas": 39, "Shape_Leng": 0.00054009751103500003 }, "geometry": { "type": "LineString", "coordinates": [ [ -52.979129068404134, -22.834104059638193 ], [ -52.979053423576573, -22.834083355162637 ], [ -52.978915853383917, -22.834045500899091 ], [ -52.978775267764412, -22.834012987709173 ], [ -52.97867156737054, -22.833988198862553 ] ] } },
{ "type": "Feature", "properties": { "FID_sto_an": 2, "id": 0, "FID_linhas": 40, "Shape_Leng": 0.00053880492487299995 }, "geometry": { "type": "LineString", "coordinates": [ [ -52.979137685045934, -22.834078213261687 ], [ -52.979050223788761, -22.83405458225316 ], [ -52.978904782729479, -22.834017828759755 ], [ -52.978812597723184, -22.83399560831063 ], [ -52.978730671283415, -22.833976987847681 ], [ -52.978677326473338, -22.833964823790986 ] ] } },
{ "type": "Feature", "properties": { "FID_sto_an": 2, "id": 0, "FID_linhas": 41, "Shape_Leng": 0.00057285222281699998 }, "geometry": { "type": "LineString", "coordinates": [ [ -52.97914305501147, -22.834062105576724 ], [ -52.979090184264578, -22.834048064866263 ], [ -52.978884025477292, -22.83399414781162 ], [ -52.978777720215547, -22.833968662823544 ], [ -52.978681750196948, -22.833946868762233 ] ] } },
{ "type": "Feature", "properties": { "FID_sto_an": 2, "id": 0, "FID_linhas": 42, "Shape_Leng": 0.00056090806024899995 }, "geometry": { "type": "LineString", "coordinates": [ [ -52.979147154959051, -22.834049807422584 ], [ -52.979115136853999, -22.834041016879357 ], [ -52.979005226210212, -22.834012279942705 ], [ -52.978866298041154, -22.833976736037464 ], [ -52.978777372177944, -22.833955335770128 ], [ -52.978684906382838, -22.833934058421001 ] ] } },
{ "type": "Feature", "properties": { "FID_sto_an": 2, "id": 0, "FID_linhas": 43, "Shape_Leng": 0.00056028331853400003 }, "geometry": { "type": "LineString", "coordinates": [ [ -52.979157245725851, -22.834019539278238 ], [ -52.979119677531074, -22.834008568440666 ], [ -52.979009631988887, -22.833981122930446 ], [ -52.978870391755144, -22.833945439630309 ], [ -52.978764393162216, -22.833919807153368 ], [ -52.97869276005131, -22.833902181917075 ] ] } },
{ "type": "Feature", "properties": { "FID_sto_an": 2, "id": 0, "FID_linhas": 44, "Shape_Leng": 0.00055820068511899996 }, "geometry": { "type": "LineString", "coordinates": [ [ -52.979163117338295, -22.834001926859425 ], [ -52.979080427519655, -22.833978666881926 ], [ -52.978934651912603, -22.833940197482082 ], [ -52.978794830716829, -22.83390710153148 ], [ -52.978697271056653, -22.833883872629034 ] ] } },
{ "type": "Feature", "properties": { "FID_sto_an": 2, "id": 0, "FID_linhas": 45, "Shape_Leng": 0.00054025694686499995 }, "geometry": { "type": "LineString", "coordinates": [ [ -52.978669796433365, -22.833995386749905 ], [ -52.978769928489349, -22.834018071576722 ], [ -52.978935660951947, -22.834057009523367 ], [ -52.979046828847991, -22.834087164690885 ], [ -52.979127058489851, -22.834110088553249 ] ] } },
{ "type": "Feature", "properties": { "FID_sto_an": 2, "id": 0, "FID_linhas": 46, "Shape_Leng": 0.00053694453300400001 }, "geometry": { "type": "LineString", "coordinates": [ [ -52.979170335699578, -22.833980274748566 ], [ -52.97905493623626, -22.8339484496612 ], [ -52.978907165033611, -22.83391100908576 ], [ -52.978784407574302, -22.833881427685675 ], [ -52.978702948933936, -22.833860827235441 ] ] } },
{ "type": "Feature", "properties": { "FID_sto_an": 2, "id": 0, "FID_linhas": 47, "Shape_Leng": 0.00055244869554899999 }, "geometry": { "type": "LineString", "coordinates": [ [ -52.979177278047786, -22.833959450563256 ], [ -52.979098704441675, -22.833937871835207 ], [ -52.978935091681095, -22.833895753885901 ], [ -52.978845217932381, -22.83387293179031 ], [ -52.97870794852534, -22.833840534872184 ] ] } },
{ "type": "Feature", "properties": { "FID_sto_an": 2, "id": 0, "FID_linhas": 48, "Shape_Leng": 0.00053208457977900003 }, "geometry": { "type": "LineString", "coordinates": [ [ -52.978675505880148, -22.833972213222452 ], [ -52.978812546461789, -22.834002776806649 ], [ -52.978968685856088, -22.83404140448717 ], [ -52.979134742208494, -22.834087040561911 ] ] } },
{ "type": "Feature", "properties": { "FID_sto_an": 2, "id": 0, "FID_linhas": 49, "Shape_Leng": 0.00055223373312099995 }, "geometry": { "type": "LineString", "coordinates": [ [ -52.978680177525177, -22.833953251929206 ], [ -52.978803118868861, -22.833981821703663 ], [ -52.979025540096515, -22.834037400705419 ], [ -52.979140860462572, -22.834068688319608 ] ] } },
{ "type": "Feature", "properties": { "FID_sto_an": 2, "id": 0, "FID_linhas": 50, "Shape_Leng": 0.00053838962196099997 }, "geometry": { "type": "LineString", "coordinates": [ [ -52.979183895253591, -22.833939601671304 ], [ -52.97899784907149, -22.833890004520029 ], [ -52.978875322737878, -22.833858652354898 ], [ -52.978712274500033, -22.833822976587225 ] ] } },
{ "type": "Feature", "properties": { "FID_sto_an": 2, "id": 0, "FID_linhas": 51, "Shape_Leng": 0.00054333046542999995 }, "geometry": { "type": "LineString", "coordinates": [ [ -52.979190726633412, -22.83391911034569 ], [ -52.979125564493195, -22.83390236929883 ], [ -52.978964160467584, -22.833863282064758 ], [ -52.978830478943422, -22.833830539547705 ], [ -52.978716953758614, -22.833803984391853 ] ] } },
{ "type": "Feature", "properties": { "FID_sto_an": 2, "id": 0, "FID_linhas": 52, "Shape_Leng": 0.00056041069615600004 }, "geometry": { "type": "LineString", "coordinates": [ [ -52.978686901098165, -22.833925962261702 ], [ -52.978801153850135, -22.833952889614139 ], [ -52.978977005484367, -22.833996432089631 ], [ -52.979138917626905, -22.834038571622738 ], [ -52.979149863121634, -22.834041684050209 ] ] } },
{ "type": "Feature", "properties": { "FID_sto_an": 2, "id": 0, "FID_linhas": 53, "Shape_Leng": 0.00053211244182300001 }, "geometry": { "type": "LineString", "coordinates": [ [ -52.979196719787737, -22.833901133351219 ], [ -52.979069260637836, -22.833868665406531 ], [ -52.978904671213527, -22.833827706683273 ], [ -52.978813585178813, -22.833803035581578 ], [ -52.978723001952822, -22.833779435954881 ] ] } },
{ "type": "Feature", "properties": { "FID_sto_an": 2, "id": 0, "FID_linhas": 54, "Shape_Leng": 0.00052584290381600001 }, "geometry": { "type": "LineString", "coordinates": [ [ -52.978690990310866, -22.833909364947246 ], [ -52.978793674188708, -22.833934065005067 ], [ -52.978978234857593, -22.833980940368036 ], [ -52.979028674233824, -22.833993587534017 ], [ -52.979126083402022, -22.834017309850928 ], [ -52.97915528755356, -22.834025412988467 ] ] } },
{ "type": "Feature", "properties": { "FID_sto_an": 2, "id": 0, "FID_linhas": 55, "Shape_Leng": 0.00056879897752900005 }, "geometry": { "type": "LineString", "coordinates": [ [ -52.978695443442952, -22.833891290555485 ], [ -52.97875335038681, -22.833904749804312 ], [ -52.978919554993425, -22.833944255223159 ], [ -52.97914187549712, -22.834003561914805 ], [ -52.979160804425852, -22.834008864643994 ] ] } },
{ "type": "Feature", "properties": { "FID_sto_an": 0, "id": 0, "FID_linhas": 56, "Shape_Leng": 0.000409161527468 }, "geometry": { "type": "LineString", "coordinates": [ [ -52.971142982738122, -22.833843397577812 ], [ -52.971051354036696, -22.833815479500718 ], [ -52.970875821014445, -22.833765037717789 ] ] } },
{ "type": "Feature", "properties": { "FID_sto_an": 0, "id": 0, "FID_linhas": 57, "Shape_Leng": 0.00021183332720299999 }, "geometry": { "type": "LineString", "coordinates": [ [ -52.97099367087889, -22.833843583752088 ], [ -52.970951606631246, -22.833830708620283 ], [ -52.970875774461724, -22.833807447218589 ] ] } },
{ "type": "Feature", "properties": { "FID_sto_an": 0, "id": 0, "FID_linhas": 58, "Shape_Leng": 0.00071635619864700002 }, "geometry": { "type": "LineString", "coordinates": [ [ -52.971466529930446, -22.833842994152342 ], [ -52.971376673894326, -22.833817002952305 ], [ -52.971195072894218, -22.833761227898307 ], [ -52.97101804134951, -22.833709831643411 ], [ -52.970875927453569, -22.83366807167344 ] ] } },
{ "type": "Feature", "properties": { "FID_sto_an": 0, "id": 0, "FID_linhas": 59, "Shape_Leng": 0.00044372694264900001 }, "geometry": { "type": "LineString", "coordinates": [ [ -52.971213021190671, -22.833843310248024 ], [ -52.971096277870949, -22.833808626666684 ], [ -52.97095845946528, -22.83376560669732 ], [ -52.970875847015776, -22.833741350433744 ] ] } },
{ "type": "Feature", "properties": { "FID_sto_an": 2, "id": 0, "FID_linhas": 60, "Shape_Leng": 0.000571282473762 }, "geometry": { "type": "LineString", "coordinates": [ [ -52.978701025388609, -22.833868634529807 ], [ -52.978803759186079, -22.833893515473335 ], [ -52.979077871646453, -22.833962356777281 ], [ -52.97916784854359, -22.833987735192206 ] ] } },
{ "type": "Feature", "properties": { "FID_sto_an": 0, "id": 0, "FID_linhas": 61, "Shape_Leng": 0.00051249438532300002 }, "geometry": { "type": "LineString", "coordinates": [ [ -52.971290583162002, -22.833843213537296 ], [ -52.971211253496499, -22.83382004805674 ], [ -52.971037838125724, -22.833768080732252 ], [ -52.970875870596558, -22.833719868371304 ] ] } },
{ "type": "Feature", "properties": { "FID_sto_an": 0, "id": 0, "FID_linhas": 62, "Shape_Leng": 0.00061770247145900002 }, "geometry": { "type": "LineString", "coordinates": [ [ -52.971395407912752, -22.833843082833138 ], [ -52.97127597500625, -22.833806533044964 ], [ -52.971112838886349, -22.833758182793872 ], [ -52.97087590482198, -22.833688688999953 ] ] } },
{ "type": "Feature", "properties": { "FID_sto_an": 0, "id": 0, "FID_linhas": 63, "Shape_Leng": 0.00027842300869399997 }, "geometry": { "type": "LineString", "coordinates": [ [ -52.971067658261155, -22.833843491498506 ], [ -52.970979589036709, -22.833816431882802 ], [ -52.970875797897023, -22.833786097646435 ] ] } },
{ "type": "Feature", "properties": { "FID_sto_an": 0, "id": 0, "FID_linhas": 64, "Shape_Leng": 0.000152101491669 }, "geometry": { "type": "LineString", "coordinates": [ [ -52.970944662702173, -22.833843644859474 ], [ -52.970875757893822, -22.833822540594205 ] ] } },
{ "type": "Feature", "properties": { "FID_sto_an": 0, "id": 0, "FID_linhas": 65, "Shape_Leng": 0.000118696801289 }, "geometry": { "type": "LineString", "coordinates": [ [ -52.970919344189106, -22.83384367642871 ], [ -52.970875749121376, -22.833830532291199 ] ] } },
{ "type": "Feature", "properties": { "FID_sto_an": 0, "id": 0, "FID_linhas": 66, "Shape_Leng": 0.00076720974748099998 }, "geometry": { "type": "LineString", "coordinates": [ [ -52.971535768601335, -22.8338429078198 ], [ -52.971391140388818, -22.83380196448903 ], [ -52.971224007681762, -22.833751710373051 ], [ -52.970997863260706, -22.833684133515963 ], [ -52.970875949413156, -22.833648066467592 ] ] } },
{ "type": "Feature", "properties": { "FID_sto_an": 0, "id": 0, "FID_linhas": 67, "Shape_Leng": 0.00081526073231200005 }, "geometry": { "type": "LineString", "coordinates": [ [ -52.971610641086343, -22.833842814462567 ], [ -52.971512208021892, -22.833815479500718 ], [ -52.971395708944748, -22.833781977056521 ], [ -52.971205162388259, -22.833725250519898 ], [ -52.971023941801455, -22.833671189573689 ], [ -52.970875974976352, -22.833624778413263 ] ] } },
{ "type": "Feature", "properties": { "FID_sto_an": 2, "id": 0, "FID_linhas": 68, "Shape_Leng": 0.000520632837891 }, "geometry": { "type": "LineString", "coordinates": [ [ -52.978705925614967, -22.833848745469542 ], [ -52.978798932524697, -22.833869922658788 ], [ -52.979013280538439, -22.833923308214054 ], [ -52.979174954428181, -22.833966420464979 ] ] } },
{ "type": "Feature", "properties": { "FID_sto_an": 0, "id": 0, "FID_linhas": 69, "Shape_Leng": 0.00084228759419700003 }, "geometry": { "type": "LineString", "coordinates": [ [ -52.971614380668235, -22.833820154280392 ], [ -52.971536739728691, -22.833798395079818 ], [ -52.971357280913772, -22.833743144330597 ], [ -52.971211229214859, -22.83369845791745 ], [ -52.971076599805194, -22.833659625191526 ], [ -52.970944111681341, -22.833618936264809 ], [ -52.970876004079031, -22.833598265832244 ] ] } },
{ "type": "Feature", "properties": { "FID_sto_an": 2, "id": 0, "FID_linhas": 70, "Shape_Leng": 0.00055479830548699996 }, "geometry": { "type": "LineString", "coordinates": [ [ -52.978710395683109, -22.833830602337567 ], [ -52.978845198147319, -22.833860889868095 ], [ -52.979023067860233, -22.833904980930097 ], [ -52.979181425687088, -22.833947009353682 ] ] } },
{ "type": "Feature", "properties": { "FID_sto_an": 2, "id": 0, "FID_linhas": 71, "Shape_Leng": 0.00053473735685300003 }, "geometry": { "type": "LineString", "coordinates": [ [ -52.978715091275731, -22.833811543845716 ], [ -52.978923637016145, -22.833859437463055 ], [ -52.979188418982453, -22.833926032348128 ] ] } },
{ "type": "Feature", "properties": { "FID_sto_an": 0, "id": 0, "FID_linhas": 72, "Shape_Leng": 0.00083228750254599995 }, "geometry": { "type": "LineString", "coordinates": [ [ -52.971614325562982, -22.833795164018532 ], [ -52.971544020640032, -22.833775552299883 ], [ -52.97141324572469, -22.833737147651178 ], [ -52.971320018404072, -22.833709451230199 ], [ -52.971142415789856, -22.833656912836208 ], [ -52.971041050503999, -22.833627788291743 ], [ -52.970876025631476, -22.833578631598094 ] ] } },
{ "type": "Feature", "properties": { "FID_sto_an": 0, "id": 0, "FID_linhas": 73, "Shape_Leng": 0.000217901652356 }, "geometry": { "type": "LineString", "coordinates": [ [ -52.970875782467232, -22.833800154189831 ], [ -52.971021361946903, -22.833843549224596 ] ] } },
{ "type": "Feature", "properties": { "FID_sto_an": 2, "id": 0, "FID_linhas": 74, "Shape_Leng": 0.00054255054277700004 }, "geometry": { "type": "LineString", "coordinates": [ [ -52.978720836456155, -22.833788225282014 ], [ -52.978855314621022, -22.83382258594353 ], [ -52.979011579021112, -22.833862693008843 ], [ -52.979135948964789, -22.833893257367887 ], [ -52.979194213798898, -22.833908650285494 ] ] } },
{ "type": "Feature", "properties": { "FID_sto_an": 0, "id": 0, "FID_linhas": 75, "Shape_Leng": 0.00083655159383400003 }, "geometry": { "type": "LineString", "coordinates": [ [ -52.971614277405145, -22.833773324405303 ], [ -52.971533741388981, -22.833751139303637 ], [ -52.971386120373126, -22.833709451230199 ], [ -52.971316734979247, -22.833687750589181 ], [ -52.971058468573389, -22.833611655353558 ], [ -52.970924695318423, -22.833571537496432 ], [ -52.970876049571352, -22.833556822400535 ] ] } },
{ "type": "Feature", "properties": { "FID_sto_an": 0, "id": 0, "FID_linhas": 76, "Shape_Leng": 0.00027573814953800002 }, "geometry": { "type": "LineString", "coordinates": [ [ -52.970875806423983, -22.833778329583975 ], [ -52.97109590686852, -22.833843456275837 ] ] } },
{ "type": "Feature", "properties": { "FID_sto_an": 0, "id": 0, "FID_linhas": 77, "Shape_Leng": 0.00081039235168499997 }, "geometry": { "type": "LineString", "coordinates": [ [ -52.971614231845678, -22.833752663177819 ], [ -52.971512897801944, -22.833724013052702 ], [ -52.971349857010232, -22.833676900268717 ], [ -52.971162546214472, -22.833619222249201 ], [ -52.97104933146143, -22.833585671241718 ], [ -52.970876074648537, -22.83353397709098 ] ] } },
{ "type": "Feature", "properties": { "FID_sto_an": 0, "id": 0, "FID_linhas": 78, "Shape_Leng": 0.00039772572403100001 }, "geometry": { "type": "LineString", "coordinates": [ [ -52.970875831228405, -22.833755732765514 ], [ -52.971043168407455, -22.833804439423332 ], [ -52.971169531986163, -22.833843364473982 ] ] } },
{ "type": "Feature", "properties": { "FID_sto_an": 0, "id": 0, "FID_linhas": 79, "Shape_Leng": 0.00080048035148600003 }, "geometry": { "type": "LineString", "coordinates": [ [ -52.971614182834038, -22.833730436378929 ], [ -52.97154230743152, -22.833709736315221 ], [ -52.971379267539092, -22.833661623485145 ], [ -52.971281899739843, -22.833633070010094 ], [ -52.971216797816879, -22.833612654500367 ], [ -52.971083166654743, -22.833573821774355 ], [ -52.970937686924707, -22.833529849422995 ], [ -52.970876099093957, -22.833511707271303 ] ] } },
{ "type": "Feature", "properties": { "FID_sto_an": 0, "id": 0, "FID_linhas": 80, "Shape_Leng": 0.00043439825347699998 }, "geometry": { "type": "LineString", "coordinates": [ [ -52.970875855352396, -22.833733755743179 ], [ -52.971021086453945, -22.833777217844297 ], [ -52.971241383389035, -22.833843274883691 ] ] } },
{ "type": "Feature", "properties": { "FID_sto_an": 0, "id": 0, "FID_linhas": 81, "Shape_Leng": 0.00080921921480499998 }, "geometry": { "type": "LineString", "coordinates": [ [ -52.971614129966198, -22.833706460818547 ], [ -52.971537881867697, -22.833684752249471 ], [ -52.971388118666745, -22.833642065029224 ], [ -52.971215940762988, -22.833591524928853 ], [ -52.971051757832271, -22.833541270812962 ], [ -52.970876127283496, -22.833486026634574 ] ] } },
{ "type": "Feature", "properties": { "FID_sto_an": 0, "id": 0, "FID_linhas": 82, "Shape_Leng": 0.00051099296302199997 }, "geometry": { "type": "LineString", "coordinates": [ [ -52.970875880469372, -22.833710874195589 ], [ -52.971011378272486, -22.833752661855854 ], [ -52.97118955285557, -22.833805581562249 ], [ -52.971320092147572, -22.833843176743084 ] ] } },
{ "type": "Feature", "properties": { "FID_sto_an": 0, "id": 0, "FID_linhas": 83, "Shape_Leng": 0.00081095273712599998 }, "geometry": { "type": "LineString", "coordinates": [ [ -52.971614079016639, -22.83368335519642 ], [ -52.97156629235046, -22.833670618504186 ], [ -52.971454933798128, -22.83364020882852 ], [ -52.971327157222497, -22.833602661233797 ], [ -52.971195668245457, -22.833562400384476 ], [ -52.971034625747365, -22.833512431353608 ], [ -52.970876150825731, -22.833464579659356 ] ] } },
{ "type": "Feature", "properties": { "FID_sto_an": 0, "id": 0, "FID_linhas": 84, "Shape_Leng": 0.00065817507711800002 }, "geometry": { "type": "LineString", "coordinates": [ [ -52.970875894722681, -22.833697889464609 ], [ -52.971007191029045, -22.833734768045066 ], [ -52.971212586291799, -22.833795111654997 ], [ -52.971255438987235, -22.833808517848752 ], [ -52.971367304800026, -22.833843117874441 ] ] } },
{ "type": "Feature", "properties": { "FID_sto_an": 0, "id": 0, "FID_linhas": 85, "Shape_Leng": 0.00063588149463100004 }, "geometry": { "type": "LineString", "coordinates": [ [ -52.97087591850881, -22.833676220320619 ], [ -52.971020325627521, -22.833718968755367 ], [ -52.971207065353688, -22.833773220357777 ], [ -52.971441771690898, -22.833843025022937 ] ] } },
{ "type": "Feature", "properties": { "FID_sto_an": 0, "id": 0, "FID_linhas": 86, "Shape_Leng": 0.00083186688088000003 }, "geometry": { "type": "LineString", "coordinates": [ [ -52.971614034568816, -22.833663198104336 ], [ -52.971507758176507, -22.833633927064078 ], [ -52.97140482267443, -22.83360223225721 ], [ -52.97125834289821, -22.833558545890153 ], [ -52.971126282851671, -22.833518999102441 ], [ -52.970984371631381, -22.833478024191422 ], [ -52.970876172658315, -22.833444690182002 ] ] } },
{ "type": "Feature", "properties": { "FID_sto_an": 0, "id": 0, "FID_linhas": 87, "Shape_Leng": 0.00080707347059600005 }, "geometry": { "type": "LineString", "coordinates": [ [ -52.971613992200844, -22.833643984206663 ], [ -52.971513325879251, -22.833616508994602 ], [ -52.971334866211052, -22.833561972307081 ], [ -52.971218796110499, -22.83352799322229 ], [ -52.971084166700926, -22.833487447287858 ], [ -52.970959815642942, -22.833449613708655 ], [ -52.970876983861331, -22.833424185625194 ] ] } },
{ "type": "Feature", "properties": { "FID_sto_an": 0, "id": 0, "FID_linhas": 88, "Shape_Leng": 0.00071758403099099997 }, "geometry": { "type": "LineString", "coordinates": [ [ -52.970875939001573, -22.833657551419261 ], [ -52.971037457712427, -22.833704120948383 ], [ -52.971201164901828, -22.833753043168347 ], [ -52.971374960685907, -22.833804058110751 ], [ -52.971511042573972, -22.83384293865025 ] ] } },
{ "type": "Feature", "properties": { "FID_sto_an": 0, "id": 0, "FID_linhas": 89, "Shape_Leng": 0.00074738023440399997 }, "geometry": { "type": "LineString", "coordinates": [ [ -52.971613942151457, -22.833621286827753 ], [ -52.971535454597486, -22.833600376955786 ], [ -52.971363848662605, -22.83354897980152 ], [ -52.971202949156705, -22.833501438940228 ], [ -52.97104633312172, -22.833454039272482 ], [ -52.970948378195153, -22.833424274812341 ] ] } },
{ "type": "Feature", "properties": { "FID_sto_an": 0, "id": 0, "FID_linhas": 90, "Shape_Leng": 0.00078983585191800003 }, "geometry": { "type": "LineString", "coordinates": [ [ -52.970875963710256, -22.833635041813793 ], [ -52.970999576469218, -22.833671760643192 ], [ -52.971242662318978, -22.833744476226613 ], [ -52.971407892060512, -22.833793398446488 ], [ -52.971509352674467, -22.83382404554326 ], [ -52.971576949094391, -22.833842856472518 ] ] } },
{ "type": "Feature", "properties": { "FID_sto_an": 0, "id": 0, "FID_linhas": 91, "Shape_Leng": 0.00066635947376099999 }, "geometry": { "type": "LineString", "coordinates": [ [ -52.971613894864923, -22.833599842370344 ], [ -52.971523891114693, -22.833574963913449 ], [ -52.971381551817103, -22.833532989855531 ], [ -52.97124806364716, -22.833492158835988 ], [ -52.971125140712573, -22.833456038465382 ], [ -52.971019558523629, -22.833424363732234 ] ] } },
{ "type": "Feature", "properties": { "FID_sto_an": 0, "id": 0, "FID_linhas": 92, "Shape_Leng": 0.00083038033146599997 }, "geometry": { "type": "LineString", "coordinates": [ [ -52.970875997251689, -22.833604485557423 ], [ -52.970969238739286, -22.833634070056274 ], [ -52.971124997720466, -22.833681468824651 ], [ -52.971278758407941, -22.833726583315105 ], [ -52.971425381176353, -22.833771982890671 ], [ -52.971614399917016, -22.833828883601925 ] ] } },
{ "type": "Feature", "properties": { "FID_sto_an": 0, "id": 0, "FID_linhas": 93, "Shape_Leng": 0.00056172875268200001 }, "geometry": { "type": "LineString", "coordinates": [ [ -52.971613836757271, -22.8335734905585 ], [ -52.971530886041556, -22.833550693010029 ], [ -52.971431805932994, -22.833522425519547 ], [ -52.971335294288359, -22.833494015036692 ], [ -52.971240639743712, -22.833465746646841 ], [ -52.971105556339964, -22.833424471162388 ] ] } },
{ "type": "Feature", "properties": { "FID_sto_an": 0, "id": 0, "FID_linhas": 94, "Shape_Leng": 0.00083709896271000003 }, "geometry": { "type": "LineString", "coordinates": [ [ -52.970876017815243, -22.833585752207529 ], [ -52.970973949388224, -22.833614367708876 ], [ -52.971098443438407, -22.83365120214118 ], [ -52.971204805357409, -22.833681182840259 ], [ -52.971396684709198, -22.833739003851882 ], [ -52.97155529993708, -22.833785688558649 ], [ -52.971614340718588, -22.833802037106764 ] ] } },
{ "type": "Feature", "properties": { "FID_sto_an": 0, "id": 0, "FID_linhas": 95, "Shape_Leng": 0.00083016863608399998 }, "geometry": { "type": "LineString", "coordinates": [ [ -52.970876040227893, -22.833565334268723 ], [ -52.970969523824401, -22.833593238137361 ], [ -52.971121143226142, -22.833639066689514 ], [ -52.97138854674396, -22.833717874280367 ], [ -52.971522748975602, -22.833755279782263 ], [ -52.971614292546903, -22.833780191209584 ] ] } },
{ "type": "Feature", "properties": { "FID_sto_an": 0, "id": 0, "FID_linhas": 96, "Shape_Leng": 0.00048174115435400001 }, "geometry": { "type": "LineString", "coordinates": [ [ -52.971613782635679, -22.833548946451753 ], [ -52.97153574058197, -22.833526851083285 ], [ -52.971392830214874, -22.833485020017651 ], [ -52.971288038512093, -22.83345575248099 ], [ -52.971186084611922, -22.833424571759874 ] ] } },
{ "type": "Feature", "properties": { "FID_sto_an": 0, "id": 0, "FID_linhas": 97, "Shape_Leng": 0.00082959271432000005 }, "geometry": { "type": "LineString", "coordinates": [ [ -52.970876066670648, -22.833541244930998 ], [ -52.971012068951822, -22.833582815894204 ], [ -52.971140559589152, -22.833620649473318 ], [ -52.971398254925511, -22.83369945706426 ], [ -52.971578713786606, -22.83374971118015 ], [ -52.971614248246958, -22.833760101167154 ] ] } },
{ "type": "Feature", "properties": { "FID_sto_an": 0, "id": 0, "FID_linhas": 98, "Shape_Leng": 0.00040267520913100002 }, "geometry": { "type": "LineString", "coordinates": [ [ -52.971613737310335, -22.833528391441082 ], [ -52.971537881867697, -22.833506292581362 ], [ -52.971427522462172, -22.833475311836104 ], [ -52.971327585299804, -22.833446187291639 ], [ -52.971255241352523, -22.833424658151745 ] ] } },
{ "type": "Feature", "properties": { "FID_sto_an": 0, "id": 0, "FID_linhas": 99, "Shape_Leng": 0.00036698187004800001 }, "geometry": { "type": "LineString", "coordinates": [ [ -52.971613708088285, -22.833515139262261 ], [ -52.971533741388981, -22.833491301782093 ], [ -52.971439800906033, -22.833465460662449 ], [ -52.97134771572442, -22.833438049326404 ], [ -52.971306189312863, -22.833424721796924 ] ] } },
{ "type": "Feature", "properties": { "FID_sto_an": 0, "id": 0, "FID_linhas": 100, "Shape_Leng": 0.00081093771765499995 }, "geometry": { "type": "LineString", "coordinates": [ [ -52.970876089762399, -22.833520208364643 ], [ -52.970968238693196, -22.833547124500186 ], [ -52.97113599103313, -22.833597663701187 ], [ -52.971232216693366, -22.833626646152737 ], [ -52.971422239844451, -22.83368246797146 ], [ -52.971614199710672, -22.833738089936894 ] ] } },
{ "type": "Feature", "properties": { "FID_sto_an": 0, "id": 0, "FID_linhas": 101, "Shape_Leng": 0.00033739990772099998 }, "geometry": { "type": "LineString", "coordinates": [ [ -52.971613689713564, -22.833506806331471 ], [ -52.971544306624423, -22.83348644814096 ], [ -52.971392544230483, -22.833443617928605 ], [ -52.971332828792733, -22.833424755075459 ] ] } },
{ "type": "Feature", "properties": { "FID_sto_an": 0, "id": 0, "FID_linhas": 102, "Shape_Leng": 0.00027507496068999998 }, "geometry": { "type": "LineString", "coordinates": [ [ -52.971613662438578, -22.833494437142509 ], [ -52.971546482983783, -22.833474866671754 ], [ -52.971459508649382, -22.833447645991999 ], [ -52.971383070157842, -22.833424817837965 ] ] } },
{ "type": "Feature", "properties": { "FID_sto_an": 0, "id": 0, "FID_linhas": 103, "Shape_Leng": 0.00024394220486800001 }, "geometry": { "type": "LineString", "coordinates": [ [ -52.971613645210496, -22.833486624189558 ], [ -52.97156553152395, -22.833472979894086 ], [ -52.971484296662979, -22.833448138820533 ], [ -52.971412016694565, -22.833424853998551 ] ] } },
{ "type": "Feature", "properties": { "FID_sto_an": 0, "id": 0, "FID_linhas": 104, "Shape_Leng": 0.00081201088269399998 }, "geometry": { "type": "LineString", "coordinates": [ [ -52.97087611567634, -22.833496600751978 ], [ -52.970981373291671, -22.833527708137179 ], [ -52.971123141519762, -22.833571394504148 ], [ -52.97127333369739, -22.833616937971279 ], [ -52.971405107759452, -22.833654199581609 ], [ -52.971539881060593, -22.833691748075701 ], [ -52.971614146895853, -22.833714138426874 ] ] } },
{ "type": "Feature", "properties": { "FID_sto_an": 0, "id": 0, "FID_linhas": 105, "Shape_Leng": 0.00020351891331699999 }, "geometry": { "type": "LineString", "coordinates": [ [ -52.971613619954965, -22.833475170794081 ], [ -52.971538442145388, -22.833452507727014 ], [ -52.971444978727938, -22.833424895175302 ] ] } },
{ "type": "Feature", "properties": { "FID_sto_an": 0, "id": 0, "FID_linhas": 106, "Shape_Leng": 0.00018703860774 }, "geometry": { "type": "LineString", "coordinates": [ [ -52.971613601199209, -22.833466665072621 ], [ -52.971576436703195, -22.833455270444357 ], [ -52.971471395835813, -22.833424928176104 ] ] } },
{ "type": "Feature", "properties": { "FID_sto_an": 0, "id": 0, "FID_linhas": 107, "Shape_Leng": 0.00082092941640499997 }, "geometry": { "type": "LineString", "coordinates": [ [ -52.970876141693481, -22.833472899120565 ], [ -52.970958388418822, -22.833497155469317 ], [ -52.971131422477107, -22.833551121986616 ], [ -52.971272905620083, -22.833594380276367 ], [ -52.971439086844335, -22.833642921183838 ], [ -52.971614097977827, -22.833691954083179 ] ] } },
{ "type": "Feature", "properties": { "FID_sto_an": 0, "id": 0, "FID_linhas": 108, "Shape_Leng": 0.000106181131091 }, "geometry": { "type": "LineString", "coordinates": [ [ -52.971613564351706, -22.833449954706907 ], [ -52.971527190903672, -22.833424997876349 ] ] } },
{ "type": "Feature", "properties": { "FID_sto_an": 0, "id": 0, "FID_linhas": 109, "Shape_Leng": 0.00081446589221099996 }, "geometry": { "type": "LineString", "coordinates": [ [ -52.970876163034902, -22.833453457121532 ], [ -52.970964241206765, -22.83347973739993 ], [ -52.971130423330386, -22.833527708137179 ], [ -52.971262340384641, -22.83356696894041 ], [ -52.971416672141707, -22.833613368562066 ], [ -52.971614051609585, -22.833670926088011 ] ] } },
{ "type": "Feature", "properties": { "FID_sto_an": 0, "id": 0, "FID_linhas": 110, "Shape_Leng": 9.8130615671700007e-05 }, "geometry": { "type": "LineString", "coordinates": [ [ -52.971613549157375, -22.833443064060987 ], [ -52.971550956012216, -22.833425027564157 ] ] } },
{ "type": "Feature", "properties": { "FID_sto_an": 0, "id": 0, "FID_linhas": 111, "Shape_Leng": 0.00081767324165699996 }, "geometry": { "type": "LineString", "coordinates": [ [ -52.970876185143794, -22.833433315876594 ], [ -52.970961671843646, -22.833458607828415 ], [ -52.971144414083383, -22.833512431353608 ], [ -52.971305313589284, -22.833559830121985 ], [ -52.971438515774828, -22.833599805886283 ], [ -52.971536454643669, -22.833629643593166 ], [ -52.971614008452818, -22.833651354486427 ] ] } },
{ "type": "Feature", "properties": { "FID_sto_an": 0, "id": 0, "FID_linhas": 112, "Shape_Leng": 0.00051627717395599999 }, "geometry": { "type": "LineString", "coordinates": [ [ -52.971154903320596, -22.833424532807566 ], [ -52.971267765994561, -22.83345775167389 ], [ -52.971405393743936, -22.833496584399814 ], [ -52.971571003898681, -22.833545839368895 ], [ -52.971613800913232, -22.833557235310952 ] ] } },
{ "type": "Feature", "properties": { "FID_sto_an": 0, "id": 0, "FID_linhas": 113, "Shape_Leng": 0.00076636538521399999 }, "geometry": { "type": "LineString", "coordinates": [ [ -52.970923658474838, -22.833424243931976 ], [ -52.971009355697134, -22.833449756700851 ], [ -52.971191384774542, -22.833504008303262 ], [ -52.971371843635644, -22.83355797482065 ], [ -52.971546162825128, -22.833610798299663 ], [ -52.971613958332377, -22.83362862486069 ] ] } },
{ "type": "Feature", "properties": { "FID_sto_an": 0, "id": 0, "FID_linhas": 114, "Shape_Leng": 0.00068187608211099995 }, "geometry": { "type": "LineString", "coordinates": [ [ -52.970994632711815, -22.833424332594387 ], [ -52.971092874836202, -22.833454753334181 ], [ -52.97124049675152, -22.833498154616127 ], [ -52.971399540056623, -22.833546410438398 ], [ -52.971613911902232, -22.833607568802993 ] ] } },
{ "type": "Feature", "properties": { "FID_sto_an": 0, "id": 0, "FID_linhas": 115, "Shape_Leng": 0.00060663928972000002 }, "geometry": { "type": "LineString", "coordinates": [ [ -52.971079954145374, -22.833424439179616 ], [ -52.971172396488846, -22.833453040125672 ], [ -52.971343432253505, -22.833503580226044 ], [ -52.971504045775099, -22.833550693010029 ], [ -52.971613853420301, -22.833581047237338 ] ] } },
{ "type": "Feature", "properties": { "FID_sto_an": 0, "id": 0, "FID_linhas": 116, "Shape_Leng": 0.00043952242427499998 }, "geometry": { "type": "LineString", "coordinates": [ [ -52.971228986717612, -22.833424625353981 ], [ -52.971312023431118, -22.833450184778158 ], [ -52.971430234817397, -22.833484163863037 ], [ -52.971613751930903, -22.833535021862716 ] ] } },
{ "type": "Feature", "properties": { "FID_sto_an": 3, "id": 0, "FID_linhas": 117, "Shape_Leng": 0.00039307057413799998 }, "geometry": { "type": "LineString", "coordinates": [ [ -52.980873548990516, -22.833390658188279 ], [ -52.980825484608353, -22.83337086547299 ], [ -52.980619879803527, -22.833283972976947 ], [ -52.98053375443456, -22.83324843246508 ] ] } },
{ "type": "Feature", "properties": { "FID_sto_an": 3, "id": 0, "FID_linhas": 118, "Shape_Leng": 0.000394170516762 }, "geometry": { "type": "LineString", "coordinates": [ [ -52.980879977815277, -22.833378906906376 ], [ -52.980822357665652, -22.833354275679273 ], [ -52.980593337212738, -22.833259456558629 ], [ -52.980541027501154, -22.833238210337846 ] ] } },
{ "type": "Feature", "properties": { "FID_sto_an": 3, "id": 0, "FID_linhas": 119, "Shape_Leng": 0.00038518893155000002 }, "geometry": { "type": "LineString", "coordinates": [ [ -52.98089031424859, -22.833360012886516 ], [ -52.980828667309126, -22.833334319723008 ], [ -52.980637395899038, -22.833254703641636 ], [ -52.98055347287815, -22.833220718647883 ] ] } },
{ "type": "Feature", "properties": { "FID_sto_an": 3, "id": 0, "FID_linhas": 120, "Shape_Leng": 0.00039883005973699999 }, "geometry": { "type": "LineString", "coordinates": [ [ -52.98090026964865, -22.83334181535912 ], [ -52.98081361175872, -22.833305645738932 ], [ -52.980655522634173, -22.833239187638398 ], [ -52.980567034501348, -22.833201658099544 ] ] } },
{ "type": "Feature", "properties": { "FID_sto_an": 3, "id": 0, "FID_linhas": 121, "Shape_Leng": 0.00039753828834599998 }, "geometry": { "type": "LineString", "coordinates": [ [ -52.980910167127931, -22.833323723705789 ], [ -52.98083651659195, -22.833292555207251 ], [ -52.980669048437761, -22.833219141749982 ], [ -52.980580801755885, -22.833182308541144 ] ] } },
{ "type": "Feature", "properties": { "FID_sto_an": 3, "id": 0, "FID_linhas": 122, "Shape_Leng": 0.00038781469327599997 }, "geometry": { "type": "LineString", "coordinates": [ [ -52.980922181397688, -22.833301762760104 ], [ -52.980833229569825, -22.833264882168546 ], [ -52.980698146901929, -22.833206546744677 ], [ -52.980594134042448, -22.833163570320213 ] ] } },
{ "type": "Feature", "properties": { "FID_sto_an": 3, "id": 0, "FID_linhas": 123, "Shape_Leng": 0.00039086960397699999 }, "geometry": { "type": "LineString", "coordinates": [ [ -52.98093350892416, -22.833281057115972 ], [ -52.98083264411121, -22.833238703803115 ], [ -52.980607000061013, -22.833145487428141 ] ] } },
{ "type": "Feature", "properties": { "FID_sto_an": 3, "id": 0, "FID_linhas": 124, "Shape_Leng": 0.00040565767076799998 }, "geometry": { "type": "LineString", "coordinates": [ [ -52.980942981006031, -22.833263743048636 ], [ -52.980901206625369, -22.833245878594365 ], [ -52.980814685549284, -22.833208920055558 ], [ -52.980618740324708, -22.833128986758688 ] ] } },
{ "type": "Feature", "properties": { "FID_sto_an": 3, "id": 0, "FID_linhas": 125, "Shape_Leng": 0.00040127528931200001 }, "geometry": { "type": "LineString", "coordinates": [ [ -52.980529346440854, -22.833254627798482 ], [ -52.980633884046448, -22.83329698706622 ], [ -52.980869460260806, -22.833398131998383 ] ] } },
{ "type": "Feature", "properties": { "FID_sto_an": 3, "id": 0, "FID_linhas": 126, "Shape_Leng": 0.00038787578826299999 }, "geometry": { "type": "LineString", "coordinates": [ [ -52.98095304905749, -22.833245339605245 ], [ -52.980890168346541, -22.833220710167645 ], [ -52.98070974533055, -22.833144699917817 ] ] } },
{ "type": "Feature", "properties": { "FID_sto_an": 3, "id": 0, "FID_linhas": 127, "Shape_Leng": 0.000396768575343 }, "geometry": { "type": "LineString", "coordinates": [ [ -52.980957392794238, -22.833237399666316 ], [ -52.980897446559865, -22.833214264726486 ], [ -52.980827702499383, -22.833184960157936 ] ] } },
{ "type": "Feature", "properties": { "FID_sto_an": 3, "id": 0, "FID_linhas": 128, "Shape_Leng": 0.00040446595146799999 }, "geometry": { "type": "LineString", "coordinates": [ [ -52.980545490519461, -22.833231937668707 ], [ -52.980604844038275, -22.833256637184029 ], [ -52.980817229731308, -22.833341916296334 ], [ -52.98088416828201, -22.83337124713054 ] ] } },
{ "type": "Feature", "properties": { "FID_sto_an": 3, "id": 0, "FID_linhas": 129, "Shape_Leng": 0.00041464845918299999 }, "geometry": { "type": "LineString", "coordinates": [ [ -52.980558806901328, -22.833213221801451 ], [ -52.980651978406058, -22.833250698960605 ], [ -52.980835360063828, -22.833326590949387 ], [ -52.980894502971644, -22.833352356297908 ] ] } },
{ "type": "Feature", "properties": { "FID_sto_an": 3, "id": 0, "FID_linhas": 130, "Shape_Leng": 0.00039780775715900002 }, "geometry": { "type": "LineString", "coordinates": [ [ -52.980571712826631, -22.833195082821444 ], [ -52.980704567161986, -22.833251191789049 ], [ -52.980903957609698, -22.833335074116178 ] ] } },
{ "type": "Feature", "properties": { "FID_sto_an": 3, "id": 0, "FID_linhas": 131, "Shape_Leng": 0.000408503691332 }, "geometry": { "type": "LineString", "coordinates": [ [ -52.980585077442001, -22.833176299162993 ], [ -52.980718721591707, -22.833231902230477 ], [ -52.980914512297488, -22.833315781147888 ] ] } },
{ "type": "Feature", "properties": { "FID_sto_an": 3, "id": 0, "FID_linhas": 132, "Shape_Leng": 0.00039376019426400001 }, "geometry": { "type": "LineString", "coordinates": [ [ -52.980598483830889, -22.833157456793018 ], [ -52.980725212898221, -22.833210224072541 ], [ -52.980925500940991, -22.833295694949761 ] ] } },
{ "type": "Feature", "properties": { "FID_sto_an": 3, "id": 0, "FID_linhas": 133, "Shape_Leng": 0.000388147997609 }, "geometry": { "type": "LineString", "coordinates": [ [ -52.980611066569743, -22.833139772044063 ], [ -52.980735035293563, -22.833190797817004 ], [ -52.980841436782868, -22.833233625331516 ], [ -52.980936392700933, -22.83327578584553 ] ] } },
{ "type": "Feature", "properties": { "FID_sto_an": 3, "id": 0, "FID_linhas": 134, "Shape_Leng": 0.00043063596042900001 }, "geometry": { "type": "LineString", "coordinates": [ [ -52.980623313290714, -22.833122559560625 ], [ -52.9806615004279, -22.833139342206831 ], [ -52.98085190579075, -22.833216102041408 ], [ -52.980946324658142, -22.833257631169634 ] ] } },
{ "type": "Feature", "properties": { "FID_sto_an": 1, "id": 0, "FID_linhas": 135, "Shape_Leng": 0.00061981856761600005 }, "geometry": { "type": "LineString", "coordinates": [ [ -52.972787714295379, -22.832566111440688 ], [ -52.972612992595515, -22.832521373062885 ], [ -52.972506905868912, -22.832493617286541 ], [ -52.972442083635201, -22.832477234336878 ], [ -52.972327869735352, -22.832446111498793 ], [ -52.972234550743615, -22.832419401405634 ] ] } },
{ "type": "Feature", "properties": { "FID_sto_an": 1, "id": 0, "FID_linhas": 136, "Shape_Leng": 0.00063125051602500005 }, "geometry": { "type": "LineString", "coordinates": [ [ -52.972789943483235, -22.832551320123539 ], [ -52.972737961487638, -22.832538552811886 ], [ -52.972619702437264, -22.832504764383298 ], [ -52.972543607201644, -22.832482492672867 ], [ -52.972317653436875, -22.832426909174529 ], [ -52.972239519468339, -22.832405323352333 ] ] } },
{ "type": "Feature", "properties": { "FID_sto_an": 1, "id": 0, "FID_linhas": 137, "Shape_Leng": 0.00061408335928099999 }, "geometry": { "type": "LineString", "coordinates": [ [ -52.972792815427695, -22.832532263927362 ], [ -52.972683686502869, -22.832503575479567 ], [ -52.972563189939208, -22.832471166611001 ], [ -52.972327147579769, -22.832407397483333 ], [ -52.972246738157715, -22.832384870399046 ] ] } },
{ "type": "Feature", "properties": { "FID_sto_an": 1, "id": 0, "FID_linhas": 138, "Shape_Leng": 0.00060684885435800004 }, "geometry": { "type": "LineString", "coordinates": [ [ -52.972796145484281, -22.832510168022701 ], [ -52.972712620391043, -22.832488203367895 ], [ -52.972590839595547, -22.832453939197904 ], [ -52.972539252684363, -22.832440281193932 ], [ -52.972441028730415, -22.83241382224006 ], [ -52.972334048077812, -22.832386220247813 ], [ -52.972253101602952, -22.832366840637452 ] ] } },
{ "type": "Feature", "properties": { "FID_sto_an": 1, "id": 0, "FID_linhas": 139, "Shape_Leng": 0.00060567228305099998 }, "geometry": { "type": "LineString", "coordinates": [ [ -52.972797189665116, -22.832503239575995 ], [ -52.972684601113386, -22.83247325303812 ], [ -52.972579239240474, -22.832443271439761 ], [ -52.97246088486191, -22.832410292401061 ], [ -52.972325183460413, -22.832377860150043 ], [ -52.972255536412284, -22.832359942010893 ] ] } },
{ "type": "Feature", "properties": { "FID_sto_an": 1, "id": 0, "FID_linhas": 140, "Shape_Leng": 0.00062835108483200001 }, "geometry": { "type": "LineString", "coordinates": [ [ -52.972800459051122, -22.832481546238203 ], [ -52.972716811231784, -22.832459634604362 ], [ -52.972574876629224, -22.832421801025248 ], [ -52.97238673216193, -22.832370095403508 ], [ -52.972292220609475, -22.832347823693077 ], [ -52.97226241768508, -22.832340445071274 ] ] } },
{ "type": "Feature", "properties": { "FID_sto_an": 1, "id": 0, "FID_linhas": 141, "Shape_Leng": 0.00064572767379100001 }, "geometry": { "type": "LineString", "coordinates": [ [ -52.972802217485409, -22.83246987850973 ], [ -52.97273522125338, -22.832452122567325 ], [ -52.972603161206926, -22.832417858397335 ], [ -52.972417277635188, -22.832368175350947 ], [ -52.972267104981853, -22.832327164397114 ] ] } },
{ "type": "Feature", "properties": { "FID_sto_an": 1, "id": 0, "FID_linhas": 142, "Shape_Leng": 0.00060812595624700004 }, "geometry": { "type": "LineString", "coordinates": [ [ -52.972805548028269, -22.832447779378317 ], [ -52.972716947029468, -22.832424329918876 ], [ -52.972590550013855, -22.832391398544182 ], [ -52.972370687357241, -22.832331816659956 ], [ -52.972274680050518, -22.832305701702559 ] ] } },
{ "type": "Feature", "properties": { "FID_sto_an": 1, "id": 0, "FID_linhas": 143, "Shape_Leng": 0.000599296800881 }, "geometry": { "type": "LineString", "coordinates": [ [ -52.972809553833379, -22.832421199683427 ], [ -52.972781287226638, -22.832414621737328 ], [ -52.972605397820843, -22.832367984694745 ], [ -52.972282905007056, -22.832281197596437 ] ] } },
{ "type": "Feature", "properties": { "FID_sto_an": 1, "id": 0, "FID_linhas": 144, "Shape_Leng": 0.00061168018114299999 }, "geometry": { "type": "LineString", "coordinates": [ [ -52.972810675784977, -22.832413755204438 ], [ -52.972679565809301, -22.832381535679346 ], [ -52.97258419720287, -22.832355266482306 ], [ -52.9724456170715, -22.832317575895388 ], [ -52.972284874307597, -22.832274391417261 ] ] } },
{ "type": "Feature", "properties": { "FID_sto_an": 1, "id": 0, "FID_linhas": 145, "Shape_Leng": 0.00063406288642300001 }, "geometry": { "type": "LineString", "coordinates": [ [ -52.972231818671361, -22.832427142277133 ], [ -52.972355248695784, -22.832460649939023 ], [ -52.972529996861851, -22.832507858051109 ], [ -52.972664007537922, -22.832543455016395 ], [ -52.972786386206096, -22.832574923703518 ] ] } },
{ "type": "Feature", "properties": { "FID_sto_an": 1, "id": 0, "FID_linhas": 146, "Shape_Leng": 0.00062778935393099998 }, "geometry": { "type": "LineString", "coordinates": [ [ -52.972812502219718, -22.832401636272714 ], [ -52.972747475415687, -22.832385819150169 ], [ -52.97259228660473, -22.832346272362546 ], [ -52.97245889466226, -22.83230886686065 ], [ -52.972287499859732, -22.832265317140553 ] ] } },
{ "type": "Feature", "properties": { "FID_sto_an": 1, "id": 0, "FID_linhas": 147, "Shape_Leng": 0.00062770491813900003 }, "geometry": { "type": "LineString", "coordinates": [ [ -52.972813587891714, -22.832394432519475 ], [ -52.972749497091577, -22.83237884310909 ], [ -52.972594448574888, -22.832339331394923 ], [ -52.972461053035119, -22.832301925893116 ], [ -52.972289518448051, -22.832258340615951 ] ] } },
{ "type": "Feature", "properties": { "FID_sto_an": 1, "id": 0, "FID_linhas": 148, "Shape_Leng": 0.00062756706356699996 }, "geometry": { "type": "LineString", "coordinates": [ [ -52.972815352084062, -22.832382726584409 ], [ -52.972752783214332, -22.832367507154693 ], [ -52.972597960427471, -22.832328052997152 ], [ -52.972464561290494, -22.832290646595975 ], [ -52.972292798921451, -22.832247002839544 ] ] } },
{ "type": "Feature", "properties": { "FID_sto_an": 1, "id": 0, "FID_linhas": 149, "Shape_Leng": 0.00060326030429799999 }, "geometry": { "type": "LineString", "coordinates": [ [ -52.97224208951598, -22.832398041550594 ], [ -52.972328789741823, -22.832422864023915 ], [ -52.972590791931452, -22.832489012757694 ], [ -52.972695678962424, -22.832519279441165 ], [ -52.972790913031503, -22.832544886885596 ] ] } },
{ "type": "Feature", "properties": { "FID_sto_an": 1, "id": 0, "FID_linhas": 150, "Shape_Leng": 0.00062748267200400003 }, "geometry": { "type": "LineString", "coordinates": [ [ -52.972816437772401, -22.832375522722902 ], [ -52.972754804890315, -22.832360531113615 ], [ -52.972600122397722, -22.832321112928987 ], [ -52.972466719663352, -22.832283704729161 ], [ -52.972294817595305, -22.832240026019267 ] ] } },
{ "type": "Feature", "properties": { "FID_sto_an": 1, "id": 0, "FID_linhas": 151, "Shape_Leng": 0.00062727528328299998 }, "geometry": { "type": "LineString", "coordinates": [ [ -52.972818744859808, -22.832360214519664 ], [ -52.972759101850968, -22.832345706688994 ], [ -52.972646411402707, -22.832316990436684 ], [ -52.972299040458253, -22.832225431212304 ] ] } },
{ "type": "Feature", "properties": { "FID_sto_an": 1, "id": 0, "FID_linhas": 152, "Shape_Leng": 0.00061814733602200004 }, "geometry": { "type": "LineString", "coordinates": [ [ -52.97224906677981, -22.832378272636532 ], [ -52.97230071650484, -22.832392845553361 ], [ -52.972442551282633, -22.832429050460256 ], [ -52.972606496792331, -22.832474355607001 ], [ -52.972685855667713, -22.832496448352323 ], [ -52.972793964820454, -22.8325246373686 ] ] } },
{ "type": "Feature", "properties": { "FID_sto_an": 1, "id": 0, "FID_linhas": 153, "Shape_Leng": 0.00062711757949899995 }, "geometry": { "type": "LineString", "coordinates": [ [ -52.972819830547351, -22.832353010663219 ], [ -52.972761123526951, -22.832338730647827 ], [ -52.972648510420377, -22.832310033281388 ], [ -52.9723010594236, -22.832218453384744 ] ] } },
{ "type": "Feature", "properties": { "FID_sto_an": 1, "id": 0, "FID_linhas": 154, "Shape_Leng": 0.00062688004088899999 }, "geometry": { "type": "LineString", "coordinates": [ [ -52.972821458997082, -22.832342205420296 ], [ -52.972764156040924, -22.832328267035805 ], [ -52.972651658047511, -22.83229959844768 ], [ -52.97230408762529, -22.832207987494634 ] ] } },
{ "type": "Feature", "properties": { "FID_sto_an": 1, "id": 0, "FID_linhas": 155, "Shape_Leng": 0.00062672146808399995 }, "geometry": { "type": "LineString", "coordinates": [ [ -52.972822544685506, -22.832335001558434 ], [ -52.972766178616183, -22.832321290994727 ], [ -52.972653757065181, -22.832292642191664 ], [ -52.972306106573853, -22.832201009725072 ] ] } },
{ "type": "Feature", "properties": { "FID_sto_an": 1, "id": 0, "FID_linhas": 156, "Shape_Leng": 0.00060026604055899997 }, "geometry": { "type": "LineString", "coordinates": [ [ -52.972260497314998, -22.832345886119775 ], [ -52.97231875960297, -22.832361679547851 ], [ -52.972601288818367, -22.832437029245444 ], [ -52.972689804590772, -22.832460110345764 ], [ -52.972799306086017, -22.832489196500759 ] ] } },
{ "type": "Feature", "properties": { "FID_sto_an": 1, "id": 0, "FID_linhas": 157, "Shape_Leng": 0.000486402212715 }, "geometry": { "type": "LineString", "coordinates": [ [ -52.972824630153838, -22.832321163862911 ], [ -52.972759716087985, -22.832304120238888 ], [ -52.972486822497771, -22.832231813974268 ] ] } },
{ "type": "Feature", "properties": { "FID_sto_an": 1, "id": 0, "FID_linhas": 158, "Shape_Leng": 0.00027901475613300003 }, "geometry": { "type": "LineString", "coordinates": [ [ -52.972825677273384, -22.832314215916693 ], [ -52.972781452701824, -22.832302846798868 ], [ -52.972654828292022, -22.83226726135068 ] ] } },
{ "type": "Feature", "properties": { "FID_sto_an": 1, "id": 0, "FID_linhas": 159, "Shape_Leng": 0.00061018421227800003 }, "geometry": { "type": "LineString", "coordinates": [ [ -52.972270347430211, -22.832317977460036 ], [ -52.972300636465135, -22.832326487277509 ], [ -52.972487566847683, -22.832377121806701 ], [ -52.972644992272556, -22.832420523088647 ], [ -52.972803461255118, -22.832461625732069 ] ] } },
{ "type": "Feature", "properties": { "FID_sto_an": 1, "id": 0, "FID_linhas": 160, "Shape_Leng": 0.00060384870729499995 }, "geometry": { "type": "LineString", "coordinates": [ [ -52.97227755933968, -22.832297543716539 ], [ -52.972326525248874, -22.832310687088441 ], [ -52.972633380226299, -22.832394634304908 ], [ -52.972806680515532, -22.832440264992137 ] ] } }
]
}
